,Nombre,Direccion,Coordenadas,latitud,longitud
0,Restaurante DSTAgE,"Calle Regueros, 8 28004 Madrid","{'type': 'Point', 'coordinates': [-3.6963316, 40.4245942]}",40.4245942,-3.6963316
1,Restaurante Lasarte,"Calle Mallorca, 259. 08008 Barcelona","{'type': 'Point', 'coordinates': [2.1863173, 41.4936096]}",41.4936096,2.1863173
2,Restaurante Kabuki Wellington,"Calle Velázquez, 6. 28001 Madrid (Madrid)","{'type': 'Point', 'coordinates': [-3.7798725, 40.3363102]}",40.3363102,-3.7798725
3,Restaurante Paco Roncero,"Calle Alcalá, 15 28014 Madrid","{'type': 'Point', 'coordinates': [-3.3019204, 40.298463]}",40.298463,-3.3019204
4,Restaurante Ramón Freixa,"Calle Claudio Coello, 67. 28001 Madrid (Madrid)","{'type': 'Point', 'coordinates': [-4.1466444, 40.5938943]}",40.5938943,-4.1466444
5,Restaurante Quique Dacosta,"Carrer Rascassa, 1","{'type': 'Point', 'coordinates': [4.8851566, 44.0419216]}",44.0419216,4.8851566
6,Restaurante Ricard Camarena Restaurant,"Avenida de Burjassot, 54 46009 Valencia","{'type': 'Point', 'coordinates': [-0.3852453, 39.4852529]}",39.4852529,-0.3852453
7,Restaurante El Celler de Can Roca,"Carrer de Can Sunyer, 48, 17007 Girona, España","{'type': 'Point', 'coordinates': [2.8077671336, 41.99340125]}",41.99340125,2.8077671336
8,Restaurante Akelarre,"Paseo Padre Orkolaga, 56. 20008 San Sebastián (Gipuzkoa)","{'type': 'Point', 'coordinates': [-2.0431538, 43.3077826]}",43.3077826,-2.0431538
9,Restaurante Arzak,"Avenida Alcalde José Elosegui, 273  (San Sebastián)","{'type': 'Point', 'coordinates': [-1.9530597, 43.321489]}",43.321489,-1.9530597
10,Restaurante Mugaritz,"Aldura Gunea Aldea, 20, 20100 Errenteria, Gipuzkoa, España","{'type': 'Point', 'coordinates': [-1.8976476, 43.2699797]}",43.2699797,-1.8976476
11,Restaurante Elkano,"Calle Herrerieta, 2 20808 Getaria (Gipuzkoa)","{'type': 'Point', 'coordinates': [-2.2050624, 43.3030425]}",43.3030425,-2.2050624
12,Restaurante Nerua Guggenheim Bilbao,"Avenida Abandoibarra, 2 48009 Bilbao","{'type': 'Point', 'coordinates': [-2.9345649, 43.2686558]}",43.2686558,-2.9345649
13,Restaurante El Portal de Echaurren,"Calle Padre José García, 19 26280 Ezcaray (Rioja, La)","{'type': 'Point', 'coordinates': [-3.0143275, 42.3259394]}",42.3259394,-3.0143275
14,Restaurante Noor,"Calle Pablo Ruiz Picasso, 8. 14014 Córdoba","{'type': 'Point', 'coordinates': [-4.202703, 37.4413201]}",37.4413201,-4.202703
15,Restaurante Casa Solla,"Avenida Sineiro, 7 36995 San Salvador de Poio, Pontevedra","{'type': 'Point', 'coordinates': [-8.6688678, 42.4332552]}",42.4332552,-8.6688678
16,Restaurante Abantal,"Calle Alcalde José de la Bandera, 7 41003 Sevilla","{'type': 'Point', 'coordinates': [-5.9837138, 37.3879291]}",37.3879291,-5.9837138
17,Restaurante Bagá,"Calle Reja de la Capilla, 3. 23001 Jaén (Jaén)","{'type': 'Point', 'coordinates': [-3.7862887, 37.7668497]}",37.7668497,-3.7862887
18,Restaurante Los Marinos José,"Paseo Marítimo Rey de España, 161. 29640 Fuengirola (Málaga)","{'type': 'Point', 'coordinates': [-4.6181456, 36.5441549]}",36.5441549,-4.6181456
19,Restaurante El Campero,"Avenida de la Constitución, 5-C. Barbate (Cádiz). 11160","{'type': 'Point', 'coordinates': [-5.9247296, 36.1886762]}",36.1886762,-5.9247296
20,Restaurante Zuberoa,"Araneder Bidea, 20180 Iturriotz, Gipuzkoa","{'type': 'Point', 'coordinates': [-1.8650503, 43.2928867]}",43.2928867,-1.8650503
21,Restaurante DiverXO,"Calle Padre Damián, 23 28036 Madrid","{'type': 'Point', 'coordinates': [-3.864349, 40.7268324]}",40.7268324,-3.864349
22,Restaurante Vía Veneto,"Calle Ganduxer, 10. 08021 Barcelona","{'type': 'Point', 'coordinates': [2.1391279, 41.392474]}",41.392474,2.1391279
23,Restaurante ABaC,"Avenida Tibidabo,1. 08022 Barcelona","{'type': 'Point', 'coordinates': [2.1365386, 41.4104436]}",41.4104436,2.1365386
24,Restaurante Cocina Hermanos Torres,"Carrer del Taquígraf Serra, 20. 08029 Barcelona (Barcelona)","{'type': 'Point', 'coordinates': [2.1401414071, 41.3863062]}",41.3863062,2.1401414071
25,Restaurante Lú Cocina y Alma,"Calle Zaragoza, 2. 11402 Jerez de la Frontera (Cádiz)","{'type': 'Point', 'coordinates': [-6.1333267, 36.688668]}",36.688668,-6.1333267
26,Restaurante Sollo,"Avenida El Higuerón, 48 29640 Fuengirola (Málaga)","{'type': 'Point', 'coordinates': [-4.5954309, 36.5800831]}",36.5800831,-4.5954309
27,Restaurante Kazan,"Paseo Milicias de Garachico, 1 38003 Santa Cruz de Tenerife","{'type': 'Point', 'coordinates': [-16.2488412, 28.4684553]}",28.4684553,-16.2488412
28,Restaurante Casona del Judío,"Calle Repuente, 20 39012 Santander (Cantabria)","{'type': 'Point', 'coordinates': [-3.8291356, 43.4686352]}",43.4686352,-3.8291356
29,Restaurante Novodabo,"Plaza Aragón, 12, 50004 Zaragoza, España","{'type': 'Point', 'coordinates': [-0.8850064, 41.6488174]}",41.6488174,-0.8850064
30,Restaurante Gastronomico Cañadío,"Calle Gómez Oreña, 15 39003 Santander (Cantabria)","{'type': 'Point', 'coordinates': [-3.8019086, 43.463661]}",43.463661,-3.8019086
31,Restaurante Solana,"Calle La Bien Aparecida, 11 39849 Ampuero (Cantabria)","{'type': 'Point', 'coordinates': [-3.4514017785, 43.326925]}",43.326925,-3.4514017785
32,Restaurante El Bohío,"Avenida de Castilla - La Mancha, 81. 45200 Illescas (Toledo)","{'type': 'Point', 'coordinates': [-3.8445015, 40.1288269]}",40.1288269,-3.8445015
33,Restaurante El Doncel,"Paseo de la Alameda, 3. 19250 Sigüenza (Guadalajara)","{'type': 'Point', 'coordinates': [-2.6434055, 41.069502]}",41.069502,-2.6434055
34,Restaurante Baluarte,"Calle Caballeros, 14. 42002 Soria","{'type': 'Point', 'coordinates': [-2.4655069, 41.7623923]}",41.7623923,-2.4655069
35,Restaurante Maralba,"Calle Violeta Parra, 5. 02640 almansa (Albacete)","{'type': 'Point', 'coordinates': [-1.0910865, 38.8696503]}",38.8696503,-1.0910865
36,Restaurante Rivas,"Calle Carretera, 33. 37170 Vega de Tirados (Salamanca)","{'type': 'Point', 'coordinates': [-5.8863639, 41.0235381]}",41.0235381,-5.8863639
37,Restaurante Víctor Gutiérrez,"Calle Empedrada, 4 37007 Salamanca","{'type': 'Point', 'coordinates': [-5.6703059, 40.9630258]}",40.9630258,-5.6703059
38,Restaurante Caelis,"Vía Laietana, 49. 08003 Barcelona (Barcelona)","{'type': 'Point', 'coordinates': [2.1742731, 41.3869749]}",41.3869749,2.1742731
39,Restaurante El Almacén,"Carretera de Salamanca, 6. 05002 Ávila","{'type': 'Point', 'coordinates': [-4.7685063, 40.7087181]}",40.7087181,-4.7685063
40,Restaurante Cinc Sentits,"Carrer d'Entença, 60, 08015 Barcelona, España","{'type': 'Point', 'coordinates': [2.1530727399, 41.3780056855]}",41.3780056855,2.1530727399
41,Restaurante Coure,"Passatge Marimón, 20. 08021 Barcelona (Barcelona)","{'type': 'Point', 'coordinates': [2.1478356238, 41.3943374]}",41.3943374,2.1478356238
42,Restaurante Koy Shunka,"Calle Copons, 7. 08002 Barcelona","{'type': 'Point', 'coordinates': [2.1753677, 41.385702]}",41.385702,2.1753677
43,Restaurante Enoteca - Paco Pérez,"Calle Marina, 19-21. 08005 Barcelona (Barcelona)","{'type': 'Point', 'coordinates': [-64.6832905, 10.1356658]}",10.1356658,-64.6832905
44,Restaurante Estrella del Bajo Carrión,"Calle Mayor, 32. 34131 Villoldo (Palencia)","{'type': 'Point', 'coordinates': [-4.6213235, 42.2482769]}",42.2482769,-4.6213235
45,Restaurante Noor,"Calle Pablo Ruiz Picasso, 8. 14014 Córdoba","{'type': 'Point', 'coordinates': [-4.202703, 37.4413201]}",37.4413201,-4.202703
46,Restaurante Cocina Hermanos Torres,"Carrer del Taquígraf Serra, 20. 08029 Barcelona (Barcelona)","{'type': 'Point', 'coordinates': [2.1401414071, 41.3863062]}",41.3863062,2.1401414071
47,Restaurante ABaC,"Avenida Tibidabo,1. 08022 Barcelona","{'type': 'Point', 'coordinates': [2.1365386, 41.4104436]}",41.4104436,2.1365386
48,Restaurante La Botica de Matapozuelos,"Plaza Mayor, 2 47230 Matapozuelos (Valladolid)","{'type': 'Point', 'coordinates': [-4.7917303, 41.4142575]}",41.4142575,-4.7917303
49,Restaurante El Celler de Can Roca,"Carrer de Can Sunyer, 48, 17007 Girona, España","{'type': 'Point', 'coordinates': [2.8077671336, 41.99340125]}",41.99340125,2.8077671336
50,Restaurante Lasarte,"Calle Mallorca, 259. 08008 Barcelona","{'type': 'Point', 'coordinates': [2.1863173, 41.4936096]}",41.4936096,2.1863173
51,Restaurante Vía Veneto,"Calle Ganduxer, 10. 08021 Barcelona","{'type': 'Point', 'coordinates': [2.1391279, 41.392474]}",41.392474,2.1391279
52,Restaurante DSTAgE,"Calle Regueros, 8 28004 Madrid","{'type': 'Point', 'coordinates': [-3.6963316, 40.4245942]}",40.4245942,-3.6963316
53,Restaurante Angle,"Carrer d'Aragó, 214, 08011 Barcelona, España","{'type': 'Point', 'coordinates': [2.1600634, 41.3883118]}",41.3883118,2.1600634
54,Restaurante DiverXO,"Calle Padre Damián, 23 28036 Madrid","{'type': 'Point', 'coordinates': [-3.864349, 40.7268324]}",40.7268324,-3.864349
55,Restaurante Ramón Freixa,"Calle Claudio Coello, 67. 28001 Madrid (Madrid)","{'type': 'Point', 'coordinates': [-4.1466444, 40.5938943]}",40.5938943,-4.1466444
56,Restaurante Ricard Camarena Restaurant,"Avenida de Burjassot, 54 46009 Valencia","{'type': 'Point', 'coordinates': [-0.3852453, 39.4852529]}",39.4852529,-0.3852453
57,Restaurante Akelarre,"Paseo Padre Orkolaga, 56. 20008 San Sebastián (Gipuzkoa)","{'type': 'Point', 'coordinates': [-2.0431538, 43.3077826]}",43.3077826,-2.0431538
58,Restaurante Cocinandos,"Plaza de San Marcos, 1. 24001 León (León)","{'type': 'Point', 'coordinates': [-5.5799462, 42.6018545]}",42.6018545,-5.5799462
59,Restaurante Arzak,"Avenida Alcalde José Elosegui, 273  (San Sebastián)","{'type': 'Point', 'coordinates': [-1.9530597, 43.321489]}",43.321489,-1.9530597
60,Restaurante Kabuki Wellington,"Calle Velázquez, 6. 28001 Madrid (Madrid)","{'type': 'Point', 'coordinates': [-3.7798725, 40.3363102]}",40.3363102,-3.7798725
61,Restaurante Quique Dacosta,"Carrer Rascassa, 1","{'type': 'Point', 'coordinates': [4.8851566, 44.0419216]}",44.0419216,4.8851566
62,Restaurante Mugaritz,"Aldura Gunea Aldea, 20, 20100 Errenteria, Gipuzkoa, España","{'type': 'Point', 'coordinates': [-1.8976476, 43.2699797]}",43.2699797,-1.8976476
63,Restaurante Elkano,"Calle Herrerieta, 2 20808 Getaria (Gipuzkoa)","{'type': 'Point', 'coordinates': [-2.2050624, 43.3030425]}",43.3030425,-2.2050624
64,Restaurante Nerua Guggenheim Bilbao,"Avenida Abandoibarra, 2 48009 Bilbao","{'type': 'Point', 'coordinates': [-2.9345649, 43.2686558]}",43.2686558,-2.9345649
65,Restaurante Bagá,"Calle Reja de la Capilla, 3. 23001 Jaén (Jaén)","{'type': 'Point', 'coordinates': [-3.7862887, 37.7668497]}",37.7668497,-3.7862887
66,Restaurante Abantal,"Calle Alcalde José de la Bandera, 7 41003 Sevilla","{'type': 'Point', 'coordinates': [-5.9837138, 37.3879291]}",37.3879291,-5.9837138
67,Restaurante El Portal de Echaurren,"Calle Padre José García, 19 26280 Ezcaray (Rioja, La)","{'type': 'Point', 'coordinates': [-3.0143275, 42.3259394]}",42.3259394,-3.0143275
68,Restaurante El Campero,"Avenida de la Constitución, 5-C. Barbate (Cádiz). 11160","{'type': 'Point', 'coordinates': [-5.9247296, 36.1886762]}",36.1886762,-5.9247296
69,Restaurante Los Marinos José,"Paseo Marítimo Rey de España, 161. 29640 Fuengirola (Málaga)","{'type': 'Point', 'coordinates': [-4.6181456, 36.5441549]}",36.5441549,-4.6181456
70,Restaurante Sollo,"Avenida El Higuerón, 48 29640 Fuengirola (Málaga)","{'type': 'Point', 'coordinates': [-4.5954309, 36.5800831]}",36.5800831,-4.5954309
71,Restaurante Novodabo,"Plaza Aragón, 12, 50004 Zaragoza, España","{'type': 'Point', 'coordinates': [-0.8850064, 41.6488174]}",41.6488174,-0.8850064
72,Restaurante Lú Cocina y Alma,"Calle Zaragoza, 2. 11402 Jerez de la Frontera (Cádiz)","{'type': 'Point', 'coordinates': [-6.1333267, 36.688668]}",36.688668,-6.1333267
73,Restaurante Kazan,"Paseo Milicias de Garachico, 1 38003 Santa Cruz de Tenerife","{'type': 'Point', 'coordinates': [-16.2488412, 28.4684553]}",28.4684553,-16.2488412
74,Restaurante Gastronomico Cañadío,"Calle Gómez Oreña, 15 39003 Santander (Cantabria)","{'type': 'Point', 'coordinates': [-3.8019086, 43.463661]}",43.463661,-3.8019086
75,Restaurante Solana,"Calle La Bien Aparecida, 11 39849 Ampuero (Cantabria)","{'type': 'Point', 'coordinates': [-3.4514017785, 43.326925]}",43.326925,-3.4514017785
76,Restaurante Casona del Judío,"Calle Repuente, 20 39012 Santander (Cantabria)","{'type': 'Point', 'coordinates': [-3.8291356, 43.4686352]}",43.4686352,-3.8291356
77,Restaurante Zuberoa,"Araneder Bidea, 20180 Iturriotz, Gipuzkoa","{'type': 'Point', 'coordinates': [-1.8650503, 43.2928867]}",43.2928867,-1.8650503
78,Restaurante Paco Roncero,"Calle Alcalá, 15 28014 Madrid","{'type': 'Point', 'coordinates': [-3.3019204, 40.298463]}",40.298463,-3.3019204
79,Restaurante Baluarte,"Calle Caballeros, 14. 42002 Soria","{'type': 'Point', 'coordinates': [-2.4655069, 41.7623923]}",41.7623923,-2.4655069
80,Restaurante Cocinandos,"Plaza de San Marcos, 1. 24001 León (León)","{'type': 'Point', 'coordinates': [-5.5799462, 42.6018545]}",42.6018545,-5.5799462
81,Restaurante El Bohío,"Avenida de Castilla - La Mancha, 81. 45200 Illescas (Toledo)","{'type': 'Point', 'coordinates': [-3.8445015, 40.1288269]}",40.1288269,-3.8445015
82,Restaurante El Doncel,"Paseo de la Alameda, 3. 19250 Sigüenza (Guadalajara)","{'type': 'Point', 'coordinates': [-2.6434055, 41.069502]}",41.069502,-2.6434055
83,Restaurante Maralba,"Calle Violeta Parra, 5. 02640 almansa (Albacete)","{'type': 'Point', 'coordinates': [-1.0910865, 38.8696503]}",38.8696503,-1.0910865
84,Restaurante Estrella del Bajo Carrión,"Calle Mayor, 32. 34131 Villoldo (Palencia)","{'type': 'Point', 'coordinates': [-4.6213235, 42.2482769]}",42.2482769,-4.6213235
85,Restaurante La Botica de Matapozuelos,"Plaza Mayor, 2 47230 Matapozuelos (Valladolid)","{'type': 'Point', 'coordinates': [-4.7917303, 41.4142575]}",41.4142575,-4.7917303
86,Restaurante Lera,"Calle de los Conquistadores zamoranos, 6. 49110 Castroverde de Campos (Zamora)","{'type': 'Point', 'coordinates': [-5.3145641, 41.9683504]}",41.9683504,-5.3145641
87,Restaurante Rivas,"Calle Carretera, 33. 37170 Vega de Tirados (Salamanca)","{'type': 'Point', 'coordinates': [-5.8863639, 41.0235381]}",41.0235381,-5.8863639
88,Restaurante Víctor Gutiérrez,"Calle Empedrada, 4 37007 Salamanca","{'type': 'Point', 'coordinates': [-5.6703059, 40.9630258]}",40.9630258,-5.6703059
89,Restaurante El Almacén,"Carretera de Salamanca, 6. 05002 Ávila","{'type': 'Point', 'coordinates': [-4.7685063, 40.7087181]}",40.7087181,-4.7685063
90,Restaurante Angle,"Carrer d'Aragó, 214, 08011 Barcelona, España","{'type': 'Point', 'coordinates': [2.1600634, 41.3883118]}",41.3883118,2.1600634
91,Restaurante Caelis,"Vía Laietana, 49. 08003 Barcelona (Barcelona)","{'type': 'Point', 'coordinates': [2.1742731, 41.3869749]}",41.3869749,2.1742731
92,Restaurante Cinc Sentits,"Carrer d'Entença, 60, 08015 Barcelona, España","{'type': 'Point', 'coordinates': [2.1530727399, 41.3780056855]}",41.3780056855,2.1530727399
93,Restaurante Lera,"Calle de los Conquistadores zamoranos, 6. 49110 Castroverde de Campos (Zamora)","{'type': 'Point', 'coordinates': [-5.3145641, 41.9683504]}",41.9683504,-5.3145641
94,Restaurante Casa Solla,"Avenida Sineiro, 7 36995 San Salvador de Poio, Pontevedra","{'type': 'Point', 'coordinates': [-8.6688678, 42.4332552]}",42.4332552,-8.6688678
95,Restaurante Massana,"Calle Bonastruc de Porta, 10. 17001 Girona (Girona)","{'type': 'Point', 'coordinates': [2.8194569, 41.984976]}",41.984976,2.8194569
96,Restaurante Coure,"Passatge Marimón, 20. 08021 Barcelona (Barcelona)","{'type': 'Point', 'coordinates': [2.1478356238, 41.3943374]}",41.3943374,2.1478356238
97,Restaurante Lluerna,"Avenida Pallaresa, 104. 08921 Santa Coloma de Gramanet","{'type': 'Point', 'coordinates': [2.2064924, 41.4553057]}",41.4553057,2.2064924
98,Restaurante Ábaco,"Calle Juan de Labrit, 19. 31001 Pamplona (Navarra)","{'type': 'Point', 'coordinates': [-1.6380469, 42.8173409]}",42.8173409,-1.6380469
99,Restaurante Cebo,"Carrera de San Jerónimo, 34. 28014 Madrid","{'type': 'Point', 'coordinates': [-3.6985954, 40.4164051]}",40.4164051,-3.6985954
100,Restaurante La Boscana,"Carretera LV-3311, 4, 25142 Bellvís, Lleida","{'type': 'Point', 'coordinates': [0.8133241, 41.667542]}",41.667542,0.8133241
101,Restaurante Enoteca - Paco Pérez,"Calle Marina, 19-21. 08005 Barcelona (Barcelona)","{'type': 'Point', 'coordinates': [-64.6832905, 10.1356658]}",10.1356658,-64.6832905
102,Restaurante ABarra,"Calle del Pinar, 15. 28006 Madrid (Madrid)","{'type': 'Point', 'coordinates': [-3.6878244, 40.4386537]}",40.4386537,-3.6878244
103,Restaurante Koy Shunka,"Calle Copons, 7. 08002 Barcelona","{'type': 'Point', 'coordinates': [2.1753677, 41.385702]}",41.385702,2.1753677
104,Restaurante 99 Sushi Bar NH Eurobuilding,"Calle Padre Damián, 23. 28036 Madrid (Madrid)","{'type': 'Point', 'coordinates': [-3.864349, 40.7268324]}",40.7268324,-3.864349
105,Restaurante Chirón,"Calle Alarcón, 27 28341 Valdemoro (Madrid)","{'type': 'Point', 'coordinates': [-3.6762119, 40.1908206]}",40.1908206,-3.6762119
106,Restaurante El Invernadero - Rodrigo de la Calle,"Calle Ponzano, 85. 28003 Madrid (Madrid)","{'type': 'Point', 'coordinates': [-3.6990159, 40.4422874]}",40.4422874,-3.6990159
107,Restaurante Moments,"Passeig de Gràcia, 38-40 08007 Barcelona","{'type': 'Point', 'coordinates': [2.1669139759, 41.39138095]}",41.39138095,2.1669139759
108,Restaurante El Paraguas,"Calle Jorge Juan, 16. 28002 Madrid (Madrid)","{'type': 'Point', 'coordinates': [-4.0249382, 40.4897942]}",40.4897942,-4.0249382
109,Restaurante Corral de la Morería,"Calle Morería, 17. 28005 Madrid (Madrid)","{'type': 'Point', 'coordinates': [-3.7141526, 40.4127674]}",40.4127674,-3.7141526
110,Restaurante Maher,"Calle Ribera, 19. 31592 Cintruénigo (Navarra)","{'type': 'Point', 'coordinates': [-1.8051946, 42.0836283]}",42.0836283,-1.8051946
111,Restaurante Horcher,"Calle Alfonso XII, 6. 28014 Madrid (Madrid)","{'type': 'Point', 'coordinates': [-3.5932976, 40.2758576]}",40.2758576,-3.5932976
112,Restaurante Gofio,"Calle Lope de Vega, 9. 28014 Madrid (Madrid)","{'type': 'Point', 'coordinates': [-3.3337624, 40.6333589]}",40.6333589,-3.3337624
113,Restaurante Askua,"Calle Felip María Garín, 4. 46021 Valencia (Valencia)","{'type': 'Point', 'coordinates': [-0.3591523, 39.4687152]}",39.4687152,-0.3591523
114,Restaurante Viridiana,"Calle Juan de Mena, 14. 28014 Madrid (Madrid)","{'type': 'Point', 'coordinates': [-3.6895976, 40.4172352]}",40.4172352,-3.6895976
115,Restaurante Lakasa,"Plaza del Descubridor Diego de Ordás, 1. 28003 Madrid (Madrid)","{'type': 'Point', 'coordinates': [-3.7007791, 40.4408805]}",40.4408805,-3.7007791
116,Restaurante Beat,"Urbanización Marisol Park, 1 03710 Calp (Alicante)","{'type': 'Point', 'coordinates': [0.0602755, 38.6478298]}",38.6478298,0.0602755
117,Restaurante Kappo,"Calle Bretón de los Herreros, 54. 28003 Madrid (Madrid)","{'type': 'Point', 'coordinates': [-3.6937481, 40.4392697]}",40.4392697,-3.6937481
118,Restaurante El Poblet,"Carrer de Correus, 8, 46002 València, Valencia, España","{'type': 'Point', 'coordinates': [-0.3745483, 39.4697061]}",39.4697061,-0.3745483
119,Restaurante Kabuki Komori,"Carrer del General Gil Dolz, s/n","{'type': 'Point', 'coordinates': [-0.3615829, 39.4723468]}",39.4723468,-0.3615829
120,Restaurante La Salita,"Carrer de Pere III el Gran, 11, 46005 València, Valencia, España","{'type': 'Point', 'coordinates': [-0.3695473, 39.4624613]}",39.4624613,-0.3695473
121,Restaurante La Tasquita de Enfrente,"Calle Ballesta, 6. 28004 Madrid (Madrid)","{'type': 'Point', 'coordinates': [-3.7035291, 40.421321]}",40.421321,-3.7035291
122,Restaurante La Sucursal,Edificio Veles e Vents Valencia,"{'type': 'Point', 'coordinates': [-0.3252861911, 39.46180485]}",39.46180485,-0.3252861911
123,Restaurante Manuel Alonso restaurante,"Paseo Marítimo, 5 46710 Daimús (Valencia)","{'type': 'Point', 'coordinates': [-0.1423324, 38.9773904]}",38.9773904,-0.1423324
124,Restaurante Nou Manolín,"Calle Villegas, 3 03001 Alicante","{'type': 'Point', 'coordinates': [-0.4846296, 38.3454248]}",38.3454248,-0.4846296
125,Restaurante Riff,"Calle Conde de Altea, 18 46005 Valencia","{'type': 'Point', 'coordinates': [0.0403458, 38.6445111]}",38.6445111,0.0403458
126,Restaurante Peix i Brases,"Plaza Benidorm, 16 03700 Dénia (Alicante)","{'type': 'Point', 'coordinates': [0.1069469, 38.8458928]}",38.8458928,0.1069469
127,Restaurante Lúa,"Paseo Eduardo Dato, 5. 28010 Madrid (Madrid)","{'type': 'Point', 'coordinates': [-3.6964975, 40.4326728]}",40.4326728,-3.6964975
128,Restaurante O'Pazo,"Calle Reina Mercedes, 20 28020 Madrid","{'type': 'Point', 'coordinates': [-3.8122696, 40.436316]}",40.436316,-3.8122696
129,Restaurante Kabia,"Legazpi Kalea, 5, 20700 Zumarraga, Gipuzkoa, España","{'type': 'Point', 'coordinates': [-2.3151175, 43.0897612]}",43.0897612,-2.3151175
130,Restaurante Atelier Etxanobe,"Calle juan ajuriaguerra kalea, 8, 48009 bilbo, bizkaia, españa","{'type': 'Point', 'coordinates': [-2.9314828, 43.2654325]}",43.2654325,-2.9314828
131,Restaurante Andra Mari,"Barrio Elexalde, 22. 48960 Galdakao (Bizkaia)","{'type': 'Point', 'coordinates': [-2.8328025, 43.2357925]}",43.2357925,-2.8328025
132,Restaurante Kaia-Kaipe,"Calle General Arnao, 4. 20808 Getaria (Gipuzkoa)","{'type': 'Point', 'coordinates': [-2.2034128, 43.3047329]}",43.3047329,-2.2034128
133,Restaurante Kokotxa,"Calle Campanario, 11. 20003 San Sebastián (Gipuzkoa)","{'type': 'Point', 'coordinates': [-1.9871486, 43.3235374]}",43.3235374,-1.9871486
134,Restaurante Mirador de Ulía,"Paseo de Ulía, 193. 20013 San Sebastián (Guipuzcoa)","{'type': 'Point', 'coordinates': [-1.9530171, 43.3215118]}",43.3215118,-1.9530171
135,Restaurante Zortziko,"Alameda Mazarredo, 17. 48001 Bilbao (Vizcaya)","{'type': 'Point', 'coordinates': [-2.9294918, 43.2646754]}",43.2646754,-2.9294918
136,Restaurante Zarate,"Calle Licenciado Poza, 65. 48013 Bilbao (Bizkaia)","{'type': 'Point', 'coordinates': [-2.9435491, 43.2625689]}",43.2625689,-2.9435491
137,Restaurante Bido,"Calle Marcial del Adalid, 2-4 15005 A Coruña","{'type': 'Point', 'coordinates': [-8.4080309, 43.3621849]}",43.3621849,-8.4080309
138,Restaurante Casa Marcelo,"Rúa Hortas, 1. 15705 Santiago de Compostela (A Coruña)","{'type': 'Point', 'coordinates': [-8.5469538, 42.8806695]}",42.8806695,-8.5469538
139,Restaurante España,"Rua do Teatro, 10","{'type': 'Point', 'coordinates': [-7.555105, 43.0125285]}",43.0125285,-7.555105
140,Restaurante Saiti,"Calle Reina Doña Germana, 4 46005 Valencia","{'type': 'Point', 'coordinates': [-0.3660793, 39.4637523]}",39.4637523,-0.3660793
141,Restaurante Maruja Limón,"Rua Montero Ríos, 4. 36201 Vigo (Pontevedra)","{'type': 'Point', 'coordinates': [-8.7238441, 42.2403465]}",42.2403465,-8.7238441
142,Restaurante Aizian,"Calle Lehendakari Leizaola, 29 48001 Bilbao (Bizkaia)","{'type': 'Point', 'coordinates': [-2.9418734512, 43.26742485]}",43.26742485,-2.9418734512
143,Restaurante Retiro da Costiña,"Avenida Santiago, 12. 15840 Santa Comba (A Coruña)","{'type': 'Point', 'coordinates': [-8.8039443, 43.0332621]}",43.0332621,-8.8039443
144,Restaurante Vertical,"Calle Luis García Berlanga, 19 46023","{'type': 'Point', 'coordinates': [-0.3480064, 39.4570064]}",39.4570064,-0.3480064
145,Restaurante Alameda,"Plaza Félix Azpilicueta, 1. 26360 Fuenmayor (Rioja La)","{'type': 'Point', 'coordinates': [-2.5612924, 42.4671161]}",42.4671161,-2.5612924
146,Restaurante Dins Santi Taura,"Hotel el llorenç pl. llorenç villalonga, 4","{'type': 'Point', 'coordinates': [1.5934051, 41.1896687]}",41.1896687,1.5934051
147,Restaurante Kiro Sushi,"Calle María Teresa Gil de Gárate, 24 2600 Logroño (Rioja, La)","{'type': 'Point', 'coordinates': [-2.450713, 42.4593522]}",42.4593522,-2.450713
148,Restaurante Venta Moncalvillo,"Carretera de Medrano, 6 26373 Daroca de Rioja (Rioja, La)","{'type': 'Point', 'coordinates': [-2.5805146421, 42.3713094]}",42.3713094,-2.5805146421
149,Restaurante Casa Fermín,"Calle San Francisco, 8. 33003 Oviedo (Asturias)","{'type': 'Point', 'coordinates': [-5.8469384, 43.3620421]}",43.3620421,-5.8469384
150,Restaurante El Corral del Indianu,AVENIDA EUROPA  Nº 14,"{'type': 'Point', 'coordinates': [9.2641057, 45.5152872]}",45.5152872,9.2641057
151,Restaurante La Huertona,"Carretera La Piconera, 2. 33560 Ribadesella (Asturias)","{'type': 'Point', 'coordinates': [-5.0660425, 43.4451942]}",43.4451942,-5.0660425
152,Restaurante Real Balneario,"Avenida Juan Sitges, 3. 3","{'type': 'Point', 'coordinates': [-5.9681271, 43.5786086]}",43.5786086,-5.9681271
153,Restaurante El Olivar,"Carretera Caravaca, 50 30440 Moratalla (Murcia)","{'type': 'Point', 'coordinates': [-1.8908024, 38.185059]}",38.185059,-1.8908024
154,Restaurante Magoga,"Plaza Doctor Vicente García Marcos, 5 30201 Cartagena (Murcia)","{'type': 'Point', 'coordinates': [-0.9837671132, 37.60539825]}",37.60539825,-0.9837671132
155,Restaurante Arrieros,"Calle Arrieros, 2. 21207 Linares de la Sierra (Huelva)","{'type': 'Point', 'coordinates': [-6.6218011, 37.8793741]}",37.8793741,-6.6218011
156,Restaurante Can Domo,"Carretera Jesús - Cala Llonga,  07840","{'type': 'Point', 'coordinates': [1.4941314, 38.9520561]}",38.9520561,1.4941314
157,Restaurante Nito,"Playa de Area, 1. 27863 Viveiro (Lugo)","{'type': 'Point', 'coordinates': [-7.5781282398, 43.6915589]}",43.6915589,-7.5781282398
158,Restaurante Cañabota,"Calle Orfila, 3. 41003 Sevilla (Sevilla)","{'type': 'Point', 'coordinates': [-5.993541773, 37.39350705]}",37.39350705,-5.993541773
159,Restaurante Celia Jiménez,"Calle Escritora María Goyri, s/n 14005 Córdoba","{'type': 'Point', 'coordinates': [-4.8023782, 37.8798222]}",37.8798222,-4.8023782
160,Restaurante Código de Barra,"Calle San Francisco,7, 11004, Cádiz","{'type': 'Point', 'coordinates': [-6.2954730629, 36.5337313]}",36.5337313,-6.2954730629
161,Restaurante Sacha (Botillería y fogón),"Calle Juan Hurtado de Mendoza, 11. 28036 Madrid (Madrid)","{'type': 'Point', 'coordinates': [-4.0467548, 40.6087658]}",40.6087658,-4.0467548
162,Restaurante Dama Juana,"Calle Melchor Cobo Medina, 7, 23001 Jaén, España","{'type': 'Point', 'coordinates': [-3.7854908, 37.7672055]}",37.7672055,-3.7854908
163,Restaurante El Churrasco,"Calle Romero, 16 14003 Córdoba","{'type': 'Point', 'coordinates': [-4.7818471, 37.8800342]}",37.8800342,-4.7818471
164,Restaurante Noor,"Calle Pablo Ruiz Picasso, 8. 14014 Córdoba","{'type': 'Point', 'coordinates': [-4.202703, 37.4413201]}",37.4413201,-4.202703
165,Restaurante Cocina Hermanos Torres,"Carrer del Taquígraf Serra, 20. 08029 Barcelona (Barcelona)","{'type': 'Point', 'coordinates': [2.1401414071, 41.3863062]}",41.3863062,2.1401414071
166,Restaurante Cantina La Estación,"Cuesta Rodadera, 1, Úbeda, Jaén.","{'type': 'Point', 'coordinates': [-3.3672187, 38.0116761]}",38.0116761,-3.3672187
167,Restaurante ABaC,"Avenida Tibidabo,1. 08022 Barcelona","{'type': 'Point', 'coordinates': [2.1365386, 41.4104436]}",41.4104436,2.1365386
168,Restaurante Lasarte,"Calle Mallorca, 259. 08008 Barcelona","{'type': 'Point', 'coordinates': [2.1863173, 41.4936096]}",41.4936096,2.1863173
169,Restaurante Arte de Cozina,"Calle Calzada, 27 29200 Antequera (Málaga)","{'type': 'Point', 'coordinates': [-4.5579799, 37.0183284]}",37.0183284,-4.5579799
170,Restaurante Canela en Rama,"Calle Espronceda, 22. 23700 Linares (Jaén)","{'type': 'Point', 'coordinates': [-3.6316777, 38.0957463]}",38.0957463,-3.6316777
171,Restaurante Vía Veneto,"Calle Ganduxer, 10. 08021 Barcelona","{'type': 'Point', 'coordinates': [2.1391279, 41.392474]}",41.392474,2.1391279
172,Restaurante DiverXO,"Calle Padre Damián, 23 28036 Madrid","{'type': 'Point', 'coordinates': [-3.864349, 40.7268324]}",40.7268324,-3.864349
173,Restaurante Casa Bigote,"Pórtico de Bajo de Guía, 10. 11540 Sanlúcar de Barrameda (Cádiz)","{'type': 'Point', 'coordinates': [-6.3519811, 36.7890552]}",36.7890552,-6.3519811
174,Restaurante DSTAgE,"Calle Regueros, 8 28004 Madrid","{'type': 'Point', 'coordinates': [-3.6963316, 40.4245942]}",40.4245942,-3.6963316
175,Restaurante Kabuki Wellington,"Calle Velázquez, 6. 28001 Madrid (Madrid)","{'type': 'Point', 'coordinates': [-3.7798725, 40.3363102]}",40.3363102,-3.7798725
176,Restaurante Paco Roncero,"Calle Alcalá, 15 28014 Madrid","{'type': 'Point', 'coordinates': [-3.3019204, 40.298463]}",40.298463,-3.3019204
177,Restaurante El Celler de Can Roca,"Carrer de Can Sunyer, 48, 17007 Girona, España","{'type': 'Point', 'coordinates': [2.8077671336, 41.99340125]}",41.99340125,2.8077671336
178,Restaurante Ramón Freixa,"Calle Claudio Coello, 67. 28001 Madrid (Madrid)","{'type': 'Point', 'coordinates': [-4.1466444, 40.5938943]}",40.5938943,-4.1466444
179,Restaurante Ricard Camarena Restaurant,"Avenida de Burjassot, 54 46009 Valencia","{'type': 'Point', 'coordinates': [-0.3852453, 39.4852529]}",39.4852529,-0.3852453
180,Restaurante Quique Dacosta,"Carrer Rascassa, 1","{'type': 'Point', 'coordinates': [4.8851566, 44.0419216]}",44.0419216,4.8851566
181,Restaurante Akelarre,"Paseo Padre Orkolaga, 56. 20008 San Sebastián (Gipuzkoa)","{'type': 'Point', 'coordinates': [-2.0431538, 43.3077826]}",43.3077826,-2.0431538
182,Restaurante Elkano,"Calle Herrerieta, 2 20808 Getaria (Gipuzkoa)","{'type': 'Point', 'coordinates': [-2.2050624, 43.3030425]}",43.3030425,-2.2050624
183,Restaurante Mugaritz,"Aldura Gunea Aldea, 20, 20100 Errenteria, Gipuzkoa, España","{'type': 'Point', 'coordinates': [-1.8976476, 43.2699797]}",43.2699797,-1.8976476
184,Restaurante Arzak,"Avenida Alcalde José Elosegui, 273  (San Sebastián)","{'type': 'Point', 'coordinates': [-1.9530597, 43.321489]}",43.321489,-1.9530597
185,Restaurante Bagá,"Calle Reja de la Capilla, 3. 23001 Jaén (Jaén)","{'type': 'Point', 'coordinates': [-3.7862887, 37.7668497]}",37.7668497,-3.7862887
186,Restaurante Zuberoa,"Araneder Bidea, 20180 Iturriotz, Gipuzkoa","{'type': 'Point', 'coordinates': [-1.8650503, 43.2928867]}",43.2928867,-1.8650503
187,Restaurante Lú Cocina y Alma,"Calle Zaragoza, 2. 11402 Jerez de la Frontera (Cádiz)","{'type': 'Point', 'coordinates': [-6.1333267, 36.688668]}",36.688668,-6.1333267
188,Restaurante Sollo,"Avenida El Higuerón, 48 29640 Fuengirola (Málaga)","{'type': 'Point', 'coordinates': [-4.5954309, 36.5800831]}",36.5800831,-4.5954309
189,Restaurante Los Marinos José,"Paseo Marítimo Rey de España, 161. 29640 Fuengirola (Málaga)","{'type': 'Point', 'coordinates': [-4.6181456, 36.5441549]}",36.5441549,-4.6181456
190,Restaurante El Campero,"Avenida de la Constitución, 5-C. Barbate (Cádiz). 11160","{'type': 'Point', 'coordinates': [-5.9247296, 36.1886762]}",36.1886762,-5.9247296
191,Restaurante Kazan,"Paseo Milicias de Garachico, 1 38003 Santa Cruz de Tenerife","{'type': 'Point', 'coordinates': [-16.2488412, 28.4684553]}",28.4684553,-16.2488412
192,Restaurante Novodabo,"Plaza Aragón, 12, 50004 Zaragoza, España","{'type': 'Point', 'coordinates': [-0.8850064, 41.6488174]}",41.6488174,-0.8850064
193,Restaurante Casona del Judío,"Calle Repuente, 20 39012 Santander (Cantabria)","{'type': 'Point', 'coordinates': [-3.8291356, 43.4686352]}",43.4686352,-3.8291356
194,Restaurante Gastronomico Cañadío,"Calle Gómez Oreña, 15 39003 Santander (Cantabria)","{'type': 'Point', 'coordinates': [-3.8019086, 43.463661]}",43.463661,-3.8019086
195,Restaurante Solana,"Calle La Bien Aparecida, 11 39849 Ampuero (Cantabria)","{'type': 'Point', 'coordinates': [-3.4514017785, 43.326925]}",43.326925,-3.4514017785
196,Restaurante El Doncel,"Paseo de la Alameda, 3. 19250 Sigüenza (Guadalajara)","{'type': 'Point', 'coordinates': [-2.6434055, 41.069502]}",41.069502,-2.6434055
197,Restaurante El Bohío,"Avenida de Castilla - La Mancha, 81. 45200 Illescas (Toledo)","{'type': 'Point', 'coordinates': [-3.8445015, 40.1288269]}",40.1288269,-3.8445015
198,Restaurante Baluarte,"Calle Caballeros, 14. 42002 Soria","{'type': 'Point', 'coordinates': [-2.4655069, 41.7623923]}",41.7623923,-2.4655069
199,Restaurante Maralba,"Calle Violeta Parra, 5. 02640 almansa (Albacete)","{'type': 'Point', 'coordinates': [-1.0910865, 38.8696503]}",38.8696503,-1.0910865
200,Restaurante Cocinandos,"Plaza de San Marcos, 1. 24001 León (León)","{'type': 'Point', 'coordinates': [-5.5799462, 42.6018545]}",42.6018545,-5.5799462
201,Restaurante Casa Solla,"Avenida Sineiro, 7 36995 San Salvador de Poio, Pontevedra","{'type': 'Point', 'coordinates': [-8.6688678, 42.4332552]}",42.4332552,-8.6688678
202,Restaurante Rivas,"Calle Carretera, 33. 37170 Vega de Tirados (Salamanca)","{'type': 'Point', 'coordinates': [-5.8863639, 41.0235381]}",41.0235381,-5.8863639
203,Restaurante Nerua Guggenheim Bilbao,"Avenida Abandoibarra, 2 48009 Bilbao","{'type': 'Point', 'coordinates': [-2.9345649, 43.2686558]}",43.2686558,-2.9345649
204,Restaurante Lera,"Calle de los Conquistadores zamoranos, 6. 49110 Castroverde de Campos (Zamora)","{'type': 'Point', 'coordinates': [-5.3145641, 41.9683504]}",41.9683504,-5.3145641
205,Restaurante La Botica de Matapozuelos,"Plaza Mayor, 2 47230 Matapozuelos (Valladolid)","{'type': 'Point', 'coordinates': [-4.7917303, 41.4142575]}",41.4142575,-4.7917303
206,Restaurante Caelis,"Vía Laietana, 49. 08003 Barcelona (Barcelona)","{'type': 'Point', 'coordinates': [2.1742731, 41.3869749]}",41.3869749,2.1742731
207,Restaurante Víctor Gutiérrez,"Calle Empedrada, 4 37007 Salamanca","{'type': 'Point', 'coordinates': [-5.6703059, 40.9630258]}",40.9630258,-5.6703059
208,Restaurante Cinc Sentits,"Carrer d'Entença, 60, 08015 Barcelona, España","{'type': 'Point', 'coordinates': [2.1530727399, 41.3780056855]}",41.3780056855,2.1530727399
209,Restaurante Coure,"Passatge Marimón, 20. 08021 Barcelona (Barcelona)","{'type': 'Point', 'coordinates': [2.1478356238, 41.3943374]}",41.3943374,2.1478356238
210,Restaurante Enoteca - Paco Pérez,"Calle Marina, 19-21. 08005 Barcelona (Barcelona)","{'type': 'Point', 'coordinates': [-64.6832905, 10.1356658]}",10.1356658,-64.6832905
211,Restaurante Koy Shunka,"Calle Copons, 7. 08002 Barcelona","{'type': 'Point', 'coordinates': [2.1753677, 41.385702]}",41.385702,2.1753677
212,Restaurante La Boscana,"Carretera LV-3311, 4, 25142 Bellvís, Lleida","{'type': 'Point', 'coordinates': [0.8133241, 41.667542]}",41.667542,0.8133241
213,Restaurante El Almacén,"Carretera de Salamanca, 6. 05002 Ávila","{'type': 'Point', 'coordinates': [-4.7685063, 40.7087181]}",40.7087181,-4.7685063
214,Restaurante Lluerna,"Avenida Pallaresa, 104. 08921 Santa Coloma de Gramanet","{'type': 'Point', 'coordinates': [2.2064924, 41.4553057]}",41.4553057,2.2064924
215,Restaurante Abantal,"Calle Alcalde José de la Bandera, 7 41003 Sevilla","{'type': 'Point', 'coordinates': [-5.9837138, 37.3879291]}",37.3879291,-5.9837138
216,Restaurante El Portal de Echaurren,"Calle Padre José García, 19 26280 Ezcaray (Rioja, La)","{'type': 'Point', 'coordinates': [-3.0143275, 42.3259394]}",42.3259394,-3.0143275
217,Restaurante Massana,"Calle Bonastruc de Porta, 10. 17001 Girona (Girona)","{'type': 'Point', 'coordinates': [2.8194569, 41.984976]}",41.984976,2.8194569
218,Restaurante ABarra,"Calle del Pinar, 15. 28006 Madrid (Madrid)","{'type': 'Point', 'coordinates': [-3.6878244, 40.4386537]}",40.4386537,-3.6878244
219,Restaurante Maher,"Calle Ribera, 19. 31592 Cintruénigo (Navarra)","{'type': 'Point', 'coordinates': [-1.8051946, 42.0836283]}",42.0836283,-1.8051946
220,Restaurante Cebo,"Carrera de San Jerónimo, 34. 28014 Madrid","{'type': 'Point', 'coordinates': [-3.6985954, 40.4164051]}",40.4164051,-3.6985954
221,Restaurante Angle,"Carrer d'Aragó, 214, 08011 Barcelona, España","{'type': 'Point', 'coordinates': [2.1600634, 41.3883118]}",41.3883118,2.1600634
222,Restaurante 99 Sushi Bar NH Eurobuilding,"Calle Padre Damián, 23. 28036 Madrid (Madrid)","{'type': 'Point', 'coordinates': [-3.864349, 40.7268324]}",40.7268324,-3.864349
223,Restaurante Chirón,"Calle Alarcón, 27 28341 Valdemoro (Madrid)","{'type': 'Point', 'coordinates': [-3.6762119, 40.1908206]}",40.1908206,-3.6762119
224,Restaurante Estrella del Bajo Carrión,"Calle Mayor, 32. 34131 Villoldo (Palencia)","{'type': 'Point', 'coordinates': [-4.6213235, 42.2482769]}",42.2482769,-4.6213235
225,Restaurante El Invernadero - Rodrigo de la Calle,"Calle Ponzano, 85. 28003 Madrid (Madrid)","{'type': 'Point', 'coordinates': [-3.6990159, 40.4422874]}",40.4422874,-3.6990159
226,Restaurante Corral de la Morería,"Calle Morería, 17. 28005 Madrid (Madrid)","{'type': 'Point', 'coordinates': [-3.7141526, 40.4127674]}",40.4127674,-3.7141526
227,Restaurante El Paraguas,"Calle Jorge Juan, 16. 28002 Madrid (Madrid)","{'type': 'Point', 'coordinates': [-4.0249382, 40.4897942]}",40.4897942,-4.0249382
228,Restaurante Gofio,"Calle Lope de Vega, 9. 28014 Madrid (Madrid)","{'type': 'Point', 'coordinates': [-3.3337624, 40.6333589]}",40.6333589,-3.3337624
229,Restaurante Kappo,"Calle Bretón de los Herreros, 54. 28003 Madrid (Madrid)","{'type': 'Point', 'coordinates': [-3.6937481, 40.4392697]}",40.4392697,-3.6937481
230,Restaurante La Tasquita de Enfrente,"Calle Ballesta, 6. 28004 Madrid (Madrid)","{'type': 'Point', 'coordinates': [-3.7035291, 40.421321]}",40.421321,-3.7035291
231,Restaurante Lúa,"Paseo Eduardo Dato, 5. 28010 Madrid (Madrid)","{'type': 'Point', 'coordinates': [-3.6964975, 40.4326728]}",40.4326728,-3.6964975
232,Restaurante Lakasa,"Plaza del Descubridor Diego de Ordás, 1. 28003 Madrid (Madrid)","{'type': 'Point', 'coordinates': [-3.7007791, 40.4408805]}",40.4408805,-3.7007791
233,Restaurante Moments,"Passeig de Gràcia, 38-40 08007 Barcelona","{'type': 'Point', 'coordinates': [2.1669139759, 41.39138095]}",41.39138095,2.1669139759
234,Restaurante Horcher,"Calle Alfonso XII, 6. 28014 Madrid (Madrid)","{'type': 'Point', 'coordinates': [-3.5932976, 40.2758576]}",40.2758576,-3.5932976
235,Restaurante Ábaco,"Calle Juan de Labrit, 19. 31001 Pamplona (Navarra)","{'type': 'Point', 'coordinates': [-1.6380469, 42.8173409]}",42.8173409,-1.6380469
236,Restaurante Beat,"Urbanización Marisol Park, 1 03710 Calp (Alicante)","{'type': 'Point', 'coordinates': [0.0602755, 38.6478298]}",38.6478298,0.0602755
237,Restaurante O'Pazo,"Calle Reina Mercedes, 20 28020 Madrid","{'type': 'Point', 'coordinates': [-3.8122696, 40.436316]}",40.436316,-3.8122696
238,Restaurante La Sucursal,Edificio Veles e Vents Valencia,"{'type': 'Point', 'coordinates': [-0.3252861911, 39.46180485]}",39.46180485,-0.3252861911
239,Restaurante Manuel Alonso restaurante,"Paseo Marítimo, 5 46710 Daimús (Valencia)","{'type': 'Point', 'coordinates': [-0.1423324, 38.9773904]}",38.9773904,-0.1423324
240,Restaurante Kabuki Komori,"Carrer del General Gil Dolz, s/n","{'type': 'Point', 'coordinates': [-0.3615829, 39.4723468]}",39.4723468,-0.3615829
241,Restaurante Peix i Brases,"Plaza Benidorm, 16 03700 Dénia (Alicante)","{'type': 'Point', 'coordinates': [0.1069469, 38.8458928]}",38.8458928,0.1069469
242,Restaurante El Poblet,"Carrer de Correus, 8, 46002 València, Valencia, España","{'type': 'Point', 'coordinates': [-0.3745483, 39.4697061]}",39.4697061,-0.3745483
243,Restaurante Askua,"Calle Felip María Garín, 4. 46021 Valencia (Valencia)","{'type': 'Point', 'coordinates': [-0.3591523, 39.4687152]}",39.4687152,-0.3591523
244,Restaurante Nou Manolín,"Calle Villegas, 3 03001 Alicante","{'type': 'Point', 'coordinates': [-0.4846296, 38.3454248]}",38.3454248,-0.4846296
245,Restaurante Aizian,"Calle Lehendakari Leizaola, 29 48001 Bilbao (Bizkaia)","{'type': 'Point', 'coordinates': [-2.9418734512, 43.26742485]}",43.26742485,-2.9418734512
246,Restaurante Saiti,"Calle Reina Doña Germana, 4 46005 Valencia","{'type': 'Point', 'coordinates': [-0.3660793, 39.4637523]}",39.4637523,-0.3660793
247,Restaurante Sacha (Botillería y fogón),"Calle Juan Hurtado de Mendoza, 11. 28036 Madrid (Madrid)","{'type': 'Point', 'coordinates': [-4.0467548, 40.6087658]}",40.6087658,-4.0467548
248,Restaurante Kabia,"Legazpi Kalea, 5, 20700 Zumarraga, Gipuzkoa, España","{'type': 'Point', 'coordinates': [-2.3151175, 43.0897612]}",43.0897612,-2.3151175
249,Restaurante Atelier Etxanobe,"Calle juan ajuriaguerra kalea, 8, 48009 bilbo, bizkaia, españa","{'type': 'Point', 'coordinates': [-2.9314828, 43.2654325]}",43.2654325,-2.9314828
250,Restaurante La Salita,"Carrer de Pere III el Gran, 11, 46005 València, Valencia, España","{'type': 'Point', 'coordinates': [-0.3695473, 39.4624613]}",39.4624613,-0.3695473
251,Restaurante Mirador de Ulía,"Paseo de Ulía, 193. 20013 San Sebastián (Guipuzcoa)","{'type': 'Point', 'coordinates': [-1.9530171, 43.3215118]}",43.3215118,-1.9530171
252,Restaurante Andra Mari,"Barrio Elexalde, 22. 48960 Galdakao (Bizkaia)","{'type': 'Point', 'coordinates': [-2.8328025, 43.2357925]}",43.2357925,-2.8328025
253,Restaurante Zortziko,"Alameda Mazarredo, 17. 48001 Bilbao (Vizcaya)","{'type': 'Point', 'coordinates': [-2.9294918, 43.2646754]}",43.2646754,-2.9294918
254,Restaurante Riff,"Calle Conde de Altea, 18 46005 Valencia","{'type': 'Point', 'coordinates': [0.0403458, 38.6445111]}",38.6445111,0.0403458
255,Restaurante Casa Marcelo,"Rúa Hortas, 1. 15705 Santiago de Compostela (A Coruña)","{'type': 'Point', 'coordinates': [-8.5469538, 42.8806695]}",42.8806695,-8.5469538
256,Restaurante Viridiana,"Calle Juan de Mena, 14. 28014 Madrid (Madrid)","{'type': 'Point', 'coordinates': [-3.6895976, 40.4172352]}",40.4172352,-3.6895976
257,Restaurante Bido,"Calle Marcial del Adalid, 2-4 15005 A Coruña","{'type': 'Point', 'coordinates': [-8.4080309, 43.3621849]}",43.3621849,-8.4080309
258,Restaurante Retiro da Costiña,"Avenida Santiago, 12. 15840 Santa Comba (A Coruña)","{'type': 'Point', 'coordinates': [-8.8039443, 43.0332621]}",43.0332621,-8.8039443
259,Restaurante Zarate,"Calle Licenciado Poza, 65. 48013 Bilbao (Bizkaia)","{'type': 'Point', 'coordinates': [-2.9435491, 43.2625689]}",43.2625689,-2.9435491
260,Restaurante Can Domo,"Carretera Jesús - Cala Llonga,  07840","{'type': 'Point', 'coordinates': [1.4941314, 38.9520561]}",38.9520561,1.4941314
261,Restaurante Dins Santi Taura,"Hotel el llorenç pl. llorenç villalonga, 4","{'type': 'Point', 'coordinates': [1.5934051, 41.1896687]}",41.1896687,1.5934051
262,Restaurante Kokotxa,"Calle Campanario, 11. 20003 San Sebastián (Gipuzkoa)","{'type': 'Point', 'coordinates': [-1.9871486, 43.3235374]}",43.3235374,-1.9871486
263,Restaurante Alameda,"Plaza Félix Azpilicueta, 1. 26360 Fuenmayor (Rioja La)","{'type': 'Point', 'coordinates': [-2.5612924, 42.4671161]}",42.4671161,-2.5612924
264,Restaurante Casa Fermín,"Calle San Francisco, 8. 33003 Oviedo (Asturias)","{'type': 'Point', 'coordinates': [-5.8469384, 43.3620421]}",43.3620421,-5.8469384
265,Restaurante Nito,"Playa de Area, 1. 27863 Viveiro (Lugo)","{'type': 'Point', 'coordinates': [-7.5781282398, 43.6915589]}",43.6915589,-7.5781282398
266,Restaurante Kaia-Kaipe,"Calle General Arnao, 4. 20808 Getaria (Gipuzkoa)","{'type': 'Point', 'coordinates': [-2.2034128, 43.3047329]}",43.3047329,-2.2034128
267,Restaurante Maruja Limón,"Rua Montero Ríos, 4. 36201 Vigo (Pontevedra)","{'type': 'Point', 'coordinates': [-8.7238441, 42.2403465]}",42.2403465,-8.7238441
268,Restaurante Real Balneario,"Avenida Juan Sitges, 3. 3","{'type': 'Point', 'coordinates': [-5.9681271, 43.5786086]}",43.5786086,-5.9681271
269,Restaurante La Huertona,"Carretera La Piconera, 2. 33560 Ribadesella (Asturias)","{'type': 'Point', 'coordinates': [-5.0660425, 43.4451942]}",43.4451942,-5.0660425
270,Restaurante El Olivar,"Carretera Caravaca, 50 30440 Moratalla (Murcia)","{'type': 'Point', 'coordinates': [-1.8908024, 38.185059]}",38.185059,-1.8908024
271,Restaurante Magoga,"Plaza Doctor Vicente García Marcos, 5 30201 Cartagena (Murcia)","{'type': 'Point', 'coordinates': [-0.9837671132, 37.60539825]}",37.60539825,-0.9837671132
272,Restaurante Arrieros,"Calle Arrieros, 2. 21207 Linares de la Sierra (Huelva)","{'type': 'Point', 'coordinates': [-6.6218011, 37.8793741]}",37.8793741,-6.6218011
273,Restaurante Venta Moncalvillo,"Carretera de Medrano, 6 26373 Daroca de Rioja (Rioja, La)","{'type': 'Point', 'coordinates': [-2.5805146421, 42.3713094]}",42.3713094,-2.5805146421
274,Restaurante Arte de Cozina,"Calle Calzada, 27 29200 Antequera (Málaga)","{'type': 'Point', 'coordinates': [-4.5579799, 37.0183284]}",37.0183284,-4.5579799
275,Restaurante El Corral del Indianu,AVENIDA EUROPA  Nº 14,"{'type': 'Point', 'coordinates': [9.2641057, 45.5152872]}",45.5152872,9.2641057
276,Restaurante España,"Rua do Teatro, 10","{'type': 'Point', 'coordinates': [-7.555105, 43.0125285]}",43.0125285,-7.555105
277,Restaurante Vertical,"Calle Luis García Berlanga, 19 46023","{'type': 'Point', 'coordinates': [-0.3480064, 39.4570064]}",39.4570064,-0.3480064
278,Restaurante Kiro Sushi,"Calle María Teresa Gil de Gárate, 24 2600 Logroño (Rioja, La)","{'type': 'Point', 'coordinates': [-2.450713, 42.4593522]}",42.4593522,-2.450713
279,Restaurante Cantina La Estación,"Cuesta Rodadera, 1, Úbeda, Jaén.","{'type': 'Point', 'coordinates': [-3.3672187, 38.0116761]}",38.0116761,-3.3672187
280,Restaurante Celia Jiménez,"Calle Escritora María Goyri, s/n 14005 Córdoba","{'type': 'Point', 'coordinates': [-4.8023782, 37.8798222]}",37.8798222,-4.8023782
281,Restaurante Canela en Rama,"Calle Espronceda, 22. 23700 Linares (Jaén)","{'type': 'Point', 'coordinates': [-3.6316777, 38.0957463]}",38.0957463,-3.6316777
282,Restaurante Cañabota,"Calle Orfila, 3. 41003 Sevilla (Sevilla)","{'type': 'Point', 'coordinates': [-5.993541773, 37.39350705]}",37.39350705,-5.993541773
283,Restaurante Código de Barra,"Calle San Francisco,7, 11004, Cádiz","{'type': 'Point', 'coordinates': [-6.2954730629, 36.5337313]}",36.5337313,-6.2954730629
284,Restaurante Dama Juana,"Calle Melchor Cobo Medina, 7, 23001 Jaén, España","{'type': 'Point', 'coordinates': [-3.7854908, 37.7672055]}",37.7672055,-3.7854908
285,Restaurante Faralá,"Cuesta de Gomérez, 11, 18009 Granada, España","{'type': 'Point', 'coordinates': [-3.5954104, 37.1765611]}",37.1765611,-3.5954104
286,Restaurante Jaylu,"Calle López de Gomara, 19","{'type': 'Point', 'coordinates': [-6.0080549, 37.3794303]}",37.3794303,-6.0080549
287,Restaurante Ispal,"Plaza San Sebastián, 1, 41004 Sevilla, España","{'type': 'Point', 'coordinates': [-5.4149991, 37.3284509]}",37.3284509,-5.4149991
288,Restaurante Kaleja,"Calle Marquesa de Moya, 9, 29015 Málaga","{'type': 'Point', 'coordinates': [-4.417829, 36.7211381]}",36.7211381,-4.417829
289,Restaurante Kava,Avenida Antonio Belon 4,"{'type': 'Point', 'coordinates': [-4.8884449, 36.5078645]}",36.5078645,-4.8884449
290,Restaurante Mantúa,"Plaza Aladro, 7 11402 Jerez de la Frontera (Cádiz)","{'type': 'Point', 'coordinates': [-6.1359051, 36.687547]}",36.687547,-6.1359051
291,Restaurante Los Sentidos,"Calle Doctor, 13 23700 Linares (Jaén)","{'type': 'Point', 'coordinates': [-3.6290363, 38.091502]}",38.091502,-3.6290363
292,Restaurante Sobretablas,"Calle Colombia, 7, 41013 Sevilla, España","{'type': 'Point', 'coordinates': [-6.0728732, 36.9232929]}",36.9232929,-6.0728732
293,Restaurante Ruta del Veleta,"Av. de la Sierra Nevada, 146, 18190 Cenes de la Vega, Granada, España","{'type': 'Point', 'coordinates': [-3.5278779, 37.1573663]}",37.1573663,-3.5278779
294,Restaurante Ta-Kumi Málaga,"Calle Mundo Nuevo ,4","{'type': 'Point', 'coordinates': [-2.0944477, 37.6903107]}",37.6903107,-2.0944477
295,Restaurante Taberna de Miguel,"Calle María Bellido, 120. 23710 Bailén (Jaén)","{'type': 'Point', 'coordinates': [-3.7782247, 38.0965814]}",38.0965814,-3.7782247
296,Restaurante El Churrasco,"Calle Romero, 16 14003 Córdoba","{'type': 'Point', 'coordinates': [-4.7818471, 37.8800342]}",37.8800342,-4.7818471
297,Restaurante La Cosmopolita,"Calle José Denís Belgrano, 3. 29015 Málaga (Málaga)","{'type': 'Point', 'coordinates': [-4.4200457382, 36.72188005]}",36.72188005,-4.4200457382
298,Restaurante Terraza Carmona,"Calle del Mar, 1.","{'type': 'Point', 'coordinates': [-4.3591404, 36.7208729]}",36.7208729,-4.3591404
299,Restaurante Tribeca,"Calle Chaves Nogales, 3. 41018 Sevilla (Sevilla)","{'type': 'Point', 'coordinates': [-5.9794081, 37.3850292]}",37.3850292,-5.9794081
300,Restaurante YoKo,"Avenida Virgen del Carmen, 2","{'type': 'Point', 'coordinates': [-5.4458164, 36.131975]}",36.131975,-5.4458164
301,Restaurante La Curiosidad de Mauro Barreiro,"Calle Veedor, 10. 11003 Cádiz (Cádiz)","{'type': 'Point', 'coordinates': [-6.3000217, 36.5354336]}",36.5354336,-6.3000217
302,Restaurante Absinthium,"Calle Coso, 11. 50003 Zaragoza (Zaragoza)","{'type': 'Point', 'coordinates': [-1.6366333, 41.1837441]}",41.1837441,-1.6366333
303,Restaurante Cancook,"Calle Juan II de Aragón, 5, 50009 Zaragoza, España","{'type': 'Point', 'coordinates': [-1.2158723234, 42.49625025]}",42.49625025,-1.2158723234
304,Restaurante Lillas Pastia,"Plaza de Navarra, 4 22002 Huesca","{'type': 'Point', 'coordinates': [-0.4096185583, 42.13615955]}",42.13615955,-0.4096185583
305,Restaurante AIE,"Av. Inmaculada Concepción, 58, 38360 El Sauzal, Santa Cruz de Tenerife, España","{'type': 'Point', 'coordinates': [-16.4365486, 28.4794344]}",28.4794344,-16.4365486
306,Restaurante La Senda,"Calle Hernán Cortés, 15, 50004 Zaragoza","{'type': 'Point', 'coordinates': [-0.8901369, 41.6480879]}",41.6480879,-0.8901369
307,Restaurante Amor de mis Amores,"Calle el Perdón, 11. 38006 Santa Cruz de Tenerife (Tenerife - Santa Cruz de Tenerife)","{'type': 'Point', 'coordinates': [-16.8519802, 28.3732831]}",28.3732831,-16.8519802
308,Restaurante El Chalet,"Santa teresa de jesus, 25","{'type': 'Point', 'coordinates': [-69.8062963883, 18.4923251]}",18.4923251,-69.8062963883
309,Restaurante El Risco,"Calle Montaña Clara, 30, 35558 Caleta de Famara, Las Palmas, España","{'type': 'Point', 'coordinates': [-13.564293, 29.1180017]}",29.1180017,-13.564293
310,Restaurante El Equilibrista 33,"Calle Ingeniero Salinas, 23. 35006 Las Palmas de Gran Canaria (Gran Canaria - Las Palmas)","{'type': 'Point', 'coordinates': [-15.4311335, 28.1299359]}",28.1299359,-15.4311335
311,Restaurante Tatau,"Calle Azara, 22002 Huesca, España","{'type': 'Point', 'coordinates': [0.1169512, 42.0366044]}",42.0366044,0.1169512
312,Restaurante Fuji,"Calle Fernando Guanarteme, 56. 35010 Las Palmas de Gran Canaria (Gran Canaria - Las Palmas)","{'type': 'Point', 'coordinates': [-15.442881, 28.1272104]}",28.1272104,-15.442881
313,Restaurante La Sandunga,"Calle San Ignacio, 17 38280 Tegueste (Tenerife - Santa Cruz de Tenerife)","{'type': 'Point', 'coordinates': [-16.356905, 28.5025472]}",28.5025472,-16.356905
314,Restaurante El Taller Seve Díaz,"Calle San Felipe, 32 38400 Puerto de la Cruz (Santa Cruz de Tenerife)","{'type': 'Point', 'coordinates': [-16.5531294, 28.4165864]}",28.4165864,-16.5531294
315,Restaurante Qué Leche,"Calle Torres, 22. 35002 Las Palmas de Gran Canaria (Gran Canaria - Las Palmas)","{'type': 'Point', 'coordinates': [-15.4170604188, 28.10428135]}",28.10428135,-15.4170604188
316,Restaurante Ribera del Río Miño,"Calle Olof Palme, 21. 35010 Las Palmas de Gran Canaria (Gran Canaria - Las Palmas)","{'type': 'Point', 'coordinates': [-15.436429109, 28.13523865]}",28.13523865,-15.436429109
317,Restaurante Poemas by Hermanos Padrón,"Calle León y Castillo, 227, Las Palmas de Gran Canaria, Las Palmas","{'type': 'Point', 'coordinates': [-15.4306327, 28.1395959]}",28.1395959,-15.4306327
318,Restaurante La Prensa,"Calle José Nebra, 3, 50007 Zaragoza, España","{'type': 'Point', 'coordinates': [-0.874694, 41.6333456]}",41.6333456,-0.874694
319,Restaurante La Cuchara de San Lorenzo,"Calle Arroyo de San Lorenzo, 2. 14002 Córdoba (Córdoba)","{'type': 'Point', 'coordinates': [-4.7689622, 37.8875669]}",37.8875669,-4.7689622
320,Restaurante Quema,"Paseo María Agustín, 20. 50004 Zaragoza","{'type': 'Point', 'coordinates': [-0.8903937, 41.651318]}",41.651318,-0.8903937
321,Restaurante Vía Veneto,"Calle Ganduxer, 10. 08021 Barcelona","{'type': 'Point', 'coordinates': [2.1391279, 41.392474]}",41.392474,2.1391279
322,Restaurante Casa Bigote,"Pórtico de Bajo de Guía, 10. 11540 Sanlúcar de Barrameda (Cádiz)","{'type': 'Point', 'coordinates': [-6.3519811, 36.7890552]}",36.7890552,-6.3519811
323,Restaurante DSTAgE,"Calle Regueros, 8 28004 Madrid","{'type': 'Point', 'coordinates': [-3.6963316, 40.4245942]}",40.4245942,-3.6963316
324,Restaurante DiverXO,"Calle Padre Damián, 23 28036 Madrid","{'type': 'Point', 'coordinates': [-3.864349, 40.7268324]}",40.7268324,-3.864349
325,Restaurante Lasarte,"Calle Mallorca, 259. 08008 Barcelona","{'type': 'Point', 'coordinates': [2.1863173, 41.4936096]}",41.4936096,2.1863173
326,Restaurante Kabuki Wellington,"Calle Velázquez, 6. 28001 Madrid (Madrid)","{'type': 'Point', 'coordinates': [-3.7798725, 40.3363102]}",40.3363102,-3.7798725
327,Restaurante Ramón Freixa,"Calle Claudio Coello, 67. 28001 Madrid (Madrid)","{'type': 'Point', 'coordinates': [-4.1466444, 40.5938943]}",40.5938943,-4.1466444
328,Restaurante Ricard Camarena Restaurant,"Avenida de Burjassot, 54 46009 Valencia","{'type': 'Point', 'coordinates': [-0.3852453, 39.4852529]}",39.4852529,-0.3852453
329,Restaurante Quique Dacosta,"Carrer Rascassa, 1","{'type': 'Point', 'coordinates': [4.8851566, 44.0419216]}",44.0419216,4.8851566
330,Restaurante Akelarre,"Paseo Padre Orkolaga, 56. 20008 San Sebastián (Gipuzkoa)","{'type': 'Point', 'coordinates': [-2.0431538, 43.3077826]}",43.3077826,-2.0431538
331,Restaurante Arzak,"Avenida Alcalde José Elosegui, 273  (San Sebastián)","{'type': 'Point', 'coordinates': [-1.9530597, 43.321489]}",43.321489,-1.9530597
332,Restaurante Paco Roncero,"Calle Alcalá, 15 28014 Madrid","{'type': 'Point', 'coordinates': [-3.3019204, 40.298463]}",40.298463,-3.3019204
333,Restaurante Mugaritz,"Aldura Gunea Aldea, 20, 20100 Errenteria, Gipuzkoa, España","{'type': 'Point', 'coordinates': [-1.8976476, 43.2699797]}",43.2699797,-1.8976476
334,Restaurante Elkano,"Calle Herrerieta, 2 20808 Getaria (Gipuzkoa)","{'type': 'Point', 'coordinates': [-2.2050624, 43.3030425]}",43.3030425,-2.2050624
335,Restaurante Noor,"Calle Pablo Ruiz Picasso, 8. 14014 Córdoba","{'type': 'Point', 'coordinates': [-4.202703, 37.4413201]}",37.4413201,-4.202703
336,Restaurante ABaC,"Avenida Tibidabo,1. 08022 Barcelona","{'type': 'Point', 'coordinates': [2.1365386, 41.4104436]}",41.4104436,2.1365386
337,Restaurante El Celler de Can Roca,"Carrer de Can Sunyer, 48, 17007 Girona, España","{'type': 'Point', 'coordinates': [2.8077671336, 41.99340125]}",41.99340125,2.8077671336
338,Restaurante Zuberoa,"Araneder Bidea, 20180 Iturriotz, Gipuzkoa","{'type': 'Point', 'coordinates': [-1.8650503, 43.2928867]}",43.2928867,-1.8650503
339,Restaurante El Campero,"Avenida de la Constitución, 5-C. Barbate (Cádiz). 11160","{'type': 'Point', 'coordinates': [-5.9247296, 36.1886762]}",36.1886762,-5.9247296
340,Restaurante Casa Solla,"Avenida Sineiro, 7 36995 San Salvador de Poio, Pontevedra","{'type': 'Point', 'coordinates': [-8.6688678, 42.4332552]}",42.4332552,-8.6688678
341,Restaurante El Portal de Echaurren,"Calle Padre José García, 19 26280 Ezcaray (Rioja, La)","{'type': 'Point', 'coordinates': [-3.0143275, 42.3259394]}",42.3259394,-3.0143275
342,Restaurante Cocina Hermanos Torres,"Carrer del Taquígraf Serra, 20. 08029 Barcelona (Barcelona)","{'type': 'Point', 'coordinates': [2.1401414071, 41.3863062]}",41.3863062,2.1401414071
343,Restaurante Bagá,"Calle Reja de la Capilla, 3. 23001 Jaén (Jaén)","{'type': 'Point', 'coordinates': [-3.7862887, 37.7668497]}",37.7668497,-3.7862887
344,Restaurante Nerua Guggenheim Bilbao,"Avenida Abandoibarra, 2 48009 Bilbao","{'type': 'Point', 'coordinates': [-2.9345649, 43.2686558]}",43.2686558,-2.9345649
345,Restaurante Abantal,"Calle Alcalde José de la Bandera, 7 41003 Sevilla","{'type': 'Point', 'coordinates': [-5.9837138, 37.3879291]}",37.3879291,-5.9837138
346,Restaurante Novodabo,"Plaza Aragón, 12, 50004 Zaragoza, España","{'type': 'Point', 'coordinates': [-0.8850064, 41.6488174]}",41.6488174,-0.8850064
347,Restaurante Lú Cocina y Alma,"Calle Zaragoza, 2. 11402 Jerez de la Frontera (Cádiz)","{'type': 'Point', 'coordinates': [-6.1333267, 36.688668]}",36.688668,-6.1333267
348,Restaurante El Bohío,"Avenida de Castilla - La Mancha, 81. 45200 Illescas (Toledo)","{'type': 'Point', 'coordinates': [-3.8445015, 40.1288269]}",40.1288269,-3.8445015
349,Restaurante El Doncel,"Paseo de la Alameda, 3. 19250 Sigüenza (Guadalajara)","{'type': 'Point', 'coordinates': [-2.6434055, 41.069502]}",41.069502,-2.6434055
350,Restaurante Solana,"Calle La Bien Aparecida, 11 39849 Ampuero (Cantabria)","{'type': 'Point', 'coordinates': [-3.4514017785, 43.326925]}",43.326925,-3.4514017785
351,Restaurante Maralba,"Calle Violeta Parra, 5. 02640 almansa (Albacete)","{'type': 'Point', 'coordinates': [-1.0910865, 38.8696503]}",38.8696503,-1.0910865
352,Restaurante Baluarte,"Calle Caballeros, 14. 42002 Soria","{'type': 'Point', 'coordinates': [-2.4655069, 41.7623923]}",41.7623923,-2.4655069
353,Restaurante Cocinandos,"Plaza de San Marcos, 1. 24001 León (León)","{'type': 'Point', 'coordinates': [-5.5799462, 42.6018545]}",42.6018545,-5.5799462
354,Restaurante Estrella del Bajo Carrión,"Calle Mayor, 32. 34131 Villoldo (Palencia)","{'type': 'Point', 'coordinates': [-4.6213235, 42.2482769]}",42.2482769,-4.6213235
355,Restaurante El Almacén,"Carretera de Salamanca, 6. 05002 Ávila","{'type': 'Point', 'coordinates': [-4.7685063, 40.7087181]}",40.7087181,-4.7685063
356,Restaurante Casona del Judío,"Calle Repuente, 20 39012 Santander (Cantabria)","{'type': 'Point', 'coordinates': [-3.8291356, 43.4686352]}",43.4686352,-3.8291356
357,Restaurante La Botica de Matapozuelos,"Plaza Mayor, 2 47230 Matapozuelos (Valladolid)","{'type': 'Point', 'coordinates': [-4.7917303, 41.4142575]}",41.4142575,-4.7917303
358,Restaurante Sollo,"Avenida El Higuerón, 48 29640 Fuengirola (Málaga)","{'type': 'Point', 'coordinates': [-4.5954309, 36.5800831]}",36.5800831,-4.5954309
359,Restaurante Lera,"Calle de los Conquistadores zamoranos, 6. 49110 Castroverde de Campos (Zamora)","{'type': 'Point', 'coordinates': [-5.3145641, 41.9683504]}",41.9683504,-5.3145641
360,Restaurante Kazan,"Paseo Milicias de Garachico, 1 38003 Santa Cruz de Tenerife","{'type': 'Point', 'coordinates': [-16.2488412, 28.4684553]}",28.4684553,-16.2488412
361,Restaurante Gastronomico Cañadío,"Calle Gómez Oreña, 15 39003 Santander (Cantabria)","{'type': 'Point', 'coordinates': [-3.8019086, 43.463661]}",43.463661,-3.8019086
362,Restaurante Cinc Sentits,"Carrer d'Entença, 60, 08015 Barcelona, España","{'type': 'Point', 'coordinates': [2.1530727399, 41.3780056855]}",41.3780056855,2.1530727399
363,Restaurante Coure,"Passatge Marimón, 20. 08021 Barcelona (Barcelona)","{'type': 'Point', 'coordinates': [2.1478356238, 41.3943374]}",41.3943374,2.1478356238
364,Restaurante Enoteca - Paco Pérez,"Calle Marina, 19-21. 08005 Barcelona (Barcelona)","{'type': 'Point', 'coordinates': [-64.6832905, 10.1356658]}",10.1356658,-64.6832905
365,Restaurante Koy Shunka,"Calle Copons, 7. 08002 Barcelona","{'type': 'Point', 'coordinates': [2.1753677, 41.385702]}",41.385702,2.1753677
366,Restaurante Angle,"Carrer d'Aragó, 214, 08011 Barcelona, España","{'type': 'Point', 'coordinates': [2.1600634, 41.3883118]}",41.3883118,2.1600634
367,Restaurante Los Marinos José,"Paseo Marítimo Rey de España, 161. 29640 Fuengirola (Málaga)","{'type': 'Point', 'coordinates': [-4.6181456, 36.5441549]}",36.5441549,-4.6181456
368,Restaurante Rivas,"Calle Carretera, 33. 37170 Vega de Tirados (Salamanca)","{'type': 'Point', 'coordinates': [-5.8863639, 41.0235381]}",41.0235381,-5.8863639
369,Restaurante Caelis,"Vía Laietana, 49. 08003 Barcelona (Barcelona)","{'type': 'Point', 'coordinates': [2.1742731, 41.3869749]}",41.3869749,2.1742731
370,Restaurante La Boscana,"Carretera LV-3311, 4, 25142 Bellvís, Lleida","{'type': 'Point', 'coordinates': [0.8133241, 41.667542]}",41.667542,0.8133241
371,Restaurante Víctor Gutiérrez,"Calle Empedrada, 4 37007 Salamanca","{'type': 'Point', 'coordinates': [-5.6703059, 40.9630258]}",40.9630258,-5.6703059
372,Restaurante Lluerna,"Avenida Pallaresa, 104. 08921 Santa Coloma de Gramanet","{'type': 'Point', 'coordinates': [2.2064924, 41.4553057]}",41.4553057,2.2064924
373,Restaurante Massana,"Calle Bonastruc de Porta, 10. 17001 Girona (Girona)","{'type': 'Point', 'coordinates': [2.8194569, 41.984976]}",41.984976,2.8194569
374,Restaurante Moments,"Passeig de Gràcia, 38-40 08007 Barcelona","{'type': 'Point', 'coordinates': [2.1669139759, 41.39138095]}",41.39138095,2.1669139759
375,Restaurante Maher,"Calle Ribera, 19. 31592 Cintruénigo (Navarra)","{'type': 'Point', 'coordinates': [-1.8051946, 42.0836283]}",42.0836283,-1.8051946
376,Restaurante 99 Sushi Bar NH Eurobuilding,"Calle Padre Damián, 23. 28036 Madrid (Madrid)","{'type': 'Point', 'coordinates': [-3.864349, 40.7268324]}",40.7268324,-3.864349
377,Restaurante ABarra,"Calle del Pinar, 15. 28006 Madrid (Madrid)","{'type': 'Point', 'coordinates': [-3.6878244, 40.4386537]}",40.4386537,-3.6878244
378,Restaurante Cebo,"Carrera de San Jerónimo, 34. 28014 Madrid","{'type': 'Point', 'coordinates': [-3.6985954, 40.4164051]}",40.4164051,-3.6985954
379,Restaurante Chirón,"Calle Alarcón, 27 28341 Valdemoro (Madrid)","{'type': 'Point', 'coordinates': [-3.6762119, 40.1908206]}",40.1908206,-3.6762119
380,Restaurante Corral de la Morería,"Calle Morería, 17. 28005 Madrid (Madrid)","{'type': 'Point', 'coordinates': [-3.7141526, 40.4127674]}",40.4127674,-3.7141526
381,Restaurante Ábaco,"Calle Juan de Labrit, 19. 31001 Pamplona (Navarra)","{'type': 'Point', 'coordinates': [-1.6380469, 42.8173409]}",42.8173409,-1.6380469
382,Restaurante La Tasquita de Enfrente,"Calle Ballesta, 6. 28004 Madrid (Madrid)","{'type': 'Point', 'coordinates': [-3.7035291, 40.421321]}",40.421321,-3.7035291
383,Restaurante Lakasa,"Plaza del Descubridor Diego de Ordás, 1. 28003 Madrid (Madrid)","{'type': 'Point', 'coordinates': [-3.7007791, 40.4408805]}",40.4408805,-3.7007791
384,Restaurante El Invernadero - Rodrigo de la Calle,"Calle Ponzano, 85. 28003 Madrid (Madrid)","{'type': 'Point', 'coordinates': [-3.6990159, 40.4422874]}",40.4422874,-3.6990159
385,Restaurante Lúa,"Paseo Eduardo Dato, 5. 28010 Madrid (Madrid)","{'type': 'Point', 'coordinates': [-3.6964975, 40.4326728]}",40.4326728,-3.6964975
386,Restaurante Gofio,"Calle Lope de Vega, 9. 28014 Madrid (Madrid)","{'type': 'Point', 'coordinates': [-3.3337624, 40.6333589]}",40.6333589,-3.3337624
387,Restaurante Horcher,"Calle Alfonso XII, 6. 28014 Madrid (Madrid)","{'type': 'Point', 'coordinates': [-3.5932976, 40.2758576]}",40.2758576,-3.5932976
388,Restaurante El Paraguas,"Calle Jorge Juan, 16. 28002 Madrid (Madrid)","{'type': 'Point', 'coordinates': [-4.0249382, 40.4897942]}",40.4897942,-4.0249382
389,Restaurante Kappo,"Calle Bretón de los Herreros, 54. 28003 Madrid (Madrid)","{'type': 'Point', 'coordinates': [-3.6937481, 40.4392697]}",40.4392697,-3.6937481
390,Restaurante Sacha (Botillería y fogón),"Calle Juan Hurtado de Mendoza, 11. 28036 Madrid (Madrid)","{'type': 'Point', 'coordinates': [-4.0467548, 40.6087658]}",40.6087658,-4.0467548
391,Restaurante Viridiana,"Calle Juan de Mena, 14. 28014 Madrid (Madrid)","{'type': 'Point', 'coordinates': [-3.6895976, 40.4172352]}",40.4172352,-3.6895976
392,Restaurante O'Pazo,"Calle Reina Mercedes, 20 28020 Madrid","{'type': 'Point', 'coordinates': [-3.8122696, 40.436316]}",40.436316,-3.8122696
393,Restaurante La Salita,"Carrer de Pere III el Gran, 11, 46005 València, Valencia, España","{'type': 'Point', 'coordinates': [-0.3695473, 39.4624613]}",39.4624613,-0.3695473
394,Restaurante La Sucursal,Edificio Veles e Vents Valencia,"{'type': 'Point', 'coordinates': [-0.3252861911, 39.46180485]}",39.46180485,-0.3252861911
395,Restaurante Kabuki Komori,"Carrer del General Gil Dolz, s/n","{'type': 'Point', 'coordinates': [-0.3615829, 39.4723468]}",39.4723468,-0.3615829
396,Restaurante Peix i Brases,"Plaza Benidorm, 16 03700 Dénia (Alicante)","{'type': 'Point', 'coordinates': [0.1069469, 38.8458928]}",38.8458928,0.1069469
397,Restaurante Beat,"Urbanización Marisol Park, 1 03710 Calp (Alicante)","{'type': 'Point', 'coordinates': [0.0602755, 38.6478298]}",38.6478298,0.0602755
398,Restaurante Manuel Alonso restaurante,"Paseo Marítimo, 5 46710 Daimús (Valencia)","{'type': 'Point', 'coordinates': [-0.1423324, 38.9773904]}",38.9773904,-0.1423324
399,Restaurante Riff,"Calle Conde de Altea, 18 46005 Valencia","{'type': 'Point', 'coordinates': [0.0403458, 38.6445111]}",38.6445111,0.0403458
400,Restaurante Saiti,"Calle Reina Doña Germana, 4 46005 Valencia","{'type': 'Point', 'coordinates': [-0.3660793, 39.4637523]}",39.4637523,-0.3660793
401,Restaurante El Poblet,"Carrer de Correus, 8, 46002 València, Valencia, España","{'type': 'Point', 'coordinates': [-0.3745483, 39.4697061]}",39.4697061,-0.3745483
402,Restaurante Nou Manolín,"Calle Villegas, 3 03001 Alicante","{'type': 'Point', 'coordinates': [-0.4846296, 38.3454248]}",38.3454248,-0.4846296
403,Restaurante Aizian,"Calle Lehendakari Leizaola, 29 48001 Bilbao (Bizkaia)","{'type': 'Point', 'coordinates': [-2.9418734512, 43.26742485]}",43.26742485,-2.9418734512
404,Restaurante Askua,"Calle Felip María Garín, 4. 46021 Valencia (Valencia)","{'type': 'Point', 'coordinates': [-0.3591523, 39.4687152]}",39.4687152,-0.3591523
405,Restaurante Andra Mari,"Barrio Elexalde, 22. 48960 Galdakao (Bizkaia)","{'type': 'Point', 'coordinates': [-2.8328025, 43.2357925]}",43.2357925,-2.8328025
406,Restaurante Atelier Etxanobe,"Calle juan ajuriaguerra kalea, 8, 48009 bilbo, bizkaia, españa","{'type': 'Point', 'coordinates': [-2.9314828, 43.2654325]}",43.2654325,-2.9314828
407,Restaurante Vertical,"Calle Luis García Berlanga, 19 46023","{'type': 'Point', 'coordinates': [-0.3480064, 39.4570064]}",39.4570064,-0.3480064
408,Restaurante Kaia-Kaipe,"Calle General Arnao, 4. 20808 Getaria (Gipuzkoa)","{'type': 'Point', 'coordinates': [-2.2034128, 43.3047329]}",43.3047329,-2.2034128
409,Restaurante Kokotxa,"Calle Campanario, 11. 20003 San Sebastián (Gipuzkoa)","{'type': 'Point', 'coordinates': [-1.9871486, 43.3235374]}",43.3235374,-1.9871486
410,Restaurante Zortziko,"Alameda Mazarredo, 17. 48001 Bilbao (Vizcaya)","{'type': 'Point', 'coordinates': [-2.9294918, 43.2646754]}",43.2646754,-2.9294918
411,Restaurante Kabia,"Legazpi Kalea, 5, 20700 Zumarraga, Gipuzkoa, España","{'type': 'Point', 'coordinates': [-2.3151175, 43.0897612]}",43.0897612,-2.3151175
412,Restaurante Nito,"Playa de Area, 1. 27863 Viveiro (Lugo)","{'type': 'Point', 'coordinates': [-7.5781282398, 43.6915589]}",43.6915589,-7.5781282398
413,Restaurante Maruja Limón,"Rua Montero Ríos, 4. 36201 Vigo (Pontevedra)","{'type': 'Point', 'coordinates': [-8.7238441, 42.2403465]}",42.2403465,-8.7238441
414,Restaurante Mirador de Ulía,"Paseo de Ulía, 193. 20013 San Sebastián (Guipuzcoa)","{'type': 'Point', 'coordinates': [-1.9530171, 43.3215118]}",43.3215118,-1.9530171
415,Restaurante España,"Rua do Teatro, 10","{'type': 'Point', 'coordinates': [-7.555105, 43.0125285]}",43.0125285,-7.555105
416,Restaurante Can Domo,"Carretera Jesús - Cala Llonga,  07840","{'type': 'Point', 'coordinates': [1.4941314, 38.9520561]}",38.9520561,1.4941314
417,Restaurante Dins Santi Taura,"Hotel el llorenç pl. llorenç villalonga, 4","{'type': 'Point', 'coordinates': [1.5934051, 41.1896687]}",41.1896687,1.5934051
418,Restaurante Casa Marcelo,"Rúa Hortas, 1. 15705 Santiago de Compostela (A Coruña)","{'type': 'Point', 'coordinates': [-8.5469538, 42.8806695]}",42.8806695,-8.5469538
419,Restaurante Zarate,"Calle Licenciado Poza, 65. 48013 Bilbao (Bizkaia)","{'type': 'Point', 'coordinates': [-2.9435491, 43.2625689]}",43.2625689,-2.9435491
420,Restaurante Kiro Sushi,"Calle María Teresa Gil de Gárate, 24 2600 Logroño (Rioja, La)","{'type': 'Point', 'coordinates': [-2.450713, 42.4593522]}",42.4593522,-2.450713
421,Restaurante Venta Moncalvillo,"Carretera de Medrano, 6 26373 Daroca de Rioja (Rioja, La)","{'type': 'Point', 'coordinates': [-2.5805146421, 42.3713094]}",42.3713094,-2.5805146421
422,Restaurante Retiro da Costiña,"Avenida Santiago, 12. 15840 Santa Comba (A Coruña)","{'type': 'Point', 'coordinates': [-8.8039443, 43.0332621]}",43.0332621,-8.8039443
423,Restaurante El Corral del Indianu,AVENIDA EUROPA  Nº 14,"{'type': 'Point', 'coordinates': [9.2641057, 45.5152872]}",45.5152872,9.2641057
424,Restaurante Alameda,"Plaza Félix Azpilicueta, 1. 26360 Fuenmayor (Rioja La)","{'type': 'Point', 'coordinates': [-2.5612924, 42.4671161]}",42.4671161,-2.5612924
425,Restaurante Real Balneario,"Avenida Juan Sitges, 3. 3","{'type': 'Point', 'coordinates': [-5.9681271, 43.5786086]}",43.5786086,-5.9681271
426,Restaurante Bido,"Calle Marcial del Adalid, 2-4 15005 A Coruña","{'type': 'Point', 'coordinates': [-8.4080309, 43.3621849]}",43.3621849,-8.4080309
427,Restaurante El Olivar,"Carretera Caravaca, 50 30440 Moratalla (Murcia)","{'type': 'Point', 'coordinates': [-1.8908024, 38.185059]}",38.185059,-1.8908024
428,Restaurante Arte de Cozina,"Calle Calzada, 27 29200 Antequera (Málaga)","{'type': 'Point', 'coordinates': [-4.5579799, 37.0183284]}",37.0183284,-4.5579799
429,Restaurante Canela en Rama,"Calle Espronceda, 22. 23700 Linares (Jaén)","{'type': 'Point', 'coordinates': [-3.6316777, 38.0957463]}",38.0957463,-3.6316777
430,Restaurante Casa Bigote,"Pórtico de Bajo de Guía, 10. 11540 Sanlúcar de Barrameda (Cádiz)","{'type': 'Point', 'coordinates': [-6.3519811, 36.7890552]}",36.7890552,-6.3519811
431,Restaurante Cañabota,"Calle Orfila, 3. 41003 Sevilla (Sevilla)","{'type': 'Point', 'coordinates': [-5.993541773, 37.39350705]}",37.39350705,-5.993541773
432,Restaurante Arrieros,"Calle Arrieros, 2. 21207 Linares de la Sierra (Huelva)","{'type': 'Point', 'coordinates': [-6.6218011, 37.8793741]}",37.8793741,-6.6218011
433,Restaurante Celia Jiménez,"Calle Escritora María Goyri, s/n 14005 Córdoba","{'type': 'Point', 'coordinates': [-4.8023782, 37.8798222]}",37.8798222,-4.8023782
434,Restaurante Código de Barra,"Calle San Francisco,7, 11004, Cádiz","{'type': 'Point', 'coordinates': [-6.2954730629, 36.5337313]}",36.5337313,-6.2954730629
435,Restaurante Magoga,"Plaza Doctor Vicente García Marcos, 5 30201 Cartagena (Murcia)","{'type': 'Point', 'coordinates': [-0.9837671132, 37.60539825]}",37.60539825,-0.9837671132
436,Restaurante Casa Fermín,"Calle San Francisco, 8. 33003 Oviedo (Asturias)","{'type': 'Point', 'coordinates': [-5.8469384, 43.3620421]}",43.3620421,-5.8469384
437,Restaurante Cantina La Estación,"Cuesta Rodadera, 1, Úbeda, Jaén.","{'type': 'Point', 'coordinates': [-3.3672187, 38.0116761]}",38.0116761,-3.3672187
438,Restaurante La Huertona,"Carretera La Piconera, 2. 33560 Ribadesella (Asturias)","{'type': 'Point', 'coordinates': [-5.0660425, 43.4451942]}",43.4451942,-5.0660425
439,Restaurante Dama Juana,"Calle Melchor Cobo Medina, 7, 23001 Jaén, España","{'type': 'Point', 'coordinates': [-3.7854908, 37.7672055]}",37.7672055,-3.7854908
440,Restaurante El Churrasco,"Calle Romero, 16 14003 Córdoba","{'type': 'Point', 'coordinates': [-4.7818471, 37.8800342]}",37.8800342,-4.7818471
441,Restaurante Faralá,"Cuesta de Gomérez, 11, 18009 Granada, España","{'type': 'Point', 'coordinates': [-3.5954104, 37.1765611]}",37.1765611,-3.5954104
442,Restaurante Ispal,"Plaza San Sebastián, 1, 41004 Sevilla, España","{'type': 'Point', 'coordinates': [-5.4149991, 37.3284509]}",37.3284509,-5.4149991
443,Restaurante Jaylu,"Calle López de Gomara, 19","{'type': 'Point', 'coordinates': [-6.0080549, 37.3794303]}",37.3794303,-6.0080549
444,Restaurante Kava,Avenida Antonio Belon 4,"{'type': 'Point', 'coordinates': [-4.8871185, 36.5080882]}",36.5080882,-4.8871185
445,Restaurante La Cuchara de San Lorenzo,"Calle Arroyo de San Lorenzo, 2. 14002 Córdoba (Córdoba)","{'type': 'Point', 'coordinates': [-4.7689622, 37.8875669]}",37.8875669,-4.7689622
446,Restaurante La Cosmopolita,"Calle José Denís Belgrano, 3. 29015 Málaga (Málaga)","{'type': 'Point', 'coordinates': [-4.4200457382, 36.72188005]}",36.72188005,-4.4200457382
447,Restaurante La Curiosidad de Mauro Barreiro,"Calle Veedor, 10. 11003 Cádiz (Cádiz)","{'type': 'Point', 'coordinates': [-6.3000217, 36.5354336]}",36.5354336,-6.3000217
448,Restaurante Mantúa,"Plaza Aladro, 7 11402 Jerez de la Frontera (Cádiz)","{'type': 'Point', 'coordinates': [-6.1359051, 36.687547]}",36.687547,-6.1359051
449,Restaurante Los Sentidos,"Calle Doctor, 13 23700 Linares (Jaén)","{'type': 'Point', 'coordinates': [-3.6290363, 38.091502]}",38.091502,-3.6290363
450,Restaurante Ruta del Veleta,"Av. de la Sierra Nevada, 146, 18190 Cenes de la Vega, Granada, España","{'type': 'Point', 'coordinates': [-3.5278779, 37.1573663]}",37.1573663,-3.5278779
451,Restaurante Sobretablas,"Calle Colombia, 7, 41013 Sevilla, España","{'type': 'Point', 'coordinates': [-6.0728732, 36.9232929]}",36.9232929,-6.0728732
452,Restaurante Kaleja,"Calle Marquesa de Moya, 9, 29015 Málaga","{'type': 'Point', 'coordinates': [-4.417829, 36.7211381]}",36.7211381,-4.417829
453,Restaurante Taberna de Miguel,"Calle María Bellido, 120. 23710 Bailén (Jaén)","{'type': 'Point', 'coordinates': [-3.7782247, 38.0965814]}",38.0965814,-3.7782247
454,Restaurante Ta-Kumi Málaga,"Calle Mundo Nuevo ,4","{'type': 'Point', 'coordinates': [-2.0944477, 37.6903107]}",37.6903107,-2.0944477
455,Restaurante Terraza Carmona,"Calle del Mar, 1.","{'type': 'Point', 'coordinates': [-4.3591404, 36.7208729]}",36.7208729,-4.3591404
456,Restaurante Tribeca,"Calle Chaves Nogales, 3. 41018 Sevilla (Sevilla)","{'type': 'Point', 'coordinates': [-5.9794081, 37.3850292]}",37.3850292,-5.9794081
457,Restaurante YoKo,"Avenida Virgen del Carmen, 2","{'type': 'Point', 'coordinates': [-5.4446779, 36.1293852]}",36.1293852,-5.4446779
458,Restaurante Quema,"Paseo María Agustín, 20. 50004 Zaragoza","{'type': 'Point', 'coordinates': [-0.8903937, 41.651318]}",41.651318,-0.8903937
459,Restaurante Lillas Pastia,"Plaza de Navarra, 4 22002 Huesca","{'type': 'Point', 'coordinates': [-0.4096185583, 42.13615955]}",42.13615955,-0.4096185583
460,Restaurante AIE,"Av. Inmaculada Concepción, 58, 38360 El Sauzal, Santa Cruz de Tenerife, España","{'type': 'Point', 'coordinates': [-16.4365486, 28.4794344]}",28.4794344,-16.4365486
461,Restaurante Tatau,"Calle Azara, 22002 Huesca, España","{'type': 'Point', 'coordinates': [0.1169512, 42.0366044]}",42.0366044,0.1169512
462,Restaurante Amor de mis Amores,"Calle el Perdón, 11. 38006 Santa Cruz de Tenerife (Tenerife - Santa Cruz de Tenerife)","{'type': 'Point', 'coordinates': [-16.8519802, 28.3732831]}",28.3732831,-16.8519802
463,Restaurante La Senda,"Calle Hernán Cortés, 15, 50004 Zaragoza","{'type': 'Point', 'coordinates': [-0.8901369, 41.6480879]}",41.6480879,-0.8901369
464,Restaurante El Risco,"Calle Montaña Clara, 30, 35558 Caleta de Famara, Las Palmas, España","{'type': 'Point', 'coordinates': [-13.564293, 29.1180017]}",29.1180017,-13.564293
465,Restaurante Cancook,"Calle Juan II de Aragón, 5, 50009 Zaragoza, España","{'type': 'Point', 'coordinates': [-1.2158723234, 42.49625025]}",42.49625025,-1.2158723234
466,Restaurante El Equilibrista 33,"Calle Ingeniero Salinas, 23. 35006 Las Palmas de Gran Canaria (Gran Canaria - Las Palmas)","{'type': 'Point', 'coordinates': [-15.4311335, 28.1299359]}",28.1299359,-15.4311335
467,Restaurante Fuji,"Calle Fernando Guanarteme, 56. 35010 Las Palmas de Gran Canaria (Gran Canaria - Las Palmas)","{'type': 'Point', 'coordinates': [-15.442881, 28.1272104]}",28.1272104,-15.442881
468,Restaurante La Sandunga,"Calle San Ignacio, 17 38280 Tegueste (Tenerife - Santa Cruz de Tenerife)","{'type': 'Point', 'coordinates': [-16.356905, 28.5025472]}",28.5025472,-16.356905
469,Restaurante El Taller Seve Díaz,"Calle San Felipe, 32 38400 Puerto de la Cruz (Santa Cruz de Tenerife)","{'type': 'Point', 'coordinates': [-16.5531294, 28.4165864]}",28.4165864,-16.5531294
470,Restaurante Poemas by Hermanos Padrón,"Calle León y Castillo, 227, Las Palmas de Gran Canaria, Las Palmas","{'type': 'Point', 'coordinates': [-15.4306327, 28.1395959]}",28.1395959,-15.4306327
471,Restaurante Qué Leche,"Calle Torres, 22. 35002 Las Palmas de Gran Canaria (Gran Canaria - Las Palmas)","{'type': 'Point', 'coordinates': [-15.4170604188, 28.10428135]}",28.10428135,-15.4170604188
472,Restaurante Seaside Grand Hotel Residencia,"Av. del Oasis, 32, 35100 San Bartolomé de Tirajana, Las Palmas, España","{'type': 'Point', 'coordinates': [-15.5972739, 27.7393207]}",27.7393207,-15.5972739
473,Restaurante El Chalet,"Santa teresa de jesus, 25","{'type': 'Point', 'coordinates': [-69.8062963883, 18.4923251]}",18.4923251,-69.8062963883
474,Restaurante Adolfo,"Calle Hombre de Palo, 7. 45002 Toledo","{'type': 'Point', 'coordinates': [-4.02394, 39.8579505]}",39.8579505,-4.02394
475,Restaurante Casa Elena,"Calle Nueva, 15 45592 Cabañas de la Sagra (Toledo)","{'type': 'Point', 'coordinates': [-3.9510692232, 40.00858515]}",40.00858515,-3.9510692232
476,Restaurante Ronquillo,"Calle Menendez Pelayo, 2 Cantabria","{'type': 'Point', 'coordinates': [-4.0687859, 43.2613654]}",43.2613654,-4.0687859
477,Restaurante Las Llaves,"Plaza Mayor, 15. 19180 Marchamalo (Guadalajara)","{'type': 'Point', 'coordinates': [-3.202191, 40.6692046]}",40.6692046,-3.202191
478,Restaurante Ribera del Río Miño,"Calle Olof Palme, 21. 35010 Las Palmas de Gran Canaria (Gran Canaria - Las Palmas)","{'type': 'Point', 'coordinates': [-15.436429109, 28.13523865]}",28.13523865,-15.436429109
479,Restaurante Mesón Octavio,"Calle Severo Ochoa, 6 13005 Ciudad Real (Ciudad Real)","{'type': 'Point', 'coordinates': [-3.9262301, 38.9970839]}",38.9970839,-3.9262301
480,Restaurante Palio,"Calle Mayor, 12. 45300 Ocaña (Toledo)","{'type': 'Point', 'coordinates': [-3.4998328, 39.9588931]}",39.9588931,-3.4998328
481,Restaurante Raíces,"Ronda del Cañillo, 3 45600","{'type': 'Point', 'coordinates': [-4.8321219128, 39.9566035]}",39.9566035,-4.8321219128
482,Restaurante La Prensa,"Calle José Nebra, 3, 50007 Zaragoza, España","{'type': 'Point', 'coordinates': [-0.874694, 41.6333456]}",41.6333456,-0.874694
483,Restaurante Trivio,"Calle Colón, 25. 16002 Cuenca","{'type': 'Point', 'coordinates': [-2.1377757, 40.0746191]}",40.0746191,-2.1377757
484,Restaurante Víctor Sánchez-Beato,"Calle Alamillos del Tránsito 9, Toledo 45002","{'type': 'Point', 'coordinates': [-4.0285291, 39.8559581]}",39.8559581,-4.0285291
485,Restaurante Casa Ojeda,"Calle Vitoria,  5. 09004 Burgos","{'type': 'Point', 'coordinates': [-3.6990031, 42.3412012]}",42.3412012,-3.6990031
486,Restaurante Becook Urbanfood,"Calle Cantareros, 2. 24003 León","{'type': 'Point', 'coordinates': [-5.5663609, 42.5945109]}",42.5945109,-5.5663609
487,Restaurante Restaurante Raff,"Calle San Pedro, 58. 16001 Cuenca (Cuenca)","{'type': 'Point', 'coordinates': [-2.5677335, 40.1413897]}",40.1413897,-2.5677335
488,Restaurante Absinthium,"Calle Coso, 11. 50003 Zaragoza (Zaragoza)","{'type': 'Point', 'coordinates': [-1.6366333, 41.1837441]}",41.1837441,-1.6366333
489,Restaurante Cobo Estratos,"Plaza de la Libertad, 9","{'type': 'Point', 'coordinates': [19.0516592715, 47.50363885]}",47.50363885,19.0516592715
490,Restaurante Casa Duque,"Calle de Cervantes,  12. 40001 Segovia (Segovia)","{'type': 'Point', 'coordinates': [-4.1193385, 40.9478818]}",40.9478818,-4.1193385
491,Restaurante Dámaso,"Calle Corbeta, 1. 47009 Valladolid (Valladolid)","{'type': 'Point', 'coordinates': [-4.7483932, 41.6795637]}",41.6795637,-4.7483932
492,Restaurante Casa Vallecas,"Calle Real, 16 42360 Berlanga de Duero (Soria)","{'type': 'Point', 'coordinates': [-2.8599901, 41.4650057]}",41.4650057,-2.8599901
493,Restaurante El Capricho,"c/ Carrobierzo, 28, 24767 Jiménez de Jamuz, León, España","{'type': 'Point', 'coordinates': [-5.9334802303, 42.2715434]}",42.2715434,-5.9334802303
494,Restaurante Casa Silvano - Maracaibo,"Paseo Ezequiel González, 25. 40002 Segovia","{'type': 'Point', 'coordinates': [-4.1208958, 40.9442434]}",40.9442434,-4.1208958
495,Restaurante Delirios,"Calle Ramón y Cajal, 5. 24002 León","{'type': 'Point', 'coordinates': [-5.6287012164, 42.80261765]}",42.80261765,-5.6287012164
496,Restaurante En la Parra,Calle San Pablo n80 BAJO,"{'type': 'Point', 'coordinates': [0.3499307, 41.5211278]}",41.5211278,0.3499307
497,Restaurante Hostería de los Palmeros,"Plaza de San Telmo, 4. 34440 Frómista (Palencia)","{'type': 'Point', 'coordinates': [-4.4046682, 42.267725]}",42.267725,-4.4046682
498,Restaurante El Mesón de Gonzalo,"Plaza Poeta Iglesias, 10 37001 Salamanca","{'type': 'Point', 'coordinates': [-5.449056, 40.7366811]}",40.7366811,-5.449056
499,Restaurante Restaurante José María,"Calle Cronista Lecea, 11, 40001 Segovia, España","{'type': 'Point', 'coordinates': [-4.1227292, 40.9505005]}",40.9505005,-4.1227292
500,Restaurante Llantén,"Calle Encina, 11. 47153 Pinar de Antequera (Valladolid)","{'type': 'Point', 'coordinates': [-4.7500656, 41.590146]}",41.590146,-4.7500656
501,Restaurante La Tronera,"Calle El Caño,  1 24565 Villadepalos (León)","{'type': 'Point', 'coordinates': [-6.7493234, 42.5407362]}",42.5407362,-6.7493234
502,Restaurante Summum del Reina Isabel,"Calle Alfredo L. Jones, 40. 35008 Las Palmas de Gran Canaria (Gran Canaria - Las Palmas)","{'type': 'Point', 'coordinates': [-15.4330897, 28.1424105]}",28.1424105,-15.4330897
503,Restaurante La Fábrica,"Calle Briviesca, 4 09004 Burgos","{'type': 'Point', 'coordinates': [-3.3066465, 42.5920434]}",42.5920434,-3.3066465
504,Restaurante Serrano,"Calle Portería, 2. 24700 Astorga (León)","{'type': 'Point', 'coordinates': [-6.0579573, 42.4566583]}",42.4566583,-6.0579573
505,Restaurante Los Caprichos de Meneses,"Plaza San Miguel, 3. 49001 Zamora (Zamora)","{'type': 'Point', 'coordinates': [-6.1982117, 41.3874203]}",41.3874203,-6.1982117
506,Restaurante LAV,"Avenida Padre Isla, 1 24002 León","{'type': 'Point', 'coordinates': [-5.5723359, 42.5984172]}",42.5984172,-5.5723359
507,Restaurante Pablo,"Avenida Los Cubos, 8. 24007 León","{'type': 'Point', 'coordinates': [-5.5666475, 42.6007007]}",42.6007007,-5.5666475
508,Restaurante Terra Palencia,C/ Pedro Fernandez del Pulgar N6,"{'type': 'Point', 'coordinates': [-4.5333043, 42.0077039]}",42.0077039,-4.5333043
509,Restaurante Villa Paramesa,"Plaza Martí y Monsó, 4 - 47001 Valladolid (Valladolid)","{'type': 'Point', 'coordinates': [-4.7305385, 41.6522548]}",41.6522548,-4.7305385
510,Restaurante La Bicicleta,"La Plaza, 12 39716 Hoznayo (Cantabria)","{'type': 'Point', 'coordinates': [-3.7038511297, 43.3908784]}",43.3908784,-3.7038511297
511,Restaurante Suite 22,"Calle de Fray Luis de León, 22, 47002 Valladolid, España","{'type': 'Point', 'coordinates': [-4.7221061, 41.6506903]}",41.6506903,-4.7221061
512,Restaurante Virrey Palafox,"Calle Universidad, 7. 42300 Burgo de Osma-Ciudad de Osma (Soria)","{'type': 'Point', 'coordinates': [-3.0610503, 41.5870952]}",41.5870952,-3.0610503
513,Restaurante Al Kostat,"Ronda de Sant Antoni, 41. 08011 Barcelona (Barcelona)","{'type': 'Point', 'coordinates': [2.1633767, 41.382676]}",41.382676,2.1633767
514,Restaurante Boccatti,"Calle Mossén Josep Gudiol, 21. 08500 Vic (Barcelona)","{'type': 'Point', 'coordinates': [2.2490242, 41.9295205]}",41.9295205,2.2490242
515,Restaurante Casamar,"Calle Nero, 3. 17211 Llafranc (Girona)","{'type': 'Point', 'coordinates': [3.1904258, 41.8930752]}",41.8930752,3.1904258
516,Restaurante Don Giovanni,"Calle Deu i Mata, 69-99 08029 Barcelona","{'type': 'Point', 'coordinates': [2.1363534, 41.3887886]}",41.3887886,2.1363534
517,Restaurante Mesón de Cándido,"Plaza del Azoguejo, 5. 40001 Segovia (Segovia)","{'type': 'Point', 'coordinates': [-4.1181391624, 40.9478838]}",40.9478838,-4.1181391624
518,Restaurante Villena,"Plaza Capuchinos, 2, 40001 Segovia, España","{'type': 'Point', 'coordinates': [-4.1230952, 40.9521205]}",40.9521205,-4.1230952
519,Restaurante Ca l'Isidre,"Calle de Les Flors, 12. 08001 Barcelona (Barcelona)","{'type': 'Point', 'coordinates': [2.1682015, 41.3759578]}",41.3759578,2.1682015
520,Restaurante Casa Irene,"Calle Major, 22 25599 Artíes (Lérida)","{'type': 'Point', 'coordinates': [0.872435, 42.6995703]}",42.6995703,0.872435
521,Restaurante Muna,"Calle Gil y Carrasco, 25","{'type': 'Point', 'coordinates': [-5.573561, 42.5968668]}",42.5968668,-5.573561
522,Restaurante Dos Pebrots,"Carrer del Dr. Dou, 19 08001 Barcelona","{'type': 'Point', 'coordinates': [2.1684577, 41.3828495]}",41.3828495,2.1684577
523,Restaurante Els Brancs,"Avenida Díaz Pacheco, 26 17480 Roses (Girona)","{'type': 'Point', 'coordinates': [3.1982037252, 42.24445635]}",42.24445635,3.1982037252
524,Restaurante El Celler de l'Arbocet,"Calle Masferrer, 9. 43330 Riudoms (Tarragona)","{'type': 'Point', 'coordinates': [1.0510162, 41.1366662]}",41.1366662,1.0510162
525,Restaurante Dos Palillos,"Carrer d'Elisabets, 9. 08001 Barcelona","{'type': 'Point', 'coordinates': [2.1686617, 41.3833622]}",41.3833622,2.1686617
526,Restaurante Empòrium,"Calle de Santa Clara, 31 17486 Castelló d´Empúries (Girona)","{'type': 'Point', 'coordinates': [3.0760146, 42.2559078]}",42.2559078,3.0760146
527,Restaurante Ferran Cerro,"Plaza del Castell, 2","{'type': 'Point', 'coordinates': [-0.1215346, 38.6517628]}",38.6517628,-0.1215346
528,Restaurante Els Pescadors,"Plaza Prim, 1. 08005 Barcelona","{'type': 'Point', 'coordinates': [2.2068911, 41.3995169]}",41.3995169,2.2068911
529,Restaurante Espai Kru,"Carrer Lleida, 7. 08004 Barcelona (Barcelona)","{'type': 'Point', 'coordinates': [2.1545526, 41.3743416]}",41.3743416,2.1545526
530,Restaurante Fonda Sala,"Plaça Major, 17. 08516 Olost (Barcelona)","{'type': 'Point', 'coordinates': [2.0957512, 41.9860223]}",41.9860223,2.0957512
531,Restaurante Gaig - Torre del Remei,"Camí del Remei, 3 17539 Bolvir (Girona)","{'type': 'Point', 'coordinates': [1.8848368, 42.4192412]}",42.4192412,1.8848368
532,Restaurante Informal by Marc Gascons,"Passeig de Colom, 9, 08002 Barcelona, España","{'type': 'Point', 'coordinates': [2.1808382, 41.3801585]}",41.3801585,2.1808382
533,Restaurante Hofmann,"Calle La Granada del Penedés, 14 - 16. 08006 Barcelona (Barcelona)","{'type': 'Point', 'coordinates': [2.1527648, 41.3969467]}",41.3969467,2.1527648
534,Restaurante La Fonda Xesc,"Plaza del Roser, 1 17531 Gombrén (Girona)","{'type': 'Point', 'coordinates': [2.091077, 42.2481382]}",42.2481382,2.091077
535,Restaurante Nectari,"Calle Valencia, 28. 08015 Barcelona","{'type': 'Point', 'coordinates': [2.2290930739, 41.42452335]}",41.42452335,2.2290930739
536,Restaurante Manairó,"Calle Diputació, 424. 08013  Barcelona","{'type': 'Point', 'coordinates': [2.0763645, 41.4455601]}",41.4455601,2.0763645
537,Restaurante La Taverna del Clinic,"Calle Rosselló, 155. 08036 Barcelona (Barcelona)","{'type': 'Point', 'coordinates': [1.8287143, 41.7320892]}",41.7320892,1.8287143
538,Restaurante La Cuina de Can Simón,"Calle Portal, 24 17320 Tossa de Mar (Girona)","{'type': 'Point', 'coordinates': [2.9323119, 41.7173221]}",41.7173221,2.9323119
539,Restaurante Nairod,"Carrer d'Aribau, 141, 08036 Barcelona, España","{'type': 'Point', 'coordinates': [2.1541086164, 41.39214905]}",41.39214905,2.1541086164
540,Restaurante Fogony,"Avenida Generalitat, 45","{'type': 'Point', 'coordinates': [-0.0552263, 39.9444829]}",39.9444829,-0.0552263
541,Restaurante Petit Comité Barcelona,"Passatge de la Concepció, 13, 08008 Barcelona, España","{'type': 'Point', 'coordinates': [2.1601254071, 41.3943618]}",41.3943618,2.1601254071
542,Restaurante Rincón de Diego,"Calle Drassanes, 19 43850 Cambrils (Tarragona)","{'type': 'Point', 'coordinates': [1.062831, 41.0681497]}",41.0681497,1.062831
543,Restaurante Roig Robí,"Calle Séneca, 20. 08006 Barcelona","{'type': 'Point', 'coordinates': [2.1562774, 41.3968928]}",41.3968928,2.1562774
544,Restaurante Oria,"Passeig de Gràcia, 75. 08008 Barcelona","{'type': 'Point', 'coordinates': [2.162242, 41.3937566]}",41.3937566,2.162242
545,Restaurante SOFIA Be So,"Plaça de Pius XII, 4. 08028 Barcelona","{'type': 'Point', 'coordinates': [2.1274108133, 41.36511905]}",41.36511905,2.1274108133
546,Restaurante Rías de Galicia,"Carrer Lleida, 7. 08013 Barcelona (Barcelona)","{'type': 'Point', 'coordinates': [1.6274982, 41.5846751]}",41.5846751,1.6274982
547,Restaurante Tram-Tram,"Carrer Major de Sarriá, 121 08017 Barcelona","{'type': 'Point', 'coordinates': [2.1205419, 41.4007397]}",41.4007397,2.1205419
548,Restaurante Sa Punta,"Carrer Sa Punta des Forn, 20","{'type': 'Point', 'coordinates': [3.2034517, 41.9765155]}",41.9765155,3.2034517
549,Restaurante Bugao,"Calle Independencia, 15. 51001 Ceuta","{'type': 'Point', 'coordinates': [-5.3150757, 35.8873616]}",35.8873616,-5.3150757
550,Restaurante Europa,"Calle Espoz y Mina, 11, 31002 Pamplona, Navarra, España","{'type': 'Point', 'coordinates': [-1.6416661, 42.8162271]}",42.8162271,-1.6416661
551,Restaurante Villa Retiro,"Calle Molins, 2. 43592 Xerta (Tarragona)","{'type': 'Point', 'coordinates': [0.4898573464, 40.9121028]}",40.9121028,0.4898573464
552,Restaurante La Biblioteca,"Calle Beloso Bajo, 11. 31006 Pamplona (Navarra)","{'type': 'Point', 'coordinates': [-1.6284517, 42.8147059]}",42.8147059,-1.6284517
553,Restaurante Remigio,"Calle Gaztambide Carrera, 4, 31500 Tudela, Navarra, España","{'type': 'Point', 'coordinates': [-1.6048474, 42.0616951]}",42.0616951,-1.6048474
554,Restaurante Sato i Tanaka,vinyals,"{'type': 'Point', 'coordinates': [1.7480562, 41.2743699]}",41.2743699,1.7480562
555,Restaurante Tresmacarrons,"Avenida del Maresme, 21. 08320 El Masnou (Barcelona)","{'type': 'Point', 'coordinates': [2.3326877, 41.4829645]}",41.4829645,2.3326877
556,Restaurante Xavier Pellicer,"Carrer de Provença, 310. 08037 Barcelona (Barcelona)","{'type': 'Point', 'coordinates': [2.1634052, 41.3960599]}",41.3960599,2.1634052
557,Restaurante Xerta,"Carrer de Còrsega, 289, 08008 Barcelona, España","{'type': 'Point', 'coordinates': [2.156375052, 41.39463915]}",41.39463915,2.156375052
558,Restaurante Amparito Roca,"Calle de Juan Bravo, 12, 28006 Madrid, España","{'type': 'Point', 'coordinates': [-3.679469, 40.4326961]}",40.4326961,-3.679469
559,Restaurante Alabaster,"Calle Montalbán, 9. 28014 Madrid (Madrid)","{'type': 'Point', 'coordinates': [-4.0494974, 40.7419746]}",40.7419746,-4.0494974
560,Restaurante Verduarte,"Plaza del Baluarte, s/n, Pamplona, Navarra","{'type': 'Point', 'coordinates': [-1.6468589862, 42.81360535]}",42.81360535,-1.6468589862
561,Restaurante Aspen,"Plaza de la Moraleja, 28109 Alcobendas, Madrid, España","{'type': 'Point', 'coordinates': [-3.6506355, 40.5157347]}",40.5157347,-3.6506355
562,Restaurante 99 Sushi Bar (Hermosilla),"Calle Hermosilla, 4. 28001 Madrid (Madrid)","{'type': 'Point', 'coordinates': [-3.6886087, 40.4264714]}",40.4264714,-3.6886087
563,Restaurante Casa Alberto,"Calle Huertas, 18. 28012 Madrid (Madrid)","{'type': 'Point', 'coordinates': [-3.5410588682, 40.8222987]}",40.8222987,-3.5410588682
564,Restaurante Casa d'a Troya,"Calle Emiliano Barral, 14. 28043 Madrid (Madrid)","{'type': 'Point', 'coordinates': [-3.6602304, 40.4494962]}",40.4494962,-3.6602304
565,Restaurante Carême- Jesús del Cerro,Avda De Palacio 2,"{'type': 'Point', 'coordinates': [-3.7726258, 40.5166686]}",40.5166686,-3.7726258
566,Restaurante DSPEAK,"Calle de Fernando VI, 28004 Madrid, España","{'type': 'Point', 'coordinates': [-3.697206, 40.4259592]}",40.4259592,-3.697206
567,Restaurante El Cenador de Salvador,"Calle de España, 30. 28411 Moralzarzal (Madrid)","{'type': 'Point', 'coordinates': [-3.9635136, 40.6782112]}",40.6782112,-3.9635136
568,Restaurante Arima,"Calle Ponzano, 51 28003 Madrid","{'type': 'Point', 'coordinates': [-3.6992459, 40.4407523]}",40.4407523,-3.6992459
569,Restaurante El Mesón de Doña Filo,"Calle de San Juan, 3, 28213 Colmenar del Arroyo, Madrid, España","{'type': 'Point', 'coordinates': [-4.1968177, 40.4166219]}",40.4166219,-4.1968177
570,Restaurante Enklima,"Calle de Ferraz, 36","{'type': 'Point', 'coordinates': [-3.7171041, 40.4261012]}",40.4261012,-3.7171041
571,Restaurante El Señor Martín,"Calle General Castaños, 13. 28004 Madrid (Madrid)","{'type': 'Point', 'coordinates': [-3.7283649, 40.3108449]}",40.3108449,-3.7283649
572,Restaurante Estimar,"Calle del Marqués de Cubas, 18, 28014 Madrid, España","{'type': 'Point', 'coordinates': [-3.6960001, 40.415919]}",40.415919,-3.6960001
573,Restaurante Cañadío Madrid,"Calle Conde de Peñalver, 86. 28006 Madrid (Madrid)","{'type': 'Point', 'coordinates': [-3.6755006, 40.4273052]}",40.4273052,-3.6755006
574,Restaurante Goizeko Wellington,"Calle Villanueva, 34. 28001 Madrid","{'type': 'Point', 'coordinates': [-3.6246944, 40.5457695]}",40.5457695,-3.6246944
575,Restaurante Kabuki,"Avenida Presidente Carmona, 2. 28020 Madrid (Madrid)","{'type': 'Point', 'coordinates': [-3.6970397, 40.4550922]}",40.4550922,-3.6970397
576,Restaurante El Jardín de Orfila,"Calle Orfila, 6 28010 Madrid","{'type': 'Point', 'coordinates': [-3.6932173, 40.4272674]}",40.4272674,-3.6932173
577,Restaurante Desencaja Bistró,"Paseo de La Habana, 84. 28016 Madrid (Madrid)","{'type': 'Point', 'coordinates': [-3.6810412, 40.4560306]}",40.4560306,-3.6810412
578,Restaurante Kuoco 360 food,"Calle de San Bartolomé, 14","{'type': 'Point', 'coordinates': [-3.6983793, 40.4219657]}",40.4219657,-3.6983793
579,Restaurante La Buena Vida,"Calle Conde de Xiquena, 8. 28004 Madrid (Madrid)","{'type': 'Point', 'coordinates': [-3.6940707, 40.4229163]}",40.4229163,-3.6940707
580,Restaurante La Catapa,Calle Menorca 14,"{'type': 'Point', 'coordinates': [-3.3436242, 40.4857152]}",40.4857152,-3.3436242
581,Restaurante Gioia,Calle San Bartolomé 23,"{'type': 'Point', 'coordinates': [-3.3210027909, 38.03019345]}",38.03019345,-3.3210027909
582,Restaurante La Manduca de Azagra,"Calle de Sagasta, 14, 28004 Madrid, España","{'type': 'Point', 'coordinates': [-3.7005018, 40.4285972]}",40.4285972,-3.7005018
583,Restaurante La Primera,"Gran Vía, 1. 28013 Madrid (Madrid)","{'type': 'Point', 'coordinates': [-3.6978657, 40.4191077]}",40.4191077,-3.6978657
584,Restaurante La Taberna de Elia,"Vía de las dos Castillas, 23. 28224 Pozuelo de Alarcón (Madrid)","{'type': 'Point', 'coordinates': [-3.8111356, 40.4314905]}",40.4314905,-3.8111356
585,Restaurante La Tasquería,"Calle Duque de Sesto, 48. 28009 Madrid (Madrid)","{'type': 'Point', 'coordinates': [-3.6735107, 40.4222271]}",40.4222271,-3.6735107
586,Restaurante La Bien Aparecida,"Calle de Jorge Juan, 8, 28001 Madrid, España","{'type': 'Point', 'coordinates': [-3.6871192, 40.4238118]}",40.4238118,-3.6871192
587,Restaurante La Paloma,"Calle de Jorge Juan, 39, 28001 Madrid, España","{'type': 'Point', 'coordinates': [-3.6821820852, 40.42384695]}",40.42384695,-3.6821820852
588,Restaurante Brasserie Lafayette,"Calle Recaredo, 2, 28002 Madrid","{'type': 'Point', 'coordinates': [-3.6802448, 40.4413444]}",40.4413444,-3.6802448
589,Restaurante Le Bistroman Atelier,"Calle de la Amnistia, 10, 28013 Madrid, España","{'type': 'Point', 'coordinates': [-3.7110219, 40.4172431]}",40.4172431,-3.7110219
590,Restaurante Dos Cielos,"Cuesta de Santo Domingo, 5. 28013 Madrid (Madrid)","{'type': 'Point', 'coordinates': [-3.709667, 40.4195937]}",40.4195937,-3.709667
591,Restaurante Luke Restaurante,"Calle Bárbara de Braganza, 2, 28004 Madrid, España","{'type': 'Point', 'coordinates': [-3.8839429, 40.4077497]}",40.4077497,-3.8839429
592,Restaurante Membibre,"Calle de Guzmán el Bueno, 40, 28015 Madrid, España","{'type': 'Point', 'coordinates': [-3.7130004, 40.4349117]}",40.4349117,-3.7130004
593,Restaurante Montia,"Calle Calvario, 4. 28200 San Lorenzo de El Escorial (Madrid)","{'type': 'Point', 'coordinates': [-4.1443097, 40.5912716]}",40.5912716,-4.1443097
594,Restaurante Ovillo,"Calle Pantoja 8, 28002, Madrid","{'type': 'Point', 'coordinates': [-3.6703312, 40.447414]}",40.447414,-3.6703312
595,Restaurante Rafa,"Calle Narváez, 68. 28009 Madrid (Madrid)","{'type': 'Point', 'coordinates': [-3.694637, 40.1986932]}",40.1986932,-3.694637
596,Restaurante Rubaiyat,"Calle Juan Ramón Jiménez, 37. 28036 Madrid","{'type': 'Point', 'coordinates': [-3.3533147303, 40.5119322]}",40.5119322,-3.3533147303
597,Restaurante Surtopía,"Calle Núñez de Balboa, 106 28006 Madrid","{'type': 'Point', 'coordinates': [-3.36271, 40.4879073]}",40.4879073,-3.36271
598,Restaurante Taberna Pedraza,"Calle Recoletos, 4. 28001 Madrid (Madrid)","{'type': 'Point', 'coordinates': [-3.6916864, 40.4210283]}",40.4210283,-3.6916864
599,Restaurante Noi Restaurante,"Calle de Recoletos, 6, 28001 Madrid, España","{'type': 'Point', 'coordinates': [-3.6906437, 40.422032]}",40.422032,-3.6906437
600,Restaurante Audrey's,Avenida Juan Carlos I 48 03710 Calp (Alicante),"{'type': 'Point', 'coordinates': [0.0726038, 38.6508183]}",38.6508183,0.0726038
601,Restaurante El Baret de Miquel,"Calle Historiador Palau, 1. 03700 Dénia (Alicante)","{'type': 'Point', 'coordinates': [0.1058941, 38.8387417]}",38.8387417,0.1058941
602,Restaurante Casa Jaime,"Avenida Papa Luna, 5. 12598 Peñiscola (Castellón)","{'type': 'Point', 'coordinates': [0.4026807, 40.3625846]}",40.3625846,0.4026807
603,Restaurante Umiko,"Calle de los Madrazo, 18, 28014 Madrid, España","{'type': 'Point', 'coordinates': [-3.6955775, 40.4176566]}",40.4176566,-3.6955775
604,Restaurante Triciclo,"Calle Santa María, 28. 28014 Madrid","{'type': 'Point', 'coordinates': [-3.5152199, 40.7450636]}",40.7450636,-3.5152199
605,Restaurante El Portal,"Calle Bilbao, 2, 03001 Alicante (Alacant), Alicante, España","{'type': 'Point', 'coordinates': [-0.6727536223, 38.14310475]}",38.14310475,-0.6727536223
606,Restaurante Entrevins,"Calle La Paz, 7. 46003 Valencia","{'type': 'Point', 'coordinates': [-0.9002822, 38.0635399]}",38.0635399,-0.9002822
607,Restaurante Habitual,"C/ Doctor Sumsi,  4","{'type': 'Point', 'coordinates': [-0.530176, 38.9841134]}",38.9841134,-0.530176
608,Restaurante La Perla de Jávea,"Paseo de David Ferrer, 21. 03730 Jávea (Alicante)","{'type': 'Point', 'coordinates': [0.190007, 38.7722974]}",38.7722974,0.190007
609,Restaurante La Sastrería,"Carrer de Josep Benlliure, 42 - 44","{'type': 'Point', 'coordinates': [-0.3303201, 39.4691209]}",39.4691209,-0.3303201
610,Restaurante Daluan,"Callejón Cárcel, 4 12300 Morella (Castellón)","{'type': 'Point', 'coordinates': [-0.0993475, 40.6189769]}",40.6189769,-0.0993475
611,Restaurante La Sirena,"Calle Poeta Paco Molla, 1. 03610 Petrer (Alicante)","{'type': 'Point', 'coordinates': [-0.7827297, 38.4795003]}",38.4795003,-0.7827297
612,Restaurante Ático,"Calle Marqués de Valdeiglesias, 1. 28004 Madrid (Madrid)","{'type': 'Point', 'coordinates': [-4.3974533, 40.3632898]}",40.3632898,-4.3974533
613,Restaurante La Taberna del Gourmet,"Calle San Fernando, 10 03002 Alicante","{'type': 'Point', 'coordinates': [-0.4818538, 38.3442293]}",38.3442293,-0.4818538
614,Restaurante Lienzo,"Plaza Tetuán,  18 46003 Valencia","{'type': 'Point', 'coordinates': [-0.0403022, 39.9871494]}",39.9871494,-0.0403022
615,Restaurante Piripi,"Avenida Óscar Esplá, 30 03003 Alicante","{'type': 'Point', 'coordinates': [-0.5195953, 38.1946245]}",38.1946245,-0.5195953
616,Restaurante Aretxondo,"Barrio Elexalde, 20. 48960 Galdakao (Bizkaia)","{'type': 'Point', 'coordinates': [-2.8328025, 43.2357925]}",43.2357925,-2.8328025
617,Restaurante Mesón El Granaíno,"Carrer Josep Maria Buck, 40, 03201 Elx, Alicante, España","{'type': 'Point', 'coordinates': [-0.7047935, 38.2672146]}",38.2672146,-0.7047935
618,Restaurante Arrea!,"Subida al frontón, 46, Santa Cruz de Campezo, Álava","{'type': 'Point', 'coordinates': [-2.3491564, 42.6696947]}",42.6696947,-2.3491564
619,Restaurante Asador landa,"Calle Garagarza, 32 20850 Mendaro (Gipuzkoa)","{'type': 'Point', 'coordinates': [-2.3830648, 43.25043]}",43.25043,-2.3830648
620,Restaurante Casa Garras,"Barrio Concha, 6. 48891 Valle de Carranza (Bizkaia)","{'type': 'Point', 'coordinates': [-3.3602576, 43.224747]}",43.224747,-3.3602576
621,Restaurante Aitor Rauleaga,"Colon de Larreategui 9, 48001 Bilbao, Vizcaya","{'type': 'Point', 'coordinates': [-2.9270784, 43.2622232]}",43.2622232,-2.9270784
622,Restaurante El Clarete,"Calle Cercas Bajas, 18. 01008 Vitoria (Álava)","{'type': 'Point', 'coordinates': [-2.6758242, 42.8486108]}",42.8486108,-2.6758242
623,Restaurante Félix Manso Ibarla,"Calle Meaka, 9. 20305 Irun (Gipuzkoa)","{'type': 'Point', 'coordinates': [-1.7758994, 43.3282352]}",43.3282352,-1.7758994
624,Restaurante Galerna Jan-Edan,"Kolon Pasealekua, 46","{'type': 'Point', 'coordinates': [-1.9742494, 43.3248652]}",43.3248652,-1.9742494
625,Restaurante Eme Be Garrote,"Camino de Igara, 33. 20018 San Sebastián (Gipuzkoa)","{'type': 'Point', 'coordinates': [-2.0099361, 43.3008881]}",43.3008881,-2.0099361
626,Restaurante Ganbara,c/ San Jeronimo 21. San Sebastián,"{'type': 'Point', 'coordinates': [-1.9855242, 43.3234086]}",43.3234086,-1.9855242
627,Restaurante Gure Txokoa,"Calle Gipuzkoa, 22. 20800 Zarautz (Gipuzkoa)","{'type': 'Point', 'coordinates': [-2.1722856, 43.2853228]}",43.2853228,-2.1722856
628,Restaurante Hika by Roberto Ruiz / Hika Gastronomiko,"Otelarre Auzoa, 40 -  20150, Gipuzkoa, España","{'type': 'Point', 'coordinates': [-2.0508694, 43.1897371]}",43.1897371,-2.0508694
629,Restaurante Iñigo Lavado,"Avenida Iparralde, 43. 20302  Irún (Guipuzcoa)","{'type': 'Point', 'coordinates': [-1.7882192, 43.3466876]}",43.3466876,-1.7882192
630,Restaurante Kirkilla Enea,"Santa Marina Kalea, 12, 20800 Zarautz, Gipuzkoa, España","{'type': 'Point', 'coordinates': [-2.177172, 43.2853155]}",43.2853155,-2.177172
631,Restaurante Rausell,"Carrer d'Àngel Guimerà, 61, 46008 València, Valencia, España","{'type': 'Point', 'coordinates': [-0.3898152, 39.4692914]}",39.4692914,-0.3898152
632,Restaurante Toshi,Calle Del Salvador N. 5 bajo,"{'type': 'Point', 'coordinates': [-0.6975037, 38.2647324]}",38.2647324,-0.6975037
633,Restaurante Álbora,"Calle Jorge Juan, 33. 28001 Madrid","{'type': 'Point', 'coordinates': [-4.0249382, 40.4897942]}",40.4897942,-4.0249382
634,Restaurante Ni Neu,"Avenida Zurriola, 1. 20002 San Sebastián","{'type': 'Point', 'coordinates': [-1.9793763, 43.3241084]}",43.3241084,-1.9793763
635,Restaurante Ola Martin Berasategui,"Erribera Kalea, 13, 48005 Bilbo, Bizkaia, España","{'type': 'Point', 'coordinates': [-2.9264102, 43.2579628]}",43.2579628,-2.9264102
636,Restaurante Porrue,"Alameda de Recalde, 4, 48009 Bilbao, Vizcaya, España","{'type': 'Point', 'coordinates': [-2.933314, 43.2674194]}",43.2674194,-2.933314
637,Restaurante Eustaquio Blanco,"Avenida Ruta de la Plata, 2. 10001 Cáceres","{'type': 'Point', 'coordinates': [-6.3945013, 39.4733799]}",39.4733799,-6.3945013
638,Restaurante Rekondo,"Paseo de Igueldo, 57 20008 San Sebastián (Gipuzkoa)","{'type': 'Point', 'coordinates': [-2.0112746078, 43.31313325]}",43.31313325,-2.0112746078
639,Restaurante Étimo,"Calle de Ayala, 27. 28001 Madrid (Madrid)","{'type': 'Point', 'coordinates': [-3.6846048, 40.4278334]}",40.4278334,-3.6846048
640,Restaurante Dromo,"Plaza La Molineta, 8, Badajoz, España","{'type': 'Point', 'coordinates': [-6.220237, 38.821529]}",38.821529,-6.220237
641,Restaurante Marchivirito,"Carretera de Cáceres, 37 06007 Badajoz","{'type': 'Point', 'coordinates': [-6.3294299, 39.046931]}",39.046931,-6.3294299
642,Restaurante Galaxia,"Avenida Villanueva, 6. 06005 Badajoz (Badajoz)","{'type': 'Point', 'coordinates': [-6.9758992, 38.8728631]}",38.8728631,-6.9758992
643,Restaurante Kromatiko Restaurante,C/Beato Tomás de Zumárraga 2,"{'type': 'Point', 'coordinates': [-2.6757768, 42.8493598]}",42.8493598,-2.6757768
644,Restaurante Torre de Sande,Calle de los Condes 3,"{'type': 'Point', 'coordinates': [-6.3715188, 39.4731898]}",39.4731898,-6.3715188
645,Restaurante Xarma Cook & Culture,"Calle Miguel Imaz, 1. 20002 San Sebastián (Gipuzkoa)","{'type': 'Point', 'coordinates': [-1.976697, 43.324536]}",43.324536,-1.976697
646,Restaurante O Camiño do Inglés,"Calle Espartero, 77-79. 15401 Ferrol (A Coruña)","{'type': 'Point', 'coordinates': [-8.2448378167, 43.4794161]}",43.4794161,-8.2448378167
647,Restaurante El Refugio,"Plaza de Galicia, 8. 15173 Oleiros (Coruña, A)","{'type': 'Point', 'coordinates': [-8.3167732, 43.3331567]}",43.3331567,-8.3167732
648,Restaurante Nado,"Ruela da Estacada, 9, 15001 A Coruña, España","{'type': 'Point', 'coordinates': [-8.3994967, 43.3698793]}",43.3698793,-8.3994967
649,Restaurante Aromata,"Calle Concepción, 12. 07012 Palma de Mallorca (Mallorca - Illes Balears)","{'type': 'Point', 'coordinates': [2.6463794462, 39.5723645]}",39.5723645,2.6463794462
650,Restaurante Can Toni Moreno,"Avenida Port des Canonge, 2. 07191 Port des Canonge-Banyalbufar (Balears, Illes)","{'type': 'Point', 'coordinates': [2.554910849, 39.6992113]}",39.6992113,2.554910849
651,Restaurante Auga e Sal,"Rúa da Fonte de Santo Antonio, 8, 15702 Santiago de Compostela, A Coruña, España","{'type': 'Point', 'coordinates': [-8.5429824, 42.8773914]}",42.8773914,-8.5429824
652,Restaurante Zaldiaran,"Avenida Gasteiz, 21 01008. Vitoria-Gasteiz (Araba)","{'type': 'Point', 'coordinates': [-2.6825808, 42.8447421]}",42.8447421,-2.6825808
653,Restaurante Maymanta,Calle Salvador Camacho,"{'type': 'Point', 'coordinates': [1.5420856, 38.9883338]}",38.9883338,1.5420856
654,Restaurante Marc Fosh,"Carrer de la Missió, 7. 07003 Palma de Mallorca (Balears, Illes)","{'type': 'Point', 'coordinates': [2.651005, 39.5744654]}",39.5744654,2.651005
655,Restaurante Casa Masip,"Avenida Academia Militar, 6. 26280 Ezcaray (Rioja, La)","{'type': 'Point', 'coordinates': [-3.0158339, 42.3248392]}",42.3248392,-3.0158339
656,Restaurante Echaurren Tradición,"Calle Padre José García, 19. 26280 Ezcaray (Rioja, La)","{'type': 'Point', 'coordinates': [-3.0143275, 42.3259394]}",42.3259394,-3.0143275
657,Restaurante Juan Carlos Ferrando,"María Teresa Gil de Gárate, 7","{'type': 'Point', 'coordinates': [-2.450713, 42.4593522]}",42.4593522,-2.450713
658,Restaurante La Cocina de Ramón,"Calle Portales, 30. 26001 Logroño (Rioja, La)","{'type': 'Point', 'coordinates': [-2.0010416, 42.1081044]}",42.1081044,-2.0010416
659,Restaurante Sa Llagosta,"Gabriel Gelabert, 12, Fornells","{'type': 'Point', 'coordinates': [4.131184, 40.0555759]}",40.0555759,4.131184
660,Restaurante La Galería,"Calle Saturnino Ulargui, 5. 26001 Logroño (La Rioja)","{'type': 'Point', 'coordinates': [-2.4508619, 42.4652249]}",42.4652249,-2.4508619
661,Restaurante DaiCa,"Carrer de la Farinera, 7, 07430 Llubí, Illes Balears, España","{'type': 'Point', 'coordinates': [3.0051279, 39.6999434]}",39.6999434,3.0051279
662,Restaurante Ca' Suso,"Calle Marqués de Gastañaga, 13. 33009 Oviedo (Asturias)","{'type': 'Point', 'coordinates': [-5.8449278, 43.3590543]}",43.3590543,-5.8449278
663,Restaurante O Loxe Mareiro,"Rúa Aduana, 56","{'type': 'Point', 'coordinates': [-8.7771375, 42.6139465]}",42.6139465,-8.7771375
664,Restaurante AlmaMater,"Calle Madre de Dios, 15, 30004 Murcia","{'type': 'Point', 'coordinates': [-1.1319259, 37.9842989]}",37.9842989,-1.1319259
665,Restaurante El Albero,"Calle Mallorca, 10 30562 Ceuti (Murcia)","{'type': 'Point', 'coordinates': [-1.2722178, 38.0775562]}",38.0775562,-1.2722178
666,Restaurante El Churra,"Calle Obispo Sancho Dávila, 3. 30007 Murcia (Murcia)","{'type': 'Point', 'coordinates': [-1.1276691, 37.993094]}",37.993094,-1.1276691
667,Restaurante Es Ventall,"Calle Cervantes, 22. 07820 Sant Antoni de Portmany (Ibiza - Balears, Illes)","{'type': 'Point', 'coordinates': [1.2968981, 38.9833908]}",38.9833908,1.2968981
668,Restaurante La Seda,"Calle Vereda del Catalán,  15. 30162 Santa Cruz (Murcia)","{'type': 'Point', 'coordinates': [-1.0557892, 38.0248472]}",38.0248472,-1.0557892
669,Restaurante Pepe Tomás,"Carril Pepe Tomás, 6","{'type': 'Point', 'coordinates': [-1.0629647, 37.9946521]}",37.9946521,-1.0629647
670,Restaurante Malvasía,"Avenida Julieta Orbaiceta, 6. 30385 Playa honda (Murcia)","{'type': 'Point', 'coordinates': [-0.7339785, 37.6308466]}",37.6308466,-0.7339785
671,Restaurante Mestura,"Calle Jovellanos, 2. 33003 Oviedo (Asturias)","{'type': 'Point', 'coordinates': [-5.8451516, 43.3632882]}",43.3632882,-5.8451516
672,Restaurante Venezuela,"Calle Campoamor, 1. 30740 San Pedro del Pinatar (Murcia)","{'type': 'Point', 'coordinates': [-0.777729, 37.8201599]}",37.8201599,-0.777729
673,Restaurante Alcadima,"Calle Francisco Tárrega, 3. 18420 Lanjarón (Granada)","{'type': 'Point', 'coordinates': [-3.4877086, 36.9177315]}",36.9177315,-3.4877086
674,Restaurante La Pondala,"Avenida Dionisio Cifuentes, 58. 33203 Gijón (Asturias)","{'type': 'Point', 'coordinates': [-5.6232336, 43.5353604]}",43.5353604,-5.6232336
675,Restaurante Amador,"Calle Bandaneira, 6. 29190 Málaga (Málaga)","{'type': 'Point', 'coordinates': [-4.4745549, 36.7366514]}",36.7366514,-4.4745549
676,Restaurante Arxiduna,"Plaza Ochavada de Andalucía, 7, 29300 Archidona, Málaga","{'type': 'Point', 'coordinates': [-4.3905531523, 37.0945537]}",37.0945537,-4.3905531523
677,Restaurante Arara,"Av. del Higuerón, 48, 29640 Fuengirola, Málaga, España","{'type': 'Point', 'coordinates': [-4.5954309, 36.5800831]}",36.5800831,-4.5954309
678,Restaurante Ríos O Freixo,"Paseo Ribeira 56, Freixo, Outes","{'type': 'Point', 'coordinates': [-8.9356395, 42.8121543]}",42.8121543,-8.9356395
679,Restaurante Arya,"Plaza López Almagro, 1, 23400 Úbeda, Jaén, España","{'type': 'Point', 'coordinates': [-3.3678385, 38.0084969]}",38.0084969,-3.3678385
680,Restaurante Quimera,"Av. Mediterrània, 22, 07870 La Savina, Illes Balears, España","{'type': 'Point', 'coordinates': [1.4175482, 38.7303211]}",38.7303211,1.4175482
681,Restaurante Restaurante de Loreto,"Calle Canalejas, 73 30520 Jumilla (Murcia)","{'type': 'Point', 'coordinates': [-1.3273152, 38.4760505]}",38.4760505,-1.3273152
682,Restaurante Azabache,"Calle Vázquez López, 22. 21001 Huelva (Huelva)","{'type': 'Point', 'coordinates': [-6.9520561, 37.2553803]}",37.2553803,-6.9520561
683,Restaurante Antique,"Calle Real, 25, 23400 Úbeda, Jaén, España","{'type': 'Point', 'coordinates': [-3.3702089, 38.0104603]}",38.0104603,-3.3702089
684,Restaurante Bacusº,"camino de los parrales 330, 04740, Aguadulce","{'type': 'Point', 'coordinates': [-2.5842951, 36.8022304]}",36.8022304,-2.5842951
685,Restaurante Bajo Guía,"Calle Adriano, 5. 41001 Sevilla (Sevilla)","{'type': 'Point', 'coordinates': [-5.9971522977, 37.38615325]}",37.38615325,-5.9971522977
686,Restaurante Bar 82,Calle Arco del Consuelo 4,"{'type': 'Point', 'coordinates': [-3.7907705, 37.7659334]}",37.7659334,-3.7907705
687,Restaurante Besana Tapas,"Callejón del Niño Perdido, 1. 41710 Utrera (Sevilla)","{'type': 'Point', 'coordinates': [-5.7806266, 37.1812793]}",37.1812793,-5.7806266
688,Restaurante Casa Merchán1955,"Calle San Gabriel, 8. 29670 San Pedro de Alcántara (Málaga)","{'type': 'Point', 'coordinates': [-4.9887894, 36.4856471]}",36.4856471,-4.9887894
689,Restaurante Avante Claro,"Pórtico de Bajo de Guía, 4. 11540 Sanlúcar de Barrameda (Cádiz)","{'type': 'Point', 'coordinates': [-6.3519811, 36.7890552]}",36.7890552,-6.3519811
690,Restaurante Casa Rufino,"Avenida de la Playa, s/n. 21410 Isla Cristina (Huelva)","{'type': 'Point', 'coordinates': [-7.3108607, 37.1975138]}",37.1975138,-7.3108607
691,Restaurante Casa Sevilla,"Calle Rueda López, s/n. 04004 Almería (Almería)","{'type': 'Point', 'coordinates': [-2.4611679, 36.8374874]}",36.8374874,-2.4611679
692,Restaurante Becerrita,"Calle Recaredo, 9. 41003 Sevilla","{'type': 'Point', 'coordinates': [-5.9842346, 37.3905888]}",37.3905888,-5.9842346
693,Restaurante Chikito,"Plaza del Campillo, 9, 18009 Granada, España","{'type': 'Point', 'coordinates': [-3.5978009, 37.1719831]}",37.1719831,-3.5978009
694,Restaurante Contraseña by Código de Barra,"Plaza Candelaria, 12, 11004 Cádiz","{'type': 'Point', 'coordinates': [-6.2954764147, 36.5308026]}",36.5308026,-6.2954764147
695,Restaurante El Acebuchal,"29788 Frigiliana, Málaga","{'type': 'Point', 'coordinates': [-3.8942441642, 36.7872300333]}",36.7872300333,-3.8942441642
696,Restaurante Consolación,"Avda. Consolación,  2, 21450 Cartaya (Huelva)","{'type': 'Point', 'coordinates': [-7.1479613, 37.2892678]}",37.2892678,-7.1479613
697,Restaurante Cunini,"Plaza Pescadería, 14 18001 Granada","{'type': 'Point', 'coordinates': [-3.6007006, 37.1762677]}",37.1762677,-3.6007006
698,Restaurante El Espejo,"Calle Caballeros, 11","{'type': 'Point', 'coordinates': [-4.8856185, 36.5105702]}",36.5105702,-4.8856185
699,Restaurante El Envero (Gastrobar),"Calle Teruel, 21, 14011 Córdoba, España","{'type': 'Point', 'coordinates': [-4.7885567, 37.8984659]}",37.8984659,-4.7885567
700,Restaurante El Faro de Cádiz,"Calle San Félix, 15 11002 Cádiz","{'type': 'Point', 'coordinates': [-6.3038181, 36.5285829]}",36.5285829,-6.3038181
701,Restaurante El Mercader,"Calle Imprenta, 2, 18010 Granada","{'type': 'Point', 'coordinates': [-3.5962403, 37.1770441]}",37.1770441,-3.5962403
702,Restaurante El Bichero,"Plaza Vargas, 4, Jerez de la Frontera, Cádiz","{'type': 'Point', 'coordinates': [-6.1388863, 36.6823045]}",36.6823045,-6.1388863
703,Restaurante Damasqueros,"Calle Damasqueros, 3, 18009 Granada, España","{'type': 'Point', 'coordinates': [-3.5940748, 37.1744323]}",37.1744323,-3.5940748
704,Restaurante El Veranillo de Santa Ana,"Calle Manuel Hermosilla, 2. 11540 Sanlúcar de Barrameda (Cádiz)","{'type': 'Point', 'coordinates': [-6.3577493, 36.7853194]}",36.7853194,-6.3577493
705,Restaurante Del Candado Golf - Javier Hernández,"Calle Golf del Candado, 2. 29018 Málaga (Málaga)","{'type': 'Point', 'coordinates': [-4.3429219938, 36.72167205]}",36.72167205,-4.3429219938
706,Restaurante Ermita de la Candelaria,"Calle Candelaria, 2. 14002 Córdoba (Córdoba)","{'type': 'Point', 'coordinates': [-4.7737786, 37.8820545]}",37.8820545,-4.7737786
707,Restaurante Eslava,"Calle Eslava, 3. 41002 Sevilla (Sevilla)","{'type': 'Point', 'coordinates': [-5.9969243, 37.3975489]}",37.3975489,-5.9969243
708,Restaurante Frutos,"Avenida de la Riviera, 80. 29620 Torremolinos (Málaga)","{'type': 'Point', 'coordinates': [-4.4884083, 36.6450191]}",36.6450191,-4.4884083
709,Restaurante Flati,"Avenida de Andalucía, 40. 18300 Loja (Granada)","{'type': 'Point', 'coordinates': [-4.1257654, 37.1641275]}",37.1641275,-4.1257654
710,Restaurante Juan Moreno,"Carretera de Ronda, 3 04620 Vera (Almería)","{'type': 'Point', 'coordinates': [-1.8575951, 37.2400894]}",37.2400894,-1.8575951
711,Restaurante Firmvm,"Plaza Damasco, 2, 18690 Almuñécar, Granada, España","{'type': 'Point', 'coordinates': [-3.6893228, 36.7328702]}",36.7328702,-3.6893228
712,Restaurante La Almazara de Carmona,"Calle Santa Ana, 33 41410 Carmona (Sevilla)","{'type': 'Point', 'coordinates': [-5.6427261, 37.4752729]}",37.4752729,-5.6427261
713,Restaurante La Carboná,"Calle San Francisco de Paula, 2. 11401 Jerez de la Frontera (Cádiz)","{'type': 'Point', 'coordinates': [-6.1313581, 36.6822459]}",36.6822459,-6.1313581
714,Restaurante El Ancla,"Av. Carmen Sevilla, 29670 Marbella, Málaga, España","{'type': 'Point', 'coordinates': [-4.9921739, 36.47192]}",36.47192,-4.9921739
715,Restaurante Garum 2.1,"Calle San Fernando, 120, 14003 Córdoba, España","{'type': 'Point', 'coordinates': [-4.7756628, 37.880114]}",37.880114,-4.7756628
716,Restaurante La Taberna de Almodóvar,"Calle Benito Pérez Galdos, 1 14001 Córdoba","{'type': 'Point', 'coordinates': [-4.7828239, 37.889584]}",37.889584,-4.7828239
717,Restaurante Juanito,"Avenida Alcalde Puche Pardo, 57. 23440 Baeza (Jaén)","{'type': 'Point', 'coordinates': [-3.457313, 37.9977182]}",37.9977182,-3.457313
718,Restaurante La Revuelta,"Av. Pío Baroja, 20, 29017 Málaga","{'type': 'Point', 'coordinates': [-4.3624093, 36.7201296]}",36.7201296,-4.3624093
719,Restaurante María de la O,"Ctra. de la Sierra, 13, 18008 Granada, España","{'type': 'Point', 'coordinates': [-3.5845168, 37.1662741]}",37.1662741,-3.5845168
720,Restaurante Merendero de Antonio Martín,"Plaza de la Malagueta, 4, 29016 Málaga, España","{'type': 'Point', 'coordinates': [-4.4097445244, 36.7177641]}",36.7177641,-4.4097445244
721,Restaurante Mesón Asador Leandro,"Calle La Hoz, 3. 23470 Cazorla (Jaén)","{'type': 'Point', 'coordinates': [-2.9999639, 37.9081872]}",37.9081872,-2.9999639
722,Restaurante Los Berengueles,"Conde de Torres Cabrera, 7","{'type': 'Point', 'coordinates': [-4.7789067, 37.8866784]}",37.8866784,-4.7789067
723,Restaurante La Taberna del Chef del Mar,"Calle Puerto Escondido, 6. 11500 El Puerto de Santa María (Cádiz)","{'type': 'Point', 'coordinates': [-6.2231918, 36.5999411]}",36.5999411,-6.2231918
724,Restaurante Las Cuadras,"Plaza de la Asunción, 2 11403 Jerez de la Frontera (Cádiz)","{'type': 'Point', 'coordinates': [-6.1385609, 36.6832895]}",36.6832895,-6.1385609
725,Restaurante La Cantina de Diego,"Callejón de Ricarda, 1. 18193 Monachil (Granada)","{'type': 'Point', 'coordinates': [-3.5361601, 37.1309619]}",37.1309619,-3.5361601
726,Restaurante Oriza,"Calle San Fernando, 41, 41004 Sevilla, España","{'type': 'Point', 'coordinates': [-5.9910238447, 37.38181325]}",37.38181325,-5.9910238447
727,Restaurante Mesón Hermanos Carrasco,"Avenida José Manuel Caballero Bonald, s/n. 11405 Jerez de la Frontera (Cádiz)","{'type': 'Point', 'coordinates': [-6.1087633, 36.7002916]}",36.7002916,-6.1087633
728,Restaurante Manolo Mayo,"Avenida de Sevilla, 29. 41720 Los Palacios y Villafranca (Sevilla)","{'type': 'Point', 'coordinates': [-5.9237795, 37.160453]}",37.160453,-5.9237795
729,Restaurante Lalola,"Calle Conde de Torrejón, 9, 41003 Sevilla, España","{'type': 'Point', 'coordinates': [-5.9916484, 37.3971757]}",37.3971757,-5.9916484
730,Restaurante La Catedral,"Plaza de la Catedral, 8. 04002 Almería (Almería)","{'type': 'Point', 'coordinates': [-2.4671564007, 36.8385332]}",36.8385332,-2.4671564007
731,Restaurante Portichuelo,"Calle Vázquez López, 15, 21001 Huelva, España","{'type': 'Point', 'coordinates': [-6.9517693, 37.2556952]}",37.2556952,-6.9517693
732,Restaurante Refectorium Malagueta,"Calle Cervantes, 8, 29016 Málaga, España","{'type': 'Point', 'coordinates': [-4.4100416, 36.719689]}",36.719689,-4.4100416
733,Restaurante Puerto Escondido,"Calle Puerto Escondido, 5, 11500 El Puerto de Sta María, Cádiz, España","{'type': 'Point', 'coordinates': [-6.2231918, 36.5999411]}",36.5999411,-6.2231918
734,Restaurante Salicornia,"Calle Plocia, 2, 11005 Cádiz, España","{'type': 'Point', 'coordinates': [-6.291655, 36.529948]}",36.529948,-6.291655
735,Restaurante Taberna del Alabardero,"Calle Zaragoza, 20. 41001 Sevilla (Sevilla)","{'type': 'Point', 'coordinates': [-5.9980059562, 37.3884263]}",37.3884263,-5.9980059562
736,Restaurante Santiago,"Avenida Duque de Ahumada, 5. 29602 Marbella (Málaga)","{'type': 'Point', 'coordinates': [-4.8912338, 36.5070892]}",36.5070892,-4.8912338
737,Restaurante Terra Olea,"Calle Rigoberta Menchú, 2, 14011 Córdoba","{'type': 'Point', 'coordinates': [-4.7977258, 37.8971227]}",37.8971227,-4.7977258
738,Restaurante Tradevo Nervión,"Avenida Diego Martinez Barrio 10, 14013 Sevilla","{'type': 'Point', 'coordinates': [-5.9764296, 37.3742348]}",37.3742348,-5.9764296
739,Restaurante Támesis London,"Calle Maestro Sapena, 9. 23007 Jaén (Jaén)","{'type': 'Point', 'coordinates': [-3.7911742, 37.7778532]}",37.7778532,-3.7911742
740,Restaurante Callizo,"Plaza Mayor, 22330 Aínsa, Huesca, España","{'type': 'Point', 'coordinates': [0.1385467, 42.4171879]}",42.4171879,0.1385467
741,Restaurante Casa Lac,"Calle Mártires, 12 50003 Zaragoza","{'type': 'Point', 'coordinates': [-1.704769, 41.2521258]}",41.2521258,-1.704769
742,Restaurante Casa Frauca,"Carretera de Ordesa, 22374 Sarvisé","{'type': 'Point', 'coordinates': [-0.1140811, 42.5779135]}",42.5779135,-0.1140811
743,Restaurante Recomiendo,"Calle Mirto, 7. 14012 Córdoba (Córdoba)","{'type': 'Point', 'coordinates': [-4.775752, 37.9075152]}",37.9075152,-4.775752
744,Restaurante Pic-Nic,"Avenida Ronda de los Tejares, 16. 14001 Córdoba (Córdoba)","{'type': 'Point', 'coordinates': [-4.7791796, 37.8892883]}",37.8892883,-4.7791796
745,Restaurante El Patio de Goya,"Avenida de madrid, 6 50100 La Almunia de Doña Godina (Zaragoza)","{'type': 'Point', 'coordinates': [-1.3771704143, 41.47759855]}",41.47759855,-1.3771704143
746,Restaurante El Origen,"Plaza del Justicia, 4 22001 Huesca","{'type': 'Point', 'coordinates': [-0.4047470206, 42.1374068]}",42.1374068,-0.4047470206
747,Restaurante Goralai,"Calle santa Teresa de Jesús, 26 50006 Zaragoza","{'type': 'Point', 'coordinates': [-100.9616969, 29.2981047]}",29.2981047,-100.9616969
748,Restaurante Gratal,"Paseo de la Constitución, 111, 50600 Ejea de los Caballeros, Zaragoza","{'type': 'Point', 'coordinates': [-1.1315594, 42.1260392]}",42.1260392,-1.1315594
749,Restaurante La Cocina,"Calle Zocotín, 11. 20700 Jaca (Huesca)","{'type': 'Point', 'coordinates': [-0.5488866, 42.5699829]}",42.5699829,-0.5488866
750,Restaurante Puerta Sevilla,"Calle Postrera, 51. 14004 Córdoba (Córdoba)","{'type': 'Point', 'coordinates': [-4.7843493, 37.8751111]}",37.8751111,-4.7843493
751,Restaurante Meseguer,"Avenida Maestrazgo, 9 44600 Alcañiz (Teruel)","{'type': 'Point', 'coordinates': [-0.1298662, 41.0440276]}",41.0440276,-0.1298662
752,Restaurante Parador de Cádiz - Especia,"Avenida duque de Nájera, 9. 11002 Cádiz (Cádiz)","{'type': 'Point', 'coordinates': [-6.3059296288, 36.53423215]}",36.53423215,-6.3059296288
753,Restaurante Parador de Granada - Especia,"Calle Real de la Alhambra, s/n 18009 Granada","{'type': 'Point', 'coordinates': [-3.5879822, 37.1757431]}",37.1757431,-3.5879822
754,Restaurante El Montañés,"Calle Escudial, 1. 22630 Biescas (Huesca)","{'type': 'Point', 'coordinates': [-0.3249795, 42.6257702]}",42.6257702,-0.3249795
755,Restaurante La Menta,"Calle Bartolomé Esteban, 10, 44001 Teruel, España","{'type': 'Point', 'coordinates': [-1.1053632, 40.3424492]}",40.3424492,-1.1053632
756,Restaurante Método,"Av. Segorbe, 1, 44002 Teruel","{'type': 'Point', 'coordinates': [-1.1044571, 40.3364178]}",40.3364178,-1.1044571
757,Restaurante River Hall,"Avenida José Atáres, 7 50017 Zaragoza","{'type': 'Point', 'coordinates': [-0.88871, 41.66174]}",41.66174,-0.88871
758,Restaurante Saboya 21,"Calle Marrodan, 34, 50500 Tarazona (Zaragoza)","{'type': 'Point', 'coordinates': [-1.7262521, 41.9045651]}",41.9045651,-1.7262521
759,Restaurante Vidocq,"Av. de Huesca, 22640 Formigal, Huesca, España","{'type': 'Point', 'coordinates': [-0.3595717, 42.773577]}",42.773577,-0.3595717
760,Restaurante 360º,"Avenida Estados Unidos, 28 35100 Playa del Inglés (Las Palmas)","{'type': 'Point', 'coordinates': [-15.5702633457, 27.7562159]}",27.7562159,-15.5702633457
761,Restaurante Bambi Gourmet,"Calle Enrique Talg, 15 38400 Puerto de la Cruz","{'type': 'Point', 'coordinates': [-16.5452376, 28.4153671]}",28.4153671,-16.5452376
762,Restaurante Casa Osmunda,"Subida al Mirador de la Concepción, 2 38710 Breña Alta (Santa Cruz de Tenerife)","{'type': 'Point', 'coordinates': [-17.7812645464, 28.6750048]}",28.6750048,-17.7812645464
763,Restaurante Cumai,"Calle Eucaliptus, 4, 38400 Puerto de la Cruz, Santa Cruz de Tenerife","{'type': 'Point', 'coordinates': [-16.537111, 28.4157766]}",28.4157766,-16.537111
764,Restaurante Cinnamon,"Calle San Telmo, 2. 38700 Santa Cruz de la Palma (La Palma - Santa Cruz de Tenerife)","{'type': 'Point', 'coordinates': [-17.767039, 28.6819668]}",28.6819668,-17.767039
765,Restaurante Casa Santa María,"Plaza Santa María, 1. 35637 Betancuria (Las Palmas)","{'type': 'Point', 'coordinates': [-14.0572430204, 28.42497785]}",28.42497785,-14.0572430204
766,Restaurante El Churrasco,"Calle Mar Mediterráneo, 35100 Maspalomas, Las Palmas, España","{'type': 'Point', 'coordinates': [-15.5987321, 27.7387295]}",27.7387295,-15.5987321
767,Restaurante El Aguarde,"Calle Costa y Grijalba, 21, 38004 Santa Cruz de Tenerife, España","{'type': 'Point', 'coordinates': [-16.2579021, 28.4700955]}",28.4700955,-16.2579021
768,Restaurante El Churrasco Las Palmas,"Calle Olof Palme, 33, 35010 Las Palmas de Gran Canaria, Las Palmas, España","{'type': 'Point', 'coordinates': [-15.4360019218, 28.13449445]}",28.13449445,-15.4360019218
769,Restaurante El Duende del Fuego,Plaza Elias Santos Abreu 2,"{'type': 'Point', 'coordinates': [-17.9128391655, 28.65934985]}",28.65934985,-17.9128391655
770,Restaurante El Novillo Precoz,"Calle Portugal, 9. 35010 Las Palmas de Gran Canaria (Gran Canaria - Las Palmas)","{'type': 'Point', 'coordinates': [-15.4363006294, 28.1378908]}",28.1378908,-15.4363006294
771,Restaurante El Rincón de Moraga,"Plaza de Sotomayor, 2","{'type': 'Point', 'coordinates': [-17.9261412333, 28.6557622]}",28.6557622,-17.9261412333
772,Restaurante El Rincón del Arroz,"Calle los Sabandeños, 7, 38650 Arona, Santa Cruz de Tenerife","{'type': 'Point', 'coordinates': [-16.7147086, 28.054708]}",28.054708,-16.7147086
773,Restaurante La Bodega de Santiago,"Calle Montañas del Fuego, 27  35570 Yaiza (Las Palmas)","{'type': 'Point', 'coordinates': [-13.7640079, 28.9529793]}",28.9529793,-13.7640079
774,Restaurante El Coto de Antonio,"Calle del Perdón, 13, Santa Cruz de Tenerife","{'type': 'Point', 'coordinates': [-16.2646181, 28.4716176]}",28.4716176,-16.2646181
775,Restaurante La Salamandra,Plaza de La Constitución 14. 38800 San Sebastián de La Gomera (Santa Cruz de Tenerife),"{'type': 'Point', 'coordinates': [-17.1098572, 28.0914234]}",28.0914234,-17.1098572
776,Restaurante Pancho,"Avenida Marítima, 26 38683 Puerto de Santiago (Tenerife - Santa Cruz de Tenerife)","{'type': 'Point', 'coordinates': [-16.8413881, 28.234514]}",28.234514,-16.8413881
777,Restaurante Rosso Sul Mare,"Avenida de las Gaviotas, 4 38679 La Caleta (Santa Cruz de Tenerife)","{'type': 'Point', 'coordinates': [-16.7550332, 28.1009426]}",28.1009426,-16.7550332
778,Restaurante La Palmera Sur,"Avenida Estados Unidos, 15","{'type': 'Point', 'coordinates': [-67.5062179429, -45.8773660857]}",-45.8773660857,-67.5062179429
779,Restaurante El Secreto de Chimiche,"Carretera General del Sur Chimiche, 4 38594 Chimiche-Granadilla de Abona (Santa Cruz de Tenerife)","{'type': 'Point', 'coordinates': [-16.5324162, 28.1329975]}",28.1329975,-16.5324162
780,Restaurante El Templete,"Calle Argentina, 2. El Médano 38612 (Santa Cruz de Tenerife)","{'type': 'Point', 'coordinates': [-16.5375087, 28.0464531]}",28.0464531,-16.5375087
781,Restaurante Gambrinus Las Palmas - Puerto,"Calle Secretario Artiles, 34, 35007 Las Palmas de Gran Canaria, Las Palmas, España","{'type': 'Point', 'coordinates': [-15.431735, 28.1368899]}",28.1368899,-15.431735
782,Restaurante El Senador de Maspalomas,"Paseo del Faro, 35100 Maspalomas, Las Palmas, España","{'type': 'Point', 'coordinates': [-15.5972728, 27.7357958]}",27.7357958,-15.5972728
783,Restaurante Silbo Gomero,"Calle Volcán Elena, nº9,  San Cristóbal de La Laguna","{'type': 'Point', 'coordinates': [-16.3023532, 28.4588007]}",28.4588007,-16.3023532
784,Restaurante Tagami,"Nicolás Estévanez, 6,","{'type': 'Point', 'coordinates': [-0.393378, 39.4688265]}",39.4688265,-0.393378
785,Restaurante Del Oso,"Calle Areños, 6. 39582 Cosgaya (Cantabria)","{'type': 'Point', 'coordinates': [-4.7285323685, 43.1133259]}",43.1133259,-4.7285323685
786,Restaurante Del Puerto,"Calle Hernán Cortés, 63, 39003 Santander, Cantabria, España","{'type': 'Point', 'coordinates': [-4.0693269, 43.2605061]}",43.2605061,-4.0693269
787,Restaurante Valle de Mogán,"Los Pasitos, 2, 35140 Mogán, Las Palmas, España","{'type': 'Point', 'coordinates': [-15.7261295, 27.8799836]}",27.8799836,-15.7261295
788,Restaurante Deluz,"Calle Ramón y Cajal, 18. 39005 Santander (Cantabria)","{'type': 'Point', 'coordinates': [-4.0661937487, 43.2673421]}",43.2673421,-4.0661937487
789,Restaurante El Hostal,"Barrio el Puente, 13, 39477 Oruña de Piélagos, Cantabria, España","{'type': 'Point', 'coordinates': [-3.9510599, 43.4026146]}",43.4026146,-3.9510599
790,Restaurante Emma,"Calle de Ceballos, 14, 39340 Suances, Cantabria, España","{'type': 'Point', 'coordinates': [-4.0421177, 43.4271709]}",43.4271709,-4.0421177
791,Restaurante Las Redes,"Avenida Los Soportales, 24. 39540 San Vicente de la Barquera (Cantabria)","{'type': 'Point', 'coordinates': [-4.3985967, 43.3852079]}",43.3852079,-4.3985967
792,Restaurante Cañitas Maite,"Calle Tomas Pérez Úbeda 6, 02200. Albacete","{'type': 'Point', 'coordinates': [-1.4695825, 39.2874977]}",39.2874977,-1.4695825
793,Restaurante El Borbollón,"Calle Pablo Neruda, 12. 45500 Torrijos (Toledo)","{'type': 'Point', 'coordinates': [-4.289614, 39.9792003]}",39.9792003,-4.289614
794,Restaurante Don Gil,"Calle Baños, 2, 02004 Albacete, España","{'type': 'Point', 'coordinates': [-1.8599853, 38.9949398]}",38.9949398,-1.8599853
795,Restaurante El Callejón,"Calle Guzmán el Bueno,18 02002 Albacete","{'type': 'Point', 'coordinates': [-2.3468827, 38.5966735]}",38.5966735,-2.3468827
796,Restaurante Pan de Cuco,"Barrio Calabazas, 17 39150 Suesa (Cantabria)","{'type': 'Point', 'coordinates': [-3.7151787, 43.4393862]}",43.4393862,-3.7151787
797,Restaurante La Rebotica,"Calle Iglesia, 27 16373 Cardenete (Cuenca)","{'type': 'Point', 'coordinates': [-1.6876425, 39.7665448]}",39.7665448,-1.6876425
798,Restaurante La Muralla,"Carretera de Valdemeca, 20 16300 Cañete (Cuenca)","{'type': 'Point', 'coordinates': [-1.6485396, 40.0432673]}",40.0432673,-1.6485396
799,Restaurante Las Musas,"Calle Barbero, 3. 13610 Campo de Criptana (Ciudad Real)","{'type': 'Point', 'coordinates': [-3.1237204969, 39.4087572]}",39.4087572,-3.1237204969
800,Restaurante Mesón de Pincelín,"Calle Las Norias, 10 02640 Almansa (Albacete)","{'type': 'Point', 'coordinates': [-1.0958462, 38.8648493]}",38.8648493,-1.0958462
801,Restaurante Nuestro Bar,"Calle Alcalde Conangla, 102. 02002 Albacete (Albacete)","{'type': 'Point', 'coordinates': [-1.8488272, 38.9897956]}",38.9897956,-1.8488272
802,Restaurante Olea Comedor,"Av. de Castilla-la Mancha, 3, 16002 Cuenca, España","{'type': 'Point', 'coordinates': [-2.1368989, 40.0706056]}",40.0706056,-2.1368989
803,Restaurante Tobiko Restaurante,"Ronda de Buenavista, 27. 45005 Toledo","{'type': 'Point', 'coordinates': [-4.0385881, 39.8774361]}",39.8774361,-4.0385881
804,Restaurante 5 Gustos,"calle Torrecilla, 8. 47003 Valladolid (Valladolid)","{'type': 'Point', 'coordinates': [-5.0261363, 41.308149]}",41.308149,-5.0261363
805,Restaurante Fuentebro,Calle San Felix s/n 39212  Fontibre (Cantabria),"{'type': 'Point', 'coordinates': [-4.1891562421, 43.01669885]}",43.01669885,-4.1891562421
806,Restaurante Posada del Mar,"Calle Castelar, 5 39004 Santander","{'type': 'Point', 'coordinates': [-5.6028694, 36.0136296]}",36.0136296,-5.6028694
807,Restaurante Ajo de Sopas,"Paseo del Salón, 25 34002 Palencia","{'type': 'Point', 'coordinates': [-4.526483, 42.007582]}",42.007582,-4.526483
808,Restaurante Biosfera by aurum,Cuesta san Miguel 5,"{'type': 'Point', 'coordinates': [-4.1476071, 37.1654416]}",37.1654416,-4.1476071
809,Restaurante Alquira,"Avenida Burgos - Portugal, 15. 47100 Tordesillas (Valladolid)","{'type': 'Point', 'coordinates': [-4.9869286, 41.5046089]}",41.5046089,-4.9869286
810,Restaurante La Bombi,"Calle Casimiro Sainz, 15 39003 Santander (Cantabria)","{'type': 'Point', 'coordinates': [-4.1413735, 42.9947008]}",42.9947008,-4.1413735
811,Restaurante Antonio,"Av. de Soria, 13, 42200 Almazán, Soria, España","{'type': 'Point', 'coordinates': [-2.5351894499, 41.49136685]}",41.49136685,-2.5351894499
812,Restaurante Las Cubas de Arévalo,"Calle Figones, 8, 05200 Arévalo, Ávila, España","{'type': 'Point', 'coordinates': [-4.7213041, 41.063749]}",41.063749,-4.7213041
813,Restaurante Alquimia,"Calle Antigua, 6, 47002 Valladolid, España","{'type': 'Point', 'coordinates': [-4.9138933616, 41.30692785]}",41.30692785,-4.9138933616
814,Restaurante Casa Mariano,"Avenida Portugal, 28. 49016 Zamora (Zamora)","{'type': 'Point', 'coordinates': [-6.0495477, 42.0605447]}",42.0605447,-6.0495477
815,Restaurante Casa Paca,"Plaza del Peso, 10. 37001 Salamanca (Salamanca)","{'type': 'Point', 'coordinates': [-5.6638959, 40.9637859]}",40.9637859,-5.6638959
816,Restaurante De Galo,"Calle Monseñor Vargas, 10 09346 Covarrubias (Burgos)","{'type': 'Point', 'coordinates': [-3.5195676, 42.0594626]}",42.0594626,-3.5195676
817,Restaurante Casa Estrella,"Plaza el Caño, 4, 24195 Villaobispo de las Regueras, León","{'type': 'Point', 'coordinates': [-5.5421342, 42.6146152]}",42.6146152,-5.5421342
818,Restaurante Bavieca,Calle Campo de San Nicolás 6,"{'type': 'Point', 'coordinates': [-2.4325277, 41.1716061]}",41.1716061,-2.4325277
819,Restaurante Doña Pendeja,"Calle de Magallanes, 2","{'type': 'Point', 'coordinates': [-5.6503231254, 40.97285515]}",40.97285515,-5.6503231254
820,Restaurante Bodega Regia,"Calle Regidores, 9. 24003 León","{'type': 'Point', 'coordinates': [-5.5697066, 42.598075]}",42.598075,-5.5697066
821,Restaurante En Tiempos de Maricastaña,"Paseo Espolón, 10, 09003 Burgos, España","{'type': 'Point', 'coordinates': [-3.7029686, 42.3401421]}",42.3401421,-3.7029686
822,Restaurante El Riscal,"Carretera de Segovia, 31. 40270 Carbonero el Mayor (Segovia)","{'type': 'Point', 'coordinates': [-4.2634212097, 41.11823745]}",41.11823745,-4.2634212097
823,Restaurante El Torreón de Tordesillas,"Avenida Burgos Portugal, 11. 47100 Tordesillas (Valladolid)","{'type': 'Point', 'coordinates': [-4.9869286, 41.5046089]}",41.5046089,-4.9869286
824,Restaurante Brigecio,"Av. de la Constitución, 28, 49693 Morales de Rey, Zamora, España","{'type': 'Point', 'coordinates': [-5.7914277, 42.0699952]}",42.0699952,-5.7914277
825,Restaurante Estoril,"Calle General Pando, 11, 37500, Ciudad Rodrigo","{'type': 'Point', 'coordinates': [-6.5353692, 40.5971941]}",40.5971941,-6.5353692
826,Restaurante Casa Coscolo,"Calle La Magdalena, 1. 24718 Castrillo de los Polvazares (León)","{'type': 'Point', 'coordinates': [-6.1294185, 42.4638385]}",42.4638385,-6.1294185
827,Restaurante Gabi García,"Calle Vereda, 2. 47008 Valladolid (Valladolid)","{'type': 'Point', 'coordinates': [-4.745483, 41.6274018]}",41.6274018,-4.745483
828,Restaurante Kamín,"Calle Regidores, 4","{'type': 'Point', 'coordinates': [-5.5696131, 42.5979464]}",42.5979464,-5.5696131
829,Restaurante La Brasería de Cuéllar,"Calle Agustín de Daza, 8. 40200 Cuéllar (Segovia)","{'type': 'Point', 'coordinates': [-4.3190058, 41.4042784]}",41.4042784,-4.3190058
830,Restaurante La Central,"Avenida de la Libertad, 46. 24404 Ponferrada (León)","{'type': 'Point', 'coordinates': [-6.5901261, 42.5575224]}",42.5575224,-6.5901261
831,Restaurante La Chistera,"Calle Alberca, 4. 42002 Soria (Soria)","{'type': 'Point', 'coordinates': [-2.4678607, 41.7633146]}",41.7633146,-2.4678607
832,Restaurante La Concepción,"Plaza Mayor, 15. 40001 Segovia (Segovia)","{'type': 'Point', 'coordinates': [-4.1239862191, 40.9503288]}",40.9503288,-4.1239862191
833,Restaurante El 51 del Sol,"Calle Sol de las Moreras, 51 09400 Aranda de Duero (Burgos)","{'type': 'Point', 'coordinates': [-3.6843442, 41.6698502]}",41.6698502,-3.6843442
834,Restaurante La Barra de Villoldo,"Plaza Rinconada de San Miguel, 2. 34006 Palencia (Palencia)","{'type': 'Point', 'coordinates': [-4.5340515011, 42.00814895]}",42.00814895,-4.5340515011
835,Restaurante Escaramujo (Mesón Gastronómico),"Plaza Mayor, 16. 34830 Salinas de Pisuerga (Palencia)","{'type': 'Point', 'coordinates': [-4.3779862, 42.8502881]}",42.8502881,-4.3779862
836,Restaurante El Lagar de Isilla,"Calle Isilla, 18 09400 Aranda de Duero (Burgos)","{'type': 'Point', 'coordinates': [-3.6864779, 41.6711455]}",41.6711455,-3.6864779
837,Restaurante La Encina,"Calle Casañé, 2. 34002 Palencia (Palencia)","{'type': 'Point', 'coordinates': [-4.5270019, 42.0026816]}",42.0026816,-4.5270019
838,Restaurante La Lechería,"Calle La Lechería, 1 24717 Val de San Lorenzo (León)","{'type': 'Point', 'coordinates': [-6.1183996, 42.416606]}",42.416606,-6.1183996
839,Restaurante La Hoja 21,"Calle San Pablo,  21 37001 Salamanca","{'type': 'Point', 'coordinates': [-5.6645988, 40.959192]}",40.959192,-5.6645988
840,Restaurante La Portada de Mediodía,"Calle San Nicolás de Bari, 31. 40160 Torrecaballeros (Segovia)","{'type': 'Point', 'coordinates': [-4.0244844, 40.9930223]}",40.9930223,-4.0244844
841,Restaurante La Parrilla de San Lorenzo,"Calle Pedro Niño, 1. 47001 Valladolid (Valladolid)","{'type': 'Point', 'coordinates': [-4.7040518, 41.757125]}",41.757125,-4.7040518
842,Restaurante Restaurante Panorámico La Postal,"Calle Sacramento, 22 40196 Segovia","{'type': 'Point', 'coordinates': [-4.1359132, 40.9648704]}",40.9648704,-4.1359132
843,Restaurante La Taberna de Perorrubio,"Calle Eras, 4, 40310 Perorrubio, Segovia","{'type': 'Point', 'coordinates': [-3.7087064, 41.2457606]}",41.2457606,-3.7087064
844,Restaurante La Traserilla,"Calle San Marcos, 12 34001 Palencia","{'type': 'Point', 'coordinates': [-4.5352614, 42.009555]}",42.009555,-4.5352614
845,Restaurante La Vinícola,"Plaza de la Horta, 1. 49002 Zamora (Zamora)","{'type': 'Point', 'coordinates': [-5.7444277401, 41.5013075]}",41.5013075,-5.7444277401
846,Restaurante Luna Llena,"Paseo Estación, 1, 47300 Peñafiel, Valladolid, España","{'type': 'Point', 'coordinates': [-4.114132, 41.6041871]}",41.6041871,-4.114132
847,Restaurante Mannix,"Calle Felipe II, 26 47310 Campaspero (Valladolid)","{'type': 'Point', 'coordinates': [-4.1960651, 41.4920728]}",41.4920728,-4.1960651
848,Restaurante Palacio de Canedo - Prada a Tope,"Calle la Iglesia, 24546, León, España","{'type': 'Point', 'coordinates': [-6.6946705, 42.6473504]}",42.6473504,-6.6946705
849,Restaurante Mesón del Cid,"Plaza Santa María, 8. 09003 Burgos","{'type': 'Point', 'coordinates': [-3.7057949, 42.3403747]}",42.3403747,-3.7057949
850,Restaurante Palacio de la Merced,"Calle de la Merced, 13 09002 Burgos","{'type': 'Point', 'coordinates': [-3.7041059, 42.3382841]}",42.3382841,-3.7041059
851,Restaurante Marcela brasa y vinos,"Plaza de San Marcelo, 9, 24003 León","{'type': 'Point', 'coordinates': [-5.5712182, 42.5979989]}",42.5979989,-5.5712182
852,Restaurante Parador de Ávila - Marmitia,"Calle Marqués de Canales de Chozas, 2 05001 Ávila","{'type': 'Point', 'coordinates': [-4.7019378, 40.657949]}",40.657949,-4.7019378
853,Restaurante Peñalabra,"Calle Labradores, 72 34840 Cervera de Pisuerga","{'type': 'Point', 'coordinates': [-4.4982943549, 42.86832595]}",42.86832595,-4.4982943549
854,Restaurante Montecarlo,"Calle García del Real, 24. 05230 Las Navas del Marqués (Ávila)","{'type': 'Point', 'coordinates': [-4.3310932, 40.6032249]}",40.6032249,-4.3310932
855,"Restaurante Las Cabañas ""El Tostón de Oro""","Calle Carmen, 14. 37300 Peñaranda de Bracamonte (Salamanca)","{'type': 'Point', 'coordinates': [-5.2006928, 40.9006812]}",40.9006812,-5.2006928
856,Restaurante Paco Espinosa,"Paseo Obregón, 16. 47009 Valladolid (Valladolid)","{'type': 'Point', 'coordinates': [-4.7308576, 41.6677944]}",41.6677944,-4.7308576
857,Restaurante Posada de las Misas,"Plaza Mayor, 13. 49300 Puebla de Sanabria (Zamora)","{'type': 'Point', 'coordinates': [-6.6337440386, 42.0544898]}",42.0544898,-6.6337440386
858,Restaurante Barquet Tarragona,"Calle Gasòmetre,16 43001 Tarragona","{'type': 'Point', 'coordinates': [1.2487272, 41.1141026]}",41.1141026,1.2487272
859,Restaurante Ambassade de Llívia,"Carrer dels Forns, 15, 17527 Llívia, Girona","{'type': 'Point', 'coordinates': [1.9821526, 42.4648118]}",42.4648118,1.9821526
860,Restaurante 99 Sushi Bar (Barcelona),"Calle Tenor Viñas, 4 08021 Barcelona","{'type': 'Point', 'coordinates': [2.2303959, 41.568349]}",41.568349,2.2303959
861,Restaurante Berbena,"Carrer de Minerva, 6, 08006 Barcelona","{'type': 'Point', 'coordinates': [2.1564755, 41.3965084]}",41.3965084,2.1564755
862,Restaurante Vida y Comida,"Plaza de Santa Eulalia, 11. 37001 Salamanca (Salamanca)","{'type': 'Point', 'coordinates': [-5.6612156, 40.9664123]}",40.9664123,-5.6612156
863,Restaurante AQ,"Calle Les Coques, 7. 43003 Tarragona (Tarragona)","{'type': 'Point', 'coordinates': [1.2586221, 41.1190891]}",41.1190891,1.2586221
864,Restaurante Mirasierra,"Calle Miguel Angel Maillo, 56, 37610 Mogarraz, Salamanca, España","{'type': 'Point', 'coordinates': [-6.0498479, 40.4928809]}",40.4928809,-6.0498479
865,Restaurante Cal Jet Bistrot de Muntanya,"Calle Major 12, 17539, Ger, Girona","{'type': 'Point', 'coordinates': [1.8421518, 42.4119857]}",42.4119857,1.8421518
866,Restaurante Bonanova,"Carrer de Sant Gervasi de Cassoles, 103. 08022 Barcelona (Barcelona)","{'type': 'Point', 'coordinates': [2.1345331, 41.4065183]}",41.4065183,2.1345331
867,Restaurante iPaniVino,"Calle Felipe Espino, 8, 37002 Salamanca, España","{'type': 'Point', 'coordinates': [-5.6645737356, 40.9635014]}",40.9635014,-5.6645737356
868,Restaurante Cal Ton,"Calle del Casal, 8. 08720 Vilafranca del Penedès (Barcelona)","{'type': 'Point', 'coordinates': [1.7004796, 41.3444412]}",41.3444412,1.7004796
869,Restaurante Caravista,"Avenida de Balmes, 38","{'type': 'Point', 'coordinates': [0.6206243, 41.6163928]}",41.6163928,0.6206243
870,Restaurante Carles Antoner,"Plaça Major, 2. Lladó","{'type': 'Point', 'coordinates': [2.8139256, 42.247472]}",42.247472,2.8139256
871,Restaurante Tapas 3.0,"Calle Sánchez Barbero, 9. 37001 Salamanca (Salamanca)","{'type': 'Point', 'coordinates': [-5.6644300852, 40.96365695]}",40.96365695,-5.6644300852
872,Restaurante Can Jaume,"Port Balis, s/n. 08392 Sant Andreu de Llavaneres (Barcelona)","{'type': 'Point', 'coordinates': [2.5064458812, 41.55813535]}",41.55813535,2.5064458812
873,Restaurante El Cingle by Montse Estruch,"Plaza  Major, s/n, 08233 Vacarisses, Barcelona","{'type': 'Point', 'coordinates': [1.9179723, 41.6072894]}",41.6072894,1.9179723
874,Restaurante Direkte Boqueria,Carrer de les cabres 13,"{'type': 'Point', 'coordinates': [2.1721138, 41.3814451]}",41.3814451,2.1721138
875,Restaurante Can Vallés,"Carrer d'Aragó, 95. Barcelona","{'type': 'Point', 'coordinates': [2.151154436, 41.38208585]}",41.38208585,2.151154436
876,Restaurante El Roser 2,"Passeig Lluís Albert, 1, 17130 L'Escala, Girona, España","{'type': 'Point', 'coordinates': [3.1362846, 42.1262674]}",42.1262674,3.1362846
877,Restaurante Capet,"Carrer del Cometa, 5, 08002 Barcelona, España","{'type': 'Point', 'coordinates': [2.1788924, 41.381984]}",41.381984,2.1788924
878,Restaurante Es Baluard,"Calle Riba Nemesi Llorens, 2 17488","{'type': 'Point', 'coordinates': [3.2787717, 42.2889718]}",42.2889718,3.2787717
879,Restaurante Fermí Puig,"Calle Balmes, 175. 08006 Barcelona (Barcelona)","{'type': 'Point', 'coordinates': [1.8477883, 42.1044459]}",42.1044459,1.8477883
880,Restaurante Els Pescadors,"Calle Castellar, 41. 17490 Llançá (Girona)","{'type': 'Point', 'coordinates': [3.1610534, 42.370173]}",42.370173,3.1610534
881,Restaurante Jardín del Alma,"Carrer de Mallorca, 271","{'type': 'Point', 'coordinates': [2.1632606, 41.3944955]}",41.3944955,2.1632606
882,Restaurante L'Olivé,"Carrer de Balmes, 47, 08007 Barcelona, España","{'type': 'Point', 'coordinates': [2.1626452, 41.3891211]}",41.3891211,2.1626452
883,Restaurante L'Estanyol,Carrer de L'Estanyol s/n. 08553 El Brull (Barcelona),"{'type': 'Point', 'coordinates': [2.2832874, 41.8227671]}",41.8227671,2.2832874
884,Restaurante La Balmesina,"Carrer de Balmes, 193. Barcelona","{'type': 'Point', 'coordinates': [2.1520892, 41.3968237]}",41.3968237,2.1520892
885,Restaurante La Mundana,"Calle Vallespir, 93. 08014 Barcelona","{'type': 'Point', 'coordinates': [2.287784, 41.5908788]}",41.5908788,2.287784
886,Restaurante Ferreruela (Cuina de la Terra),"Carrer de Bobalà, 8, 25004 Lleida, España","{'type': 'Point', 'coordinates': [0.6288728, 41.6230458]}",41.6230458,0.6288728
887,Restaurante La Xicra,"Calle Sant Antoni, 17 17200","{'type': 'Point', 'coordinates': [3.2114245, 41.9570078]}",41.9570078,3.2114245
888,Restaurante Kak Koy,"Carrer de Ripoll, 16. Barcelona","{'type': 'Point', 'coordinates': [2.0974617, 41.9878835]}",41.9878835,2.0974617
889,Restaurante Lluis de les Moles,"Carrer de les Moles, 25. 08002 Barcelona","{'type': 'Point', 'coordinates': [2.1723266, 41.387848]}",41.387848,2.1723266
890,Restaurante El Trabuc,"Cami de Can Bassa, 2. 08401 Granollers (Barcelona)","{'type': 'Point', 'coordinates': [2.2945008, 41.5886058]}",41.5886058,2.2945008
891,Restaurante La Sal Gorda,"Ctra. de Baqueira, 5 25599 Artíes (Lérida)","{'type': 'Point', 'coordinates': [0.8713127, 42.7009026]}",42.7009026,0.8713127
892,Restaurante Maristany,"Avenida Maristany, 20. 17867 Camprodón (Girona)","{'type': 'Point', 'coordinates': [2.3616041, 42.315776]}",42.315776,2.3616041
893,Restaurante El Mercader de l'Eixample,"Calle Mallorca, 239. 08008 Barcelona (Barcelona)","{'type': 'Point', 'coordinates': [2.1863173, 41.4936096]}",41.4936096,2.1863173
894,Restaurante Pepa Bar a Vins,"Carrer d'Aribau, 41, 08011 Barcelona","{'type': 'Point', 'coordinates': [2.1598910414, 41.3876427]}",41.3876427,2.1598910414
895,Restaurante Nu,"Calle Abeuradors, 4. 17003 Girona (Girona)","{'type': 'Point', 'coordinates': [2.8244754, 41.9833999]}",41.9833999,2.8244754
896,Restaurante Pocavergonya Bistró,"Calle Poeta Marquina, 2. 17002 Girona (Girona)","{'type': 'Point', 'coordinates': [3.174372, 42.2675512]}",42.2675512,3.174372
897,Restaurante OH BO,"Calle Doctor Fleming, 15. 08017 Barcelona","{'type': 'Point', 'coordinates': [2.2844859, 42.0020957]}",42.0020957,2.2844859
898,Restaurante Rafa's,"Calle Sant Sebastiá, 56. 17480 Roses (Girona)","{'type': 'Point', 'coordinates': [3.1779702, 42.2616966]}",42.2616966,3.1779702
899,Restaurante Rilke,"Carrer de Mallorca, 275 08008 Barcelona","{'type': 'Point', 'coordinates': [2.1634013, 41.3949068]}",41.3949068,2.1634013
900,Restaurante Rom Restaurant,"Passeig Marítim, 43, 17480 Roses, Girona","{'type': 'Point', 'coordinates': [3.1558131, 42.2627267]}",42.2627267,3.1558131
901,Restaurante Masía de la Platja,"Calle Vilamar, 67 43820 Calafell (Tarragona)","{'type': 'Point', 'coordinates': [1.575099, 41.1880967]}",41.1880967,1.575099
902,Restaurante Sa Marinada,"Passeig del Fortim, s/n 17220 Sant Feliu de Guixols (Girona)","{'type': 'Point', 'coordinates': [3.0350452, 41.7804257]}",41.7804257,3.0350452
903,Restaurante Sanromà,"Carretera de Castellvell, 24, 43392 Castellvell del Camp, Tarragona, España","{'type': 'Point', 'coordinates': [1.0992854, 41.1794264]}",41.1794264,1.0992854
904,Restaurante Sense Pressa,"Carrer d'Enric Granados, 96. Barcelona","{'type': 'Point', 'coordinates': [2.1555711333, 41.3932807]}",41.3932807,2.1555711333
905,Restaurante Shunka,"Calle Sagristans, 5. 08002 Barcelona","{'type': 'Point', 'coordinates': [2.1751679, 41.3850824]}",41.3850824,2.1751679
906,Restaurante Sinofos,Plaça Catalunya 25,"{'type': 'Point', 'coordinates': [2.0412847, 41.340236]}",41.340236,2.0412847
907,Restaurante Slow & Low,"Carrer del Comte Borrell, 119, 08015 Barcelona, España","{'type': 'Point', 'coordinates': [2.1582453388, 41.38040355]}",41.38040355,2.1582453388
908,Restaurante Olivos comida y vinos,"Carrer de Galileu, 159, 08028 Barcelona","{'type': 'Point', 'coordinates': [2.1318339, 41.3846844]}",41.3846844,2.1318339
909,Restaurante Out of China,"Carrer d'Aribau, 112","{'type': 'Point', 'coordinates': [2.1566877, 41.3905618]}",41.3905618,2.1566877
910,Restaurante Mont Bar,"Carrer de la Diputació, 220, 08011 Barcelona, España","{'type': 'Point', 'coordinates': [2.1618173501, 41.38605325]}",41.38605325,2.1618173501
911,Restaurante Somodó,"Carrer de Ros de Olano, 11, 08012 Barcelona","{'type': 'Point', 'coordinates': [2.1564988, 41.402054]}",41.402054,2.1564988
912,Restaurante Terra,"Passeig de la Pau, 27. 08600 Berga (Barcelona)","{'type': 'Point', 'coordinates': [1.8444829, 42.10076]}",42.10076,1.8444829
913,"Restaurante Teòric, taverna gastronòmica","Calle Bailén, 117","{'type': 'Point', 'coordinates': [-66.2636460408, 18.4593912041]}",18.4593912041,-66.2636460408
914,Restaurante Terra,"Carretera de Sant Pol, 633. 17220 San Feliu de Guíxols (Girona)","{'type': 'Point', 'coordinates': [3.0452374, 41.7853665]}",41.7853665,3.0452374
915,Restaurante Vivanda,Carrer Major de Sarrià 134,"{'type': 'Point', 'coordinates': [2.1253136, 41.3959006]}",41.3959006,2.1253136
916,Restaurante a Restaurant,"Plaça de Sant Felip Neri, 2. 08002 Barcelona (Barcelona)","{'type': 'Point', 'coordinates': [2.1752178, 41.3833537]}",41.3833537,2.1752178
917,Restaurante Oasis,"Carretera del Monte Hacho, s/n Ceuta","{'type': 'Point', 'coordinates': [-5.286211, 35.8979193]}",35.8979193,-5.286211
918,Restaurante Arotxa,"Calle Santa Catalina, 34. 31792 Legasa (Navarra)","{'type': 'Point', 'coordinates': [-1.6438412, 43.1302411]}",43.1302411,-1.6438412
919,Restaurante Xavier Pellicer - El Menjador,"Carrer de Provença, 310. 08037 Barcelona (Barcelona)","{'type': 'Point', 'coordinates': [2.1634052, 41.3960599]}",41.3960599,2.1634052
920,Restaurante Monocrom,"Plaça de Cardona, 4, 08006 Barcelona, España","{'type': 'Point', 'coordinates': [2.1485635, 41.398058]}",41.398058,2.1485635
921,Restaurante Asador Zubiondo,"Avenida Roncesvalles, 1. 31620 Huarte (Navarra)","{'type': 'Point', 'coordinates': [-1.5864482, 42.835251]}",42.835251,-1.5864482
922,Restaurante Errejota,"Plaza Príncipe de Viana, 1, 31002 Pamplona, Navarra, España","{'type': 'Point', 'coordinates': [-1.6425463, 42.81276]}",42.81276,-1.6425463
923,Restaurante 99 Sushi Bar (Ponzano),"Calle Ponzano, 99. 28003 Madrid (Madrid)","{'type': 'Point', 'coordinates': [-3.6990159, 40.4422874]}",40.4422874,-3.6990159
924,Restaurante Martintxo,"Calle Irunbidea,  1. 31190 Cizur Menor (Navarra)","{'type': 'Point', 'coordinates': [-1.6757055399, 42.78823265]}",42.78823265,-1.6757055399
925,Restaurante Aarde,"Plaza de la Independencia, 10, 28014 Madrid, España","{'type': 'Point', 'coordinates': [-3.6893612, 40.4194728]}",40.4194728,-3.6893612
926,Restaurante Amazónico,"Calle Jorge Juan, 20. 28001 Madrid (Madrid)","{'type': 'Point', 'coordinates': [-3.6258958, 40.5417321]}",40.5417321,-3.6258958
927,Restaurante 99 Sushi Bar (La Moraleja),"Plaza Estafeta, 2. 28109 La Moraleja (Madrid)","{'type': 'Point', 'coordinates': [-3.6515165, 40.5147338]}",40.5147338,-3.6515165
928,Restaurante Arahy,"Calle Alcalá, 58 28014 Madrid","{'type': 'Point', 'coordinates': [-3.3019204, 40.298463]}",40.298463,-3.3019204
929,Restaurante Arallo Taberna,"Calle de la Reina, 31, 28004 Madrid, España","{'type': 'Point', 'coordinates': [-3.6985941, 40.4199368]}",40.4199368,-3.6985941
930,Restaurante Asia Gallery,"Plaza de Las Cortes, 7. 28014 Madrid (Madrid)","{'type': 'Point', 'coordinates': [-3.6969799, 40.4159004]}",40.4159004,-3.6969799
931,Restaurante AskuaBarra,"Calle Arlabán, 7. 28014 Madrid (Madrid)","{'type': 'Point', 'coordinates': [-3.6988046, 40.4170977]}",40.4170977,-3.6988046
932,Restaurante Orgi,"Calle San Simón, 1. 31799 Lizaso (Navarra)","{'type': 'Point', 'coordinates': [-1.685373, 42.9668468]}",42.9668468,-1.685373
933,Restaurante Bacira,"Calle del Castillo, 16. 28010 Madrid (Madrid)","{'type': 'Point', 'coordinates': [-3.6989949, 40.4337811]}",40.4337811,-3.6989949
934,Restaurante Bistronómika,Calle Ibiza 44,"{'type': 'Point', 'coordinates': [-4.3283298, 42.5908305]}",42.5908305,-4.3283298
935,Restaurante Benares,"Calle Zurbano, 5. 28010 Madrid (Madrid)","{'type': 'Point', 'coordinates': [-3.693329, 40.4328678]}",40.4328678,-3.693329
936,Restaurante Bibo Madrid,"Paseo de la Castellana, 52 28046 Madrid","{'type': 'Point', 'coordinates': [-3.6879729, 40.4354833]}",40.4354833,-3.6879729
937,Restaurante Angelita,"Calle Reina, 4. 28004 Madrid (Madrid)","{'type': 'Point', 'coordinates': [-3.7003595, 40.4203614]}",40.4203614,-3.7003595
938,Restaurante Bodega La Salud,"Calle Jesús Gil González, 36. 28223 Pozuelo de Alarcón (Madrid)","{'type': 'Point', 'coordinates': [-3.8126021, 40.4397394]}",40.4397394,-3.8126021
939,Restaurante Restaurante Topero,"Plaza Fueros, 5,  Tudela, Navarra","{'type': 'Point', 'coordinates': [-1.6056461, 42.0614266]}",42.0614266,-1.6056461
940,Restaurante Kasino Lesaka,"Plaza Zaharra,  23. 31770 Lesaka (Navarra)","{'type': 'Point', 'coordinates': [-1.7042071751, 43.24667785]}",43.24667785,-1.7042071751
941,Restaurante Mesón Julián,"Calle Merced, 9, 31500 Tudela, Navarra, España","{'type': 'Point', 'coordinates': [-1.605231, 42.0626594]}",42.0626594,-1.605231
942,Restaurante Cachivache Taberna,"Calle Serrano, 221. 28016 Madrid (Madrid)","{'type': 'Point', 'coordinates': [-3.6781068, 40.4546446]}",40.4546446,-3.6781068
943,Restaurante Candeli,"Calle de Ponzano, 47 Madrid","{'type': 'Point', 'coordinates': [-3.699407, 40.4376642]}",40.4376642,-3.699407
944,Restaurante Casa Mortero,Calle Zorrilla 9,"{'type': 'Point', 'coordinates': [-4.1006926, 38.6824206]}",38.6824206,-4.1006926
945,Restaurante Botín,"Calle Cuchilleros, 17. 28005 Madrid (Madrid)","{'type': 'Point', 'coordinates': [-3.707981, 40.4141745]}",40.4141745,-3.707981
946,Restaurante Casa Pablo,"Calle del Almíbar, 42, 28300 Aranjuez, Madrid, España","{'type': 'Point', 'coordinates': [-3.6028957, 40.033284]}",40.033284,-3.6028957
947,Restaurante Casa Salvador,"Calle Barbieri, 12. 28004 Madrid (Madrid)","{'type': 'Point', 'coordinates': [-3.6980434, 40.4212517]}",40.4212517,-3.6980434
948,Restaurante Charolés,"Calle Floridablanca, 24. 28200 San Lorenzo de El Escorial (Madrid)","{'type': 'Point', 'coordinates': [-4.1480665, 40.5910529]}",40.5910529,-4.1480665
949,Restaurante Chuka Ramen,"Calle Echegaray, 9. 28014 Madrid (Madrid)","{'type': 'Point', 'coordinates': [-3.6995717, 40.4157547]}",40.4157547,-3.6995717
950,Restaurante Café de Oriente,"Plaza de Oriente, 2. 28013 Madrid (Madrid)","{'type': 'Point', 'coordinates': [-3.711468, 40.4177107]}",40.4177107,-3.711468
951,Restaurante Café de la Iberia,"Plaza Mayor, 17 28370 Chinchón (Madrid","{'type': 'Point', 'coordinates': [-3.4224958, 40.1404509]}",40.1404509,-3.4224958
952,Restaurante Cruz Blanca Vallecas,"Calle Carlos Martín Álvarez, 58. 28018 Madrid (Madrid)","{'type': 'Point', 'coordinates': [-3.4722509, 40.6303364]}",40.6303364,-3.4722509
953,Restaurante Cuenllas,"Calle de Ferraz, 5, 28008 Madrid, España","{'type': 'Point', 'coordinates': [-3.7171196, 40.4258134]}",40.4258134,-3.7171196
954,Restaurante Dantxari,"Calle Ventura Rodríguez, 8. 28008 Madrid (Madrid)","{'type': 'Point', 'coordinates': [-3.8903617, 40.3985236]}",40.3985236,-3.8903617
955,Restaurante El Bistró de Sandoval,"Avenida Humanes, 52 28971 Griñón","{'type': 'Point', 'coordinates': [-3.8491046, 40.2176662]}",40.2176662,-3.8491046
956,Restaurante El Bund,"Calle de Arturo Baldasano, 22, 28043 Madrid, España","{'type': 'Point', 'coordinates': [-3.658302, 40.4568247]}",40.4568247,-3.658302
957,Restaurante El Cielo de Urrechu,"Avenida de Europa, 26. 28223 Pozuelo de Alarcón (Madrid)","{'type': 'Point', 'coordinates': [-3.7840783817, 40.441325]}",40.441325,-3.7840783817
958,Restaurante Carús,"Avenida de la Victoria, 29 28023 Madrid","{'type': 'Point', 'coordinates': [-3.8102506, 40.4664376]}",40.4664376,-3.8102506
959,Restaurante El Ingrediente,"Calle de Alenza, 5, 28003 Madrid, España","{'type': 'Point', 'coordinates': [-3.700734, 40.4434019]}",40.4434019,-3.700734
960,Restaurante El Jardín de Arzábal,"Calle Santa Isabel, 52. 28012 Madrid (Madrid)","{'type': 'Point', 'coordinates': [-3.5908706, 40.0316837]}",40.0316837,-3.5908706
961,Restaurante Don Lay,"Calle de Castelló, 117, Madrid","{'type': 'Point', 'coordinates': [-3.6807213, 40.4371383]}",40.4371383,-3.6807213
962,Restaurante De la Riva,"Calle Cochabamba, 13 28016 Madrid","{'type': 'Point', 'coordinates': [-3.6797694, 40.4559164]}",40.4559164,-3.6797694
963,Restaurante El Landó,"Plaza de Gabriel Miró, 8. 28005 Madrid (Madrid)","{'type': 'Point', 'coordinates': [-3.3655271067, 40.43539875]}",40.43539875,-3.3655271067
964,Restaurante El Pescador,"Calle José Ortega y Gasset, 75 28006 Madrid","{'type': 'Point', 'coordinates': [-3.6100413, 40.8672395]}",40.8672395,-3.6100413
965,Restaurante El Oso,"Av. de Burgos, 214, 28050 Madrid, España","{'type': 'Point', 'coordinates': [-3.6571870411, 40.5060143]}",40.5060143,-3.6571870411
966,Restaurante El Toque,"Carretera del Plantío, 76. 28220 Majadahonda (Madrid)","{'type': 'Point', 'coordinates': [-3.841706, 40.4745379]}",40.4745379,-3.841706
967,Restaurante Esbardos,"Calle Maldonado, 4. 28006 Madrid","{'type': 'Point', 'coordinates': [-3.6858077, 40.4339422]}",40.4339422,-3.6858077
968,Restaurante Green House,"Calle Marqués de la Ensenada, 16. 28004 Madrid (Madrid)","{'type': 'Point', 'coordinates': [-3.9230612, 40.4248819]}",40.4248819,-3.9230612
969,Restaurante Florida Retiro - El Pabellón,"Paseo de la República de Panamá, s/n. 28009 Madrid (Madrid)","{'type': 'Point', 'coordinates': [-3.6796268, 40.4181036]}",40.4181036,-3.6796268
970,Restaurante Gran Clavel (Casa de Comidas),"Calle Caballero de Gracia, 11. 2803 Madrid","{'type': 'Point', 'coordinates': [-3.411003, 40.3808928]}",40.3808928,-3.411003
971,Restaurante Haroma,"Calle de Diego de León, 43. 28006 Madrid (Madrid)","{'type': 'Point', 'coordinates': [-3.6790648, 40.4348678]}",40.4348678,-3.6790648
972,Restaurante Horno de Asar Paco,"Calle Pradillos, 11. 28460 Los Molinos (Madrid)","{'type': 'Point', 'coordinates': [-4.0718994, 40.7145436]}",40.7145436,-4.0718994
973,Restaurante Glass Mar,"Carrera de San Jeronimo, 34. 28014 Madrid (Madrid)","{'type': 'Point', 'coordinates': [-3.6985954, 40.4164051]}",40.4164051,-3.6985954
974,Restaurante Hostería del Estudiante - Especia,"Calle Colegios, 3 28801 Alcalá de Henares (Madrid)","{'type': 'Point', 'coordinates': [-3.3629639, 40.4813954]}",40.4813954,-3.3629639
975,Restaurante Ikigai,"Calle Flor Baja, 5. 28013 Madrid (Madrid)","{'type': 'Point', 'coordinates': [-3.7097663, 40.4221735]}",40.4221735,-3.7097663
976,Restaurante Kabutokaji,"Avenida Navacerrada, 1. 28224 Pozuelo de Alarcón (Madrid)","{'type': 'Point', 'coordinates': [-3.8022871, 40.4598732]}",40.4598732,-3.8022871
977,Restaurante Kuc Place To Be,"Calle Santo Tomé, 6. 28004 Madrid (Madrid)","{'type': 'Point', 'coordinates': [-3.7696742, 40.8056408]}",40.8056408,-3.7696742
978,Restaurante Illunbe,"Paseo de  la Castellana, 172. 28046 Madrid","{'type': 'Point', 'coordinates': [-3.6869026, 40.4753554]}",40.4753554,-3.6869026
979,Restaurante Kulto,"Calle Ibiza, 4 28009","{'type': 'Point', 'coordinates': [-3.6780947, 40.4181973]}",40.4181973,-3.6780947
980,Restaurante La Barraca,"Calle Reina, 29 28004 Madrid","{'type': 'Point', 'coordinates': [-3.6604328, 40.945045]}",40.945045,-3.6604328
981,Restaurante La Berenjena,"Marqués de Toca, 7. Madrid","{'type': 'Point', 'coordinates': [-3.6961188, 40.4100487]}",40.4100487,-3.6961188
982,Restaurante Gala,Espronceda 14,"{'type': 'Point', 'coordinates': [-56.121418, -34.8801618]}",-34.8801618,-56.121418
983,Restaurante Gaztelubide,"Calle Sopelana, 13. 28023 Madrid (Madrid)","{'type': 'Point', 'coordinates': [-3.8104392, 40.4676819]}",40.4676819,-3.8104392
984,Restaurante Fismuler,"Calle Sagasta, 29. 28010  (Madrid)","{'type': 'Point', 'coordinates': [-4.2394952, 40.5008193]}",40.5008193,-4.2394952
985,Restaurante Fokacha,"Plaza del descubridor Diego de Ordás, 3, 28003, Madrid","{'type': 'Point', 'coordinates': [-3.699999284, 40.44089965]}",40.44089965,-3.699999284
986,Restaurante La Casa de Manolo Franco,"calle La Fuente, 6, 28210, Valdemorillo","{'type': 'Point', 'coordinates': [-4.0645616, 40.4973406]}",40.4973406,-4.0645616
987,Restaurante La Cocina de Maria Luisa,"Calle de Jorge Juan, 42. 28001 Madrid","{'type': 'Point', 'coordinates': [-3.6818565, 40.4235539]}",40.4235539,-3.6818565
988,Restaurante La Casa del Pregonero,"Plaza Mayor, 4 28370 Chinchón (Madrid)","{'type': 'Point', 'coordinates': [-3.4228518, 40.1397685]}",40.1397685,-3.4228518
989,Restaurante La Huerta de Tudela,"Calle del Prado, 15. 28014 Madrid (Madrid)","{'type': 'Point', 'coordinates': [-3.6984798, 40.4149977]}",40.4149977,-3.6984798
990,Restaurante La Penela,"Calle Velázquez, 96. 28006 Madrid (Madrid)","{'type': 'Point', 'coordinates': [-4.0621522, 40.5010599]}",40.5010599,-4.0621522
991,Restaurante La Maruca,"Calle Velázquez, 54. 28001 Madrid (Madrid)","{'type': 'Point', 'coordinates': [-4.0621522, 40.5010599]}",40.5010599,-4.0621522
992,Restaurante La Raquetista,"Calle Doctor Castelo, 19. 28009 Madrid (Madrid)","{'type': 'Point', 'coordinates': [-3.6777154, 40.1952657]}",40.1952657,-3.6777154
993,Restaurante La Sopa Boba,Plaza de Guadarrama 9. 28430 Alpedrete (Madrid),"{'type': 'Point', 'coordinates': [-4.039992987, 40.6590714]}",40.6590714,-4.039992987
994,Restaurante La Partida,"Calle Velázquez, 2 28691","{'type': 'Point', 'coordinates': [-4.0054273, 40.4454716]}",40.4454716,-4.0054273
995,Restaurante Latasia - Casa de Comidas,"Paseo de la Castellana, 115 28046 Madrid","{'type': 'Point', 'coordinates': [-3.6907533, 40.4568559]}",40.4568559,-3.6907533
996,Restaurante Taberna Laredo,"Calle Doctor Castelo, 30. 28009 Madrid","{'type': 'Point', 'coordinates': [-3.6777154, 40.1952657]}",40.1952657,-3.6777154
997,Restaurante Lavinia,"Calle de José Ortega y Gasset, 16, 28006 Madrid, España","{'type': 'Point', 'coordinates': [-3.6846532, 40.4301667]}",40.4301667,-3.6846532
998,Restaurante Lhardy,"Carrera de San Jerónimo, 8 28014 Madrid","{'type': 'Point', 'coordinates': [-3.7013768, 40.4166247]}",40.4166247,-3.7013768
999,Restaurante Los Galayos,"Calle de Botoneras, 5, 28012 Madrid, España","{'type': 'Point', 'coordinates': [-3.7066972, 40.4148825]}",40.4148825,-3.7066972
1000,Restaurante Los Remos,"Calle Sopelana, 13, 28023 Madrid, España","{'type': 'Point', 'coordinates': [-3.8104392, 40.4676819]}",40.4676819,-3.8104392
1001,Restaurante Lux,"Calle Jorge Juan, 22. 280001 Madrid","{'type': 'Point', 'coordinates': [-4.0249382, 40.4897942]}",40.4897942,-4.0249382
1002,Restaurante Madame Sushita,"Paseo de la Habana, 15 28036 Madrid","{'type': 'Point', 'coordinates': [-3.6881392, 40.4499906]}",40.4499906,-3.6881392
1003,Restaurante Luzi Bombón,"Paseo de La Castellana, 35. 28046 Madrid (Madrid)","{'type': 'Point', 'coordinates': [-3.6893086757, 40.43367035]}",40.43367035,-3.6893086757
1004,Restaurante La Española,"Avenida Juan XXIII, 5. 28224 Pozuelo de Alarcón (Madrid)","{'type': 'Point', 'coordinates': [-3.8081023, 40.4445529]}",40.4445529,-3.8081023
1005,Restaurante NaDo Madrid,"Calle de Prim, 5, 28004 Madrid","{'type': 'Point', 'coordinates': [-3.6943662, 40.4219609]}",40.4219609,-3.6943662
1006,Restaurante Narciso Brasserie,"Calle Almagro, 32. 28010 Madrid (Madrid)","{'type': 'Point', 'coordinates': [-4.2653759, 40.5700855]}",40.5700855,-4.2653759
1007,Restaurante Naveira do Mar,"Calle de Sta Juliana, 57, 28039 Madrid, España","{'type': 'Point', 'coordinates': [-3.7076046498, 40.45229615]}",40.45229615,-3.7076046498
1008,Restaurante Mentidero de la Villa,"Calle Almagro, 20 28010 Madrid","{'type': 'Point', 'coordinates': [-3.6938954, 40.4291329]}",40.4291329,-3.6938954
1009,Restaurante La Dorada - Aurada,"Avenida Juan Antonio Samaranch Torelló, 1 28223 Pozuelo de Alarcón (Madrid)","{'type': 'Point', 'coordinates': [-3.8123563, 40.4255504]}",40.4255504,-3.8123563
1010,Restaurante Numa Pompilio,"Calle Velázquez, 18. 28001 Madrid (Madrid)","{'type': 'Point', 'coordinates': [-4.0621522, 40.5010599]}",40.5010599,-4.0621522
1011,Restaurante Maldonado 14,"Calle Maldonado, 14. 28006 Madrid (Madrid)","{'type': 'Point', 'coordinates': [-3.6840878, 40.4338332]}",40.4338332,-3.6840878
1012,Restaurante La Malaje,"Plaza de la Paja, 10","{'type': 'Point', 'coordinates': [-3.711592464, 40.4129726]}",40.4129726,-3.711592464
1013,Restaurante Ox's,"Calle Juan Ramón Jiménez, 11 28036 Madrid","{'type': 'Point', 'coordinates': [-3.3534448827, 40.5110999]}",40.5110999,-3.3534448827
1014,Restaurante Palacio de Cibeles,"Plaza de Cibeles, 1. 28014 Madrid (Madrid)","{'type': 'Point', 'coordinates': [-3.6921856, 40.418899]}",40.418899,-3.6921856
1015,Restaurante La Máquina de Jorge Juan,"Calle Jorge Juan, 12. 28001 Madrid","{'type': 'Point', 'coordinates': [-4.0249382, 40.4897942]}",40.4897942,-4.0249382
1016,Restaurante Parador de Chinchón - Especia,"Calle de los Huertos, 1 28370 Chinchón","{'type': 'Point', 'coordinates': [-3.4243931, 40.1394137]}",40.1394137,-3.4243931
1017,Restaurante Quinqué,"Calle de Apolonio Morales, 3, 28036 Madrid","{'type': 'Point', 'coordinates': [-3.6843772, 40.4635269]}",40.4635269,-3.6843772
1018,Restaurante Puertalsol,"Plaza de la puerta del sol, 10, 28013 madrid, españa","{'type': 'Point', 'coordinates': [-3.7042768, 40.4170233]}",40.4170233,-3.7042768
1019,Restaurante Plató,"Plaza de la Lealtad, 3, 28014 Madrid, España","{'type': 'Point', 'coordinates': [-3.6921472, 40.4159054]}",40.4159054,-3.6921472
1020,Restaurante Quintín - Ultramarinos,"Calle Jorge Juan, 17. 28001 Madrid (Madrid)","{'type': 'Point', 'coordinates': [-4.0249382, 40.4897942]}",40.4897942,-4.0249382
1021,Restaurante Parador de Alcalá de Henares - Especia,"Calle Colegios, 8. 28801 Alcalá de Henares (Madrid)","{'type': 'Point', 'coordinates': [-3.362004, 40.481377]}",40.481377,-3.362004
1022,Restaurante Pasta Mito,"Calle Bolivia, 9. 28016 Madrid (Madrid)","{'type': 'Point', 'coordinates': [-3.553906, 40.425141]}",40.425141,-3.553906
1023,Restaurante Media Ración,"Calle Beneficiencia, 15.","{'type': 'Point', 'coordinates': [-2.0272867, 42.5950925]}",42.5950925,-2.0272867
1024,Restaurante Ronda 14,"Calle General Oraá, 25 28006 Madrid","{'type': 'Point', 'coordinates': [-3.6878781, 40.4357956]}",40.4357956,-3.6878781
1025,Restaurante Ramses,"Plaza de la Independencia, 4, 28001 Madrid, España","{'type': 'Point', 'coordinates': [-3.6889616, 40.4206959]}",40.4206959,-3.6889616
1026,Restaurante Roostiq,"Calle de Augusto Figueroa, 47, 28004 Madrid, España","{'type': 'Point', 'coordinates': [-3.6962352, 40.4219931]}",40.4219931,-3.6962352
1027,Restaurante Taberna Recreo,"Calle Espartinas, 5, 28001, Madrid","{'type': 'Point', 'coordinates': [-3.6792742, 40.4244506]}",40.4244506,-3.6792742
1028,Restaurante Taberna San Mamés,"Calle Maudes, 1. 28003 Madrid","{'type': 'Point', 'coordinates': [-3.700357, 40.4452637]}",40.4452637,-3.700357
1029,Restaurante Taberna del Alabardero,"Calle Felipe V, 6. 28013 Madrid","{'type': 'Point', 'coordinates': [-4.1250907, 40.5827563]}",40.5827563,-4.1250907
1030,Restaurante Taberneros,"Calle de Santiago, 9, 28013 Madrid","{'type': 'Point', 'coordinates': [-3.7104348, 40.4163669]}",40.4163669,-3.7104348
1031,Restaurante Salterius,"Calle Goya, 1 28222","{'type': 'Point', 'coordinates': [-3.8910061, 40.5477821]}",40.5477821,-3.8910061
1032,Restaurante Taberna La Carmencita,"Calle de la Libertad, 16, 28004 Madrid, España","{'type': 'Point', 'coordinates': [-3.6973287, 40.4211749]}",40.4211749,-3.6973287
1033,Restaurante Sala de Despiece,Calle Ponzano 11,"{'type': 'Point', 'coordinates': [-3.6994954, 40.4379178]}",40.4379178,-3.6994954
1034,Restaurante Samm,"Calle Carlos Caamaño, 3. 28016 Madrid (Madrid)","{'type': 'Point', 'coordinates': [-3.6697805, 40.4643625]}",40.4643625,-3.6697805
1035,Restaurante Tampu,"Calle de Prim, 13 28004 Madrid","{'type': 'Point', 'coordinates': [-3.6935347, 40.4219515]}",40.4219515,-3.6935347
1036,Restaurante Taramara,"Avenida de los Arces, 11. 28042 Madrid (Madrid)","{'type': 'Point', 'coordinates': [-3.6212765, 40.4539879]}",40.4539879,-3.6212765
1037,Restaurante Ten con Ten,"Calle Ayala, 6. 28001 Madrid (Madrid)","{'type': 'Point', 'coordinates': [-3.6884987, 40.4278553]}",40.4278553,-3.6884987
1038,Restaurante Tras-Os-Montes,"Calle Senda del Infante, 28. 28035 Madrid (Madrid)","{'type': 'Point', 'coordinates': [-3.7226277, 40.491081]}",40.491081,-3.7226277
1039,Restaurante Vinoteca García de la Navarra,"Calle Montalbán, 3 28014 Madrid","{'type': 'Point', 'coordinates': [-4.0494974, 40.7419746]}",40.7419746,-4.0494974
1040,Restaurante Vinoteca Moratín,"C. de Moratín, 36, 28014 Madrid","{'type': 'Point', 'coordinates': [-3.6954315, 40.4125279]}",40.4125279,-3.6954315
1041,Restaurante Manzoni Trattoria,"Rosario Pino 6 , Madrid","{'type': 'Point', 'coordinates': [-3.6911775, 40.4622054]}",40.4622054,-3.6911775
1042,Restaurante Tori Key,"Plaza del Descubridor Diego de Ordás, 2, 28003","{'type': 'Point', 'coordinates': [-3.7004196, 40.4409682]}",40.4409682,-3.7004196
1043,Restaurante Yokaloka,"Calle de Santa Isabel, 5. Bajo 23.","{'type': 'Point', 'coordinates': [-0.5563105, 38.1925636]}",38.1925636,-0.5563105
1044,Restaurante Yugo,"Calle de San Blas, 4, 28014 Madrid, España","{'type': 'Point', 'coordinates': [-3.6938335, 40.410375]}",40.410375,-3.6938335
1045,Restaurante Alejandro del Toro,"Calle Amadeo de Saboya, 15. 46010 Valencia","{'type': 'Point', 'coordinates': [-0.7393644, 39.1186663]}",39.1186663,-0.7393644
1046,Restaurante Arrocería Maribel,"C/ Francisco Monleón, 5","{'type': 'Point', 'coordinates': [-0.3181623, 39.3106392]}",39.3106392,-0.3181623
1047,Restaurante ABISS GastroBarra,"Calle Benidorm, 1 03710 Calp (Alicante)","{'type': 'Point', 'coordinates': [0.0488824, 38.6421926]}",38.6421926,0.0488824
1048,Restaurante Baeza & Rufete,"Avenida Ansaldo, 31 03540 Alicante","{'type': 'Point', 'coordinates': [-0.4342484, 38.3690173]}",38.3690173,-0.4342484
1049,Restaurante Umo,"Paseo de la Castellana, 43. 28046 Madrid (Madrid)","{'type': 'Point', 'coordinates': [-3.6895294, 40.4354217]}",40.4354217,-3.6895294
1050,Restaurante Urrechu,"Calle Barlovento, 30. 28223 Pozuelo de Alarcón (Madrid)","{'type': 'Point', 'coordinates': [-3.7967386, 40.4244449]}",40.4244449,-3.7967386
1051,Restaurante Baobab,"Gran Via del Marqués del Túria, 73, 46005 València, Valencia, España","{'type': 'Point', 'coordinates': [-0.3654702774, 39.46881095]}",39.46881095,-0.3654702774
1052,Restaurante Tripea,"Vallehermoso, 36. Madrid","{'type': 'Point', 'coordinates': [-3.7085513, 40.4341738]}",40.4341738,-3.7085513
1053,Restaurante Bar Ricardo,"Carrer del Dr. Zamenhof, 16, 46008 València, Valencia, España","{'type': 'Point', 'coordinates': [-0.3924805, 39.4755575]}",39.4755575,-0.3924805
1054,Restaurante Bodega Anyora,"Carrer d'en Vicent Gallart, 15, 46022 València, Valencia, España","{'type': 'Point', 'coordinates': [-0.333291, 39.4658767]}",39.4658767,-0.333291
1055,Restaurante Bouet,"Gran Via de les Germanies, 34, 46006 Valencia, España","{'type': 'Point', 'coordinates': [-0.3741102, 39.4648856]}",39.4648856,-0.3741102
1056,Restaurante Canalla Bistró,"Calle Maestro José Serrano, 5 46005 Valencia","{'type': 'Point', 'coordinates': [-0.7205969, 38.0885326]}",38.0885326,-0.7205969
1057,Restaurante Casa Salvador,"Avda. del Estany,  s/n 46400 Cullera (Valencia)","{'type': 'Point', 'coordinates': [-0.2353265, 39.1309467]}",39.1309467,-0.2353265
1058,Restaurante Coloniales Huerta,"Calle Maestro Gozalbo, 13 46004 Valencia","{'type': 'Point', 'coordinates': [-0.3686538, 39.464305]}",39.464305,-0.3686538
1059,Restaurante Casa Montaña,"Carrer de Josep Benlliure, 69, 46011 València, Valencia, España","{'type': 'Point', 'coordinates': [-0.3303201, 39.4691209]}",39.4691209,-0.3303201
1060,Restaurante Casa Federico,"Calle Ausias March, 22. 03700 Dénia (Alicante)","{'type': 'Point', 'coordinates': [0.106693, 38.8457937]}",38.8457937,0.106693
1061,Restaurante Urrechu Velázquez,"Calle de Velázquez, 150 Madrid","{'type': 'Point', 'coordinates': [-3.68223, 40.4431273]}",40.4431273,-3.68223
1062,Restaurante Daily,"Paseo Marítimo de Daimús, 5. 46710 Daimús (Valencia)","{'type': 'Point', 'coordinates': [-0.1423324, 38.9773904]}",38.9773904,-0.1423324
1063,Restaurante César Anca Restaurante & Barra,"calle Ojeda 1, 03001, Alicante","{'type': 'Point', 'coordinates': [-0.4850859, 38.3429689]}",38.3429689,-0.4850859
1064,Restaurante El Mesón de la Costa,"Calle Ramón y Cajal, 27. 03182 Torrevieja (Alicante)","{'type': 'Point', 'coordinates': [-0.6763868, 37.975121]}",37.975121,-0.6763868
1065,Restaurante El Raset,"Calle Bellavista, 7 03700 Dénia (Alicante)","{'type': 'Point', 'coordinates': [0.1100677, 38.8444163]}",38.8444163,0.1100677
1066,Restaurante El Trinquete,"Carrer de l'Escola, 03730 Xàbia, Alicante, España","{'type': 'Point', 'coordinates': [0.1640356, 38.7897007]}",38.7897007,0.1640356
1067,Restaurante Gran Azul,"Av. d'Aragó, 12, 46021 València, Valencia, España","{'type': 'Point', 'coordinates': [-0.356475, 39.4739872]}",39.4739872,-0.356475
1068,Restaurante Karak,"Carrer del Músic Peydró, 9, 46001 València, Valencia, España","{'type': 'Point', 'coordinates': [-0.3781813, 39.4720362]}",39.4720362,-0.3781813
1069,Restaurante Lavoe,"Carrer de la Creu Nova, 4, València, Valencia","{'type': 'Point', 'coordinates': [-0.3733219, 39.472969]}",39.472969,-0.3733219
1070,Restaurante La Tasca de Ricardo,"Avenida Mediterráneo, 28 12530 Burriana (Castellón)","{'type': 'Point', 'coordinates': [-0.0762512, 39.8624624]}",39.8624624,-0.0762512
1071,Restaurante Le Dauphin,"Calle Puerto Lápice, 38-B. 03724 Moraira (Alicante)","{'type': 'Point', 'coordinates': [0.1476144, 38.6876927]}",38.6876927,0.1476144
1072,Restaurante Mercado Colón,"Calle Jorge Juan, 19. 46004 Valencia (Valencia)","{'type': 'Point', 'coordinates': [-0.5204582, 38.3936011]}",38.3936011,-0.5204582
1073,Restaurante Mesón del Pastor,"Cuesta Jovaní, 7 12300 Morella (Castellón)","{'type': 'Point', 'coordinates': [-0.1008664, 40.6181151]}",40.6181151,-0.1008664
1074,Restaurante Llisa Negra,"Carrer de Pascual i Genís, 10, 46002 València, Valencia, España","{'type': 'Point', 'coordinates': [-0.3740921159, 39.4680846]}",39.4680846,-0.3740921159
1075,Restaurante Paco Gandía,"Calle San Francisco, 10 03650 El Pinós (Alicante)","{'type': 'Point', 'coordinates': [-1.0375742, 38.4031988]}",38.4031988,-1.0375742
1076,Restaurante Nozomi Sushi Bar,"Calle Pedro III El Grande, 11 46005","{'type': 'Point', 'coordinates': [-0.3672203, 39.4633364]}",39.4633364,-0.3672203
1077,Restaurante Momiji,"Mercado de Colón 46004, Valencia, España","{'type': 'Point', 'coordinates': [-0.3683452245, 39.46895845]}",39.46895845,-0.3683452245
1078,Restaurante María de Luna,"Calle Fray Bonifacio Ferrer, 7. 12400 Segorbe (Castellón)","{'type': 'Point', 'coordinates': [-0.4920183, 39.8500792]}",39.8500792,-0.4920183
1079,Restaurante Paraíso Travel,"Calle Cardá, 6. 46001 Valencia (Valencia)","{'type': 'Point', 'coordinates': [-0.3803533, 39.4750252]}",39.4750252,-0.3803533
1080,Restaurante Sand,"Paseo del Senillar, s/n 03724 Moraira (Alicante)","{'type': 'Point', 'coordinates': [0.1317126, 38.6882818]}",38.6882818,0.1317126
1081,Restaurante Rafael,"Calle Churruca, 28 12100","{'type': 'Point', 'coordinates': [0.0120601, 39.970774]}",39.970774,0.0120601
1082,Restaurante La Pitanza,"Calle Colón, 18 46164 Pedralba (Valencia)","{'type': 'Point', 'coordinates': [-0.7302902, 39.6056237]}",39.6056237,-0.7302902
1083,Restaurante Sendra,"Carrer Fènix, 15, 03700 Rotes (Alicante)","{'type': 'Point', 'coordinates': [0.1470584, 38.8313239]}",38.8313239,0.1470584
1084,Restaurante Vinatea,"Calle Blasco de Alagon, 17, 12300 Morella, Castelló, España","{'type': 'Point', 'coordinates': [-0.1012495, 40.6181889]}",40.6181889,-0.1012495
1085,Restaurante Voramar,"Paseo Pilar Coloma,1. 12560 Benicassim (Castellón)","{'type': 'Point', 'coordinates': [0.0756932, 40.0523755]}",40.0523755,0.0756932
1086,Restaurante Sucar,"Calle Reina Doña Germana, 4. 46005 Valencia","{'type': 'Point', 'coordinates': [-0.3660793, 39.4637523]}",39.4637523,-0.3660793
1087,Restaurante La Vaquería,"Carretera Benimagrell, 52 03560 El Campello ( Alicante )","{'type': 'Point', 'coordinates': [-0.4129221, 38.3879465]}",38.3879465,-0.4129221
1088,Restaurante aQua Restaurant,"Calle Pintor Oliet, 3 12006 Castellón de la Plana","{'type': 'Point', 'coordinates': [-0.053242, 39.9863446]}",39.9863446,-0.053242
1089,Restaurante Punto de Sal,"Plaza Torrejo, 3. 03501 Benidorm (Alicante)","{'type': 'Point', 'coordinates': [-0.1293143, 38.535022]}",38.535022,-0.1293143
1090,Restaurante Andere,"Calle Gorbea, 8 01008 Vitoria-Gasteiz (Álava)","{'type': 'Point', 'coordinates': [-2.679904, 42.8491138]}",42.8491138,-2.679904
1091,Restaurante Agorregi,"Calle Portuetxe, 14 20018 San Sebastián (Gipuzkoa)","{'type': 'Point', 'coordinates': [-2.0118821, 43.3023826]}",43.3023826,-2.0118821
1092,Restaurante Aratz,"Camino Igara, 15 20018 San Sebastián (Gipuzkoa)","{'type': 'Point', 'coordinates': [-2.0099361, 43.3008881]}",43.3008881,-2.0099361
1093,Restaurante Arraunlari Berri,"Paseo Butrón, 3 20280 Hondarribia (Gipuzkoa)","{'type': 'Point', 'coordinates': [-1.7930849, 43.369457]}",43.369457,-1.7930849
1094,Restaurante Arregi Jatetxea,"Herriko Enparantza, 7","{'type': 'Point', 'coordinates': [-1.9253507, 43.3253428]}",43.3253428,-1.9253507
1095,Restaurante Asador Borda,"Avenida Los Chopos, 31. 48930 Getxo (Bizkaia)","{'type': 'Point', 'coordinates': [-3.00319115, 43.3507947]}",43.3507947,-3.00319115
1096,Restaurante Asador Portuetxe,"Igara Bidea, 71. 20018 San Sebastián (Gipuzkoa)","{'type': 'Point', 'coordinates': [-2.01477975, 43.3008018]}",43.3008018,-2.01477975
1097,Restaurante Bascook,"Barroeta Aldamar Kalea, 8, 48001 Bilbo, Bizkaia, España","{'type': 'Point', 'coordinates': [-2.9262437, 43.2631074]}",43.2631074,-2.9262437
1098,Restaurante Ama,"Aroztegieta Kalea, 13, 20400 Tolosa, Gipuzkoa, España","{'type': 'Point', 'coordinates': [-2.0732596, 43.1385975]}",43.1385975,-2.0732596
1099,Restaurante Bistró Guggenheim Bilbao,"Avenida Abandoibarra, 2 48009 Bilbao (Bizkaia)","{'type': 'Point', 'coordinates': [-2.9345649, 43.2686558]}",43.2686558,-2.9345649
1100,Restaurante Bodega Donostiarra,"Peña y Goñi Kalea, 13, 20002 Donostia, Gipuzkoa, España","{'type': 'Point', 'coordinates': [-1.9774354, 43.3232305]}",43.3232305,-1.9774354
1101,Restaurante Beltz,"Mazarredo Zumarkalea, 61","{'type': 'Point', 'coordinates': [-2.9338433, 43.2674057]}",43.2674057,-2.9338433
1102,Restaurante Damadá Gastroteka,"Tolosa Hiribidea, 9, 20018 Donostia, Gipuzkoa, España","{'type': 'Point', 'coordinates': [-2.0011532, 43.2992808]}",43.2992808,-2.0011532
1103,Restaurante Bodegón Alejandro,"Calle Fermín Calbetón, 4. 20003 San Sebastián","{'type': 'Point', 'coordinates': [-1.9833565, 43.3235626]}",43.3235626,-1.9833565
1104,Restaurante Elkano Txiki,"Elkano Kalea, 13, 20808 Getaria, Gipuzkoa, España","{'type': 'Point', 'coordinates': [-2.204389, 43.3036231]}",43.3036231,-2.204389
1105,Restaurante Elosta,"Paseo Colón, 41 20002 San Sebastián (Gipuzkoa)","{'type': 'Point', 'coordinates': [-1.9740176, 43.3253976]}",43.3253976,-1.9740176
1106,Restaurante Hermandad de Pescadores,"Calle Zuloaga, 12. 20280 Hondarribia (Gipuzkoa)","{'type': 'Point', 'coordinates': [-1.7935025, 43.3683179]}",43.3683179,-1.7935025
1107,Restaurante Espazio Oteiza - Akelarre,"Paseo Padre Orcolaga, 56. 20008 San Sebastián (Gipuzkoa)","{'type': 'Point', 'coordinates': [-2.0431538, 43.3077826]}",43.3077826,-2.0431538
1108,Restaurante Casa Cámara,"Calle San Juan, 79. Pasai Donibane, 20110 Gipuzkoa.","{'type': 'Point', 'coordinates': [-1.9198894, 43.3265879]}",43.3265879,-1.9198894
1109,Restaurante Iribar jatetxea,"Calle Nagusia, 34. 20808 Getaria (Gipuzkoa)","{'type': 'Point', 'coordinates': [-2.2036542, 43.3041853]}",43.3041853,-2.2036542
1110,Restaurante Arkupe,"Calle Mateo Benigno de Moraza, 13. 01001 Vitoria (Álava)","{'type': 'Point', 'coordinates': [-2.6723068, 42.8470189]}",42.8470189,-2.6723068
1111,Restaurante Karlos Arguiñano,"Calle Mendilauta, 13. 20800 Zarautz (Guipúzcoa)","{'type': 'Point', 'coordinates': [-2.1642525, 43.2878308]}",43.2878308,-2.1642525
1112,Restaurante Héctor Oribe,"Calle Gasteiz, 8 01309 Páganos (Álava)","{'type': 'Point', 'coordinates': [-2.6047647, 42.5586868]}",42.5586868,-2.6047647
1113,Restaurante Kuma,"Ercilla Kalea, 8, 48009 Bilbo, Bizkaia, España","{'type': 'Point', 'coordinates': [-2.9309016, 43.2650163]}",43.2650163,-2.9309016
1114,Restaurante Club Náutico,"Orueta Apezpikuaren Kalea, 24, 48009 Bilbo, Bizkaia, España","{'type': 'Point', 'coordinates': [-2.9304585, 43.2651068]}",43.2651068,-2.9304585
1115,Restaurante Cascanueces,"Calle Heros, 21. 48009 Bilbao (Bizkaia)","{'type': 'Point', 'coordinates': [-2.9326408, 43.2643891]}",43.2643891,-2.9326408
1116,Restaurante Guetaria (Asador),"Colón de Larreátegui Kalea, 12, 48001 Bilbo, Bizkaia, España","{'type': 'Point', 'coordinates': [-2.9300559, 43.2631241]}",43.2631241,-2.9300559
1117,Restaurante Matalauva,"Calle Zabaleta, 17. 20002 San Sebastián (Guipúzcoa)","{'type': 'Point', 'coordinates': [-1.9759472, 43.3232938]}",43.3232938,-1.9759472
1118,Restaurante La Taberna de Blas,"Calle San Martín, 56. 20007 San Sebastián (Gipuzkoa)","{'type': 'Point', 'coordinates': [-1.9858948, 43.3161081]}",43.3161081,-1.9858948
1119,Restaurante The Bost,"Calle La Florida, 5. 01005 Vitoria (Araba)","{'type': 'Point', 'coordinates': [-2.675148, 42.8435989]}",42.8435989,-2.675148
1120,Restaurante Narru,"Calle San Martín, 22, 20005, San Sebastián","{'type': 'Point', 'coordinates': [-1.9817085, 43.3176558]}",43.3176558,-1.9817085
1121,Restaurante Topa Sukaldería,"Agirre Miramon Kalea, 7","{'type': 'Point', 'coordinates': [-1.977793, 43.3227569]}",43.3227569,-1.977793
1122,Restaurante Petit Komité,"Calle Txomin Egileor, 28 48960 Galdakao (Bizkaia)","{'type': 'Point', 'coordinates': [-2.8523786, 43.2294859]}",43.2294859,-2.8523786
1123,Restaurante Urepel,"Salamanca Pasealekua, 3, 20003 Donostia, Gipuzkoa, España","{'type': 'Point', 'coordinates': [-1.9812866, 43.3237001]}",43.3237001,-1.9812866
1124,Restaurante Sutan,"Jaitzubia Auzoa, 266, 20280 Hondarribia, Gipuzkoa","{'type': 'Point', 'coordinates': [-1.8116401, 43.3570902]}",43.3570902,-1.8116401
1125,Restaurante Martínez,"Calle Santa María, 10. 20240 Ordizia (Guipuzcoa)","{'type': 'Point', 'coordinates': [-2.1790915, 43.053304]}",43.053304,-2.1790915
1126,Restaurante Mendiondo,"San Martín de Carral, 3. 48190 Sopuerta (Vizcaya)","{'type': 'Point', 'coordinates': [-3.1565112, 43.2488535]}",43.2488535,-3.1565112
1127,Restaurante Zallo Barri,"Calle Juan Calzada, 79. 48300 Gernika (Vizcaya)","{'type': 'Point', 'coordinates': [-2.6800873, 43.3083405]}",43.3083405,-2.6800873
1128,Restaurante Ziaboga Bistrot,Donibane kalea 91,"{'type': 'Point', 'coordinates': [-1.9198449, 43.3270107]}",43.3270107,-1.9198449
1129,Restaurante Zapirain,"Calle Juan Ajuriaguerra, 22. 48009 Bilbao (Vizcaya)","{'type': 'Point', 'coordinates': [-2.9334342, 43.2658378]}",43.2658378,-2.9334342
1130,Restaurante A de Arco,"Calle Trajano, 8. 06800 Mérida (Badajoz)","{'type': 'Point', 'coordinates': [-6.346342, 38.9178902]}",38.9178902,-6.346342
1131,Restaurante Albalat,"Av. Ruta de la Plata, 4, 10001 Cáceres, España","{'type': 'Point', 'coordinates': [-6.3844584, 39.4700957]}",39.4700957,-6.3844584
1132,Restaurante Casa Maila,"Calle Colón, 3, Olivenza","{'type': 'Point', 'coordinates': [-7.1025031, 38.6832208]}",38.6832208,-7.1025031
1133,Restaurante Sagartoki,"El Prado Kalea, 18, 01005 Vitoria-Gasteiz, Araba, España","{'type': 'Point', 'coordinates': [-2.6751414, 42.8459757]}",42.8459757,-2.6751414
1134,Restaurante Castúo,"Calle Francisco Pizarro, 53, 06200 Almendralejo, Badajoz, España","{'type': 'Point', 'coordinates': [-6.4066876, 38.682928]}",38.682928,-6.4066876
1135,Restaurante Corral del Rey,"Corral del Rey, 2  10200, Trujillo (Cáceres)","{'type': 'Point', 'coordinates': [-5.8809644947, 39.4601187]}",39.4601187,-5.8809644947
1136,Restaurante El Rinconcillo,"Paseo de Extremadura, 67, 06260 Monesterio, Badajoz, España","{'type': 'Point', 'coordinates': [-6.2770147, 38.0949778]}",38.0949778,-6.2770147
1137,Restaurante Lugaris,"Av. Adolfo Díaz Ambrona, 44, 06006 Badajoz, España","{'type': 'Point', 'coordinates': [-6.9884227, 38.8836379]}",38.8836379,-6.9884227
1138,Restaurante Madruelo,"Calle Camberos, 2. 10003 Cáceres (Cáceres)","{'type': 'Point', 'coordinates': [-6.3702132, 39.4762783]}",39.4762783,-6.3702132
1139,Restaurante El Alma del Genio,"Calle Bartolomé José Gallardo, 4, 06001 Badajoz, España","{'type': 'Point', 'coordinates': [-6.9746182302, 38.8762086]}",38.8762086,-6.9746182302
1140,Restaurante A Horta d'Obradoiro,Rúa Hortas 16. 15705 Santiago de Compostela (A Coruña),"{'type': 'Point', 'coordinates': [-8.5472433, 42.8807746]}",42.8807746,-8.5472433
1141,Restaurante A Maceta,"Rúa de San Pedro, 120 15703 Santiago de Compostela (A Coruña)","{'type': 'Point', 'coordinates': [-8.5366651, 42.8815063]}",42.8815063,-8.5366651
1142,Restaurante A Marina,"Calle Cantón Miguel Feijóo, 2. 15123 Camariñas (A coruña)","{'type': 'Point', 'coordinates': [-9.1819403, 43.1300243]}",43.1300243,-9.1819403
1143,Restaurante Abastos 2.0,"Rua Ameas, 13-18. Santiago de Compostela (A Coruña). 15703","{'type': 'Point', 'coordinates': [-8.5407553, 42.8803477]}",42.8803477,-8.5407553
1144,Restaurante A Mundiña,"Calle Real, 77 15003 A Coruña","{'type': 'Point', 'coordinates': [-8.4015153, 43.3691427]}",43.3691427,-8.4015153
1145,Restaurante Alameda 10,"Rúa Alameda, 10. 36001 Pontevedra (Pontevedra)","{'type': 'Point', 'coordinates': [-8.4420388037, 42.39769765]}",42.39769765,-8.4420388037
1146,Restaurante A Ultramar - Pepe Vieira,"Rúa Padre Amoedo Carballo, 3, 36002 Pontevedra, España","{'type': 'Point', 'coordinates': [-8.6417208, 42.4333585]}",42.4333585,-8.6417208
1147,Restaurante Bitadorna A Guarda,"rua do  porto, 30, 36780 A Guarda, Pontevedra, España","{'type': 'Point', 'coordinates': [-8.8746561, 41.8988461]}",41.8988461,-8.8746561
1148,Restaurante 55 pasos,"Nuestra Señora del Rosario 9, 15001 A Coruña","{'type': 'Point', 'coordinates': [-8.2199266523, 43.49054365]}",43.49054365,-8.2199266523
1149,Restaurante Brasería Sansibar,"Calle Balea, 20-B 36988 O Grove (Pontevedra)","{'type': 'Point', 'coordinates': [-8.911689, 42.4659677]}",42.4659677,-8.911689
1150,Restaurante Campos,"Rúa Nova, 2-4. 27001 Lugo (Lugo)","{'type': 'Point', 'coordinates': [-7.5593394, 43.0114712]}",43.0114712,-7.5593394
1151,Restaurante Parada de la Reina,"Calle Tornavacas, 2, 10600 Plasencia, Cáceres","{'type': 'Point', 'coordinates': [-6.0804363, 40.0326687]}",40.0326687,-6.0804363
1152,Restaurante Ceibe,Rúa San Miguel 8,"{'type': 'Point', 'coordinates': [-8.7530044, 42.2257948]}",42.2257948,-8.7530044
1153,Restaurante Casa Román,"Avenida Augusto García Sánchez, 12. 36003 Pontevedra (Pontevedra)","{'type': 'Point', 'coordinates': [-8.6423304215, 42.4277328]}",42.4277328,-8.6423304215
1154,Restaurante Chef Rivera,"Rua Enlace Parque, 7. 15900 Padrón (A Coruña)","{'type': 'Point', 'coordinates': [-8.6589117215, 42.73678465]}",42.73678465,-8.6589117215
1155,Restaurante Boca Negra,"Rúa Riego de Agua, 33, 15001 A Coruña, España","{'type': 'Point', 'coordinates': [-8.3966396, 43.3705971]}",43.3705971,-8.3966396
1156,Restaurante Culuca Cociña,"Avenida Arteixo, 10 15004 A Coruña","{'type': 'Point', 'coordinates': [-8.4090041, 43.3634211]}",43.3634211,-8.4090041
1157,Restaurante Detapaencepa (labullabesa slu),calle ecuador 18,"{'type': 'Point', 'coordinates': [-1.8695922, 38.9853493]}",38.9853493,-1.8695922
1158,Restaurante Ábako,"Calle Alonso Muñoz, 8 06700 Villanueva de la Serena (Badajoz)","{'type': 'Point', 'coordinates': [-5.7976464, 38.9735953]}",38.9735953,-5.7976464
1159,Restaurante La Casilla,"Avenida de Castilla, 90 15300 Betanzos (Coruña, A)","{'type': 'Point', 'coordinates': [-8.2073728124, 43.2740813]}",43.2740813,-8.2073728124
1160,Restaurante Nardi,"Calle Braulio Navas, 19. 10700 Hervás (Cáceres)","{'type': 'Point', 'coordinates': [-5.8614651, 40.2722916]}",40.2722916,-5.8614651
1161,Restaurante LUME Lucía Freitas,"Rua Ameas, 2 15703 Santiago de Compostela, A Coruña","{'type': 'Point', 'coordinates': [-8.5407553, 42.8803477]}",42.8803477,-8.5407553
1162,Restaurante Pablo Gallego,"Calle Capitán Troncoso, 4 15001 A Coruña","{'type': 'Point', 'coordinates': [-8.3948437, 43.3705107]}",43.3705107,-8.3948437
1163,Restaurante O Lagar da Estrella,"Calle Estrella, 14. 15003 A Coruña","{'type': 'Point', 'coordinates': [-8.4036325, 43.3685721]}",43.3685721,-8.4036325
1164,Restaurante Peculiar,"calle Galera, 24. 15003 A Coruña","{'type': 'Point', 'coordinates': [-8.4001218, 43.3704981]}",43.3704981,-8.4001218
1165,Restaurante Paprica,"Calle Nóreas, 1 27001 Lugo","{'type': 'Point', 'coordinates': [-7.5538098, 43.0106979]}",43.0106979,-7.5538098
1166,Restaurante Pulpeira de Melide,"Praza de España, 16, 15001 A Coruña, España","{'type': 'Point', 'coordinates': [-8.3971341, 43.3728952]}",43.3728952,-8.3971341
1167,Restaurante Los Abetos,"Av. Val Miñor, 89, 36391 Nigrán, Pontevedra, España","{'type': 'Point', 'coordinates': [-8.8043794, 42.1506609]}",42.1506609,-8.8043794
1168,Restaurante Malauva Wine Bar,"Baixada Fonte, 12, 36202 Vigo, Pontevedra, España","{'type': 'Point', 'coordinates': [-8.7491667, 42.2199793]}",42.2199793,-8.7491667
1169,Restaurante Nordés,"Rua Kayrel, 3. 36930 Bueu (Pontevedra)","{'type': 'Point', 'coordinates': [-8.7858631, 42.3264761]}",42.3264761,-8.7858631
1170,Restaurante Soriano,"Calle Subida Chans, 2 36313 Bembrive (Pontevedra)","{'type': 'Point', 'coordinates': [-8.6782813, 42.1955453]}",42.1955453,-8.6782813
1171,Restaurante Sybaris 2.0,"Cardenal Quiroga, 22, 32003 Ourense","{'type': 'Point', 'coordinates': [-7.8648492, 42.3383081]}",42.3383081,-7.8648492
1172,Restaurante La Solana,"Paseo de la Magdalena, 2, 15622 Cabanas , A Coruña","{'type': 'Point', 'coordinates': [-8.171623, 43.4197692]}",43.4197692,-8.171623
1173,Restaurante Taberna O'Secreto,"Calle Alameda, 18 - 15003 A Coruña","{'type': 'Point', 'coordinates': [-8.4057829, 43.3677591]}",43.3677591,-8.4057829
1174,Restaurante Tira do Playa,"Andén de Riazor, s/n 15011 A Coruña","{'type': 'Point', 'coordinates': [-8.4138967, 43.3688199]}",43.3688199,-8.4138967
1175,Restaurante Ca Na Pilar,"Av. de la Mar, 1, 07749 Es Migjorn Gran, Illes Balears, España","{'type': 'Point', 'coordinates': [4.0504746, 39.949764]}",39.949764,4.0504746
1176,Restaurante Adrián Quetglas,"Paseo de Mallorca, 20 - 07012 - Palma de Mallorca (Mallorca - Islas Baleares)","{'type': 'Point', 'coordinates': [2.6435243, 39.5745915]}",39.5745915,2.6435243
1177,Restaurante Ca'n Boqueta,"Gran Via, 43, 07100 Sóller, Illes Balears, España","{'type': 'Point', 'coordinates': [2.7115307, 39.767997]}",39.767997,2.7115307
1178,Restaurante Vinoteca Bagos,"Rúa Michelena, 20, 36002 Pontevedra","{'type': 'Point', 'coordinates': [-8.6453199, 42.4312354]}",42.4312354,-8.6453199
1179,Restaurante Pampín Bar,"Ruela das Fontiñas, 4. 15703 Santiago de Compostela, (A Coruña)","{'type': 'Point', 'coordinates': [-8.5380882, 42.8811212]}",42.8811212,-8.5380882
1180,Restaurante Arrels,"Paseo de Illetas, 7. 07184 Calviá","{'type': 'Point', 'coordinates': [2.5904257013, 39.53691275]}",39.53691275,2.5904257013
1181,Restaurante Cal Reiet's Table,"Carrer de Cal Reiet, 80","{'type': 'Point', 'coordinates': [3.1310918, 39.3547714]}",39.3547714,3.1310918
1182,Restaurante Can March,"Carrer de València, 7, 07500 Manacor, Illes Balears, España","{'type': 'Point', 'coordinates': [3.2048653, 39.5669196]}",39.5669196,3.2048653
1183,Restaurante Pura Louzao,"Avinguda de l'Argentina, 59, 07011 Palma, Illes Balears","{'type': 'Point', 'coordinates': [2.6406498, 39.573774]}",39.573774,2.6406498
1184,Restaurante Re. Art,"Carrer de Castella, 9. 07800 Eivissa (Ibiza - Illes Balears)","{'type': 'Point', 'coordinates': [1.4304409, 38.9098936]}",38.9098936,1.4304409
1185,Restaurante Fera,"CALLE CONCEPCIÓ 4, 07012, Palma de Mallorca","{'type': 'Point', 'coordinates': [2.6465388, 39.5717442]}",39.5717442,2.6465388
1186,Restaurante Cana Sofía,"Calle Castelldefels, 10 07830 Sant Josep de Sa Talaia (Islas Baleares)","{'type': 'Point', 'coordinates': [1.2246004, 38.9132523]}",38.9132523,1.2246004
1187,Restaurante Canela,"Carrer de Sant Jaume, 13, 07012 Palma, Illes Balears, España","{'type': 'Point', 'coordinates': [2.6473998, 39.5724324]}",39.5724324,2.6473998
1188,Restaurante Rels,"Carrer de Sant Isidre, 33, 07760 Ciutadella de Menorca, Illes Balears, España","{'type': 'Point', 'coordinates': [3.8389897, 39.9998478]}",39.9998478,3.8389897
1189,Restaurante Sa Roqueta,"Calle Sirena, 11 07006 Palma de Mallorca","{'type': 'Point', 'coordinates': [2.6698131, 39.5604702]}",39.5604702,2.6698131
1190,Restaurante Carbonera Taberna,Calle maría Teresa gil de Garate 18,"{'type': 'Point', 'coordinates': [-2.450713, 42.4593522]}",42.4593522,-2.450713
1191,Restaurante Stagier bar,"Carrer d'Espartero, 11, 07014 Palma, Illes Balears","{'type': 'Point', 'coordinates': [2.6346272, 39.5710586]}",39.5710586,2.6346272
1192,Restaurante Macao Café de Santa Gertrudis,"Calle Venda des Poble, 8. 07814 Santa Gertrudis de Fruitera (Ibiza - Islas Baleares)","{'type': 'Point', 'coordinates': [1.4283738, 38.9975352]}",38.9975352,1.4283738
1193,Restaurante El Arriero,"Calle Mayor, 16. Sorzano 26191 (La Rioja)","{'type': 'Point', 'coordinates': [-2.5285345, 42.3424416]}",42.3424416,-2.5285345
1194,Restaurante El Cuartito de Echaurren,"Calle Fuero, 15. 26280. Ezcaray (La Rioja)","{'type': 'Point', 'coordinates': [-3.0148834, 42.3251469]}",42.3251469,-3.0148834
1195,Restaurante Casa Toni,"Calle Zumalacárregui, 27. 26338 San Vicente de la Sonsierra (La Rioja)","{'type': 'Point', 'coordinates': [-2.7580485, 42.5613131]}",42.5613131,-2.7580485
1196,Restaurante La Cancela,"Calle Mayor, 51. 26250 Santo Domingo de la Calzada (La Rioja)","{'type': 'Point', 'coordinates': [-2.9492646, 42.4402982]}",42.4402982,-2.9492646
1197,Restaurante La Quisquillosa,"Calle Juan Lobo, 1, 26001 Logroño, La Rioja","{'type': 'Point', 'coordinates': [-2.4443551, 42.4667372]}",42.4667372,-2.4443551
1198,Restaurante Iruña,"Calle Laurel,  8. 26001 Logroño (Rioja, La)","{'type': 'Point', 'coordinates': [-2.387639, 42.354578]}",42.354578,-2.387639
1199,Restaurante Fusión 19,"Av. de S'Albufera, 23","{'type': 'Point', 'coordinates': [3.1169499, 39.8055291]}",39.8055291,3.1169499
1200,Restaurante Joan Marc,"Plaza del Blanquer, 10. 07300 Inca (Balears, Illes)","{'type': 'Point', 'coordinates': [2.905546915, 39.72173725]}",39.72173725,2.905546915
1201,Restaurante La Taberna de la Cuarta Esquina,"Calle Cuatro Esquinas, 16 Calahorra","{'type': 'Point', 'coordinates': [-1.9592923, 42.3019669]}",42.3019669,-1.9592923
1202,Restaurante Mentica Gastronómico,"Calle San Antón, 7, 26500 Calahorra, La Rioja","{'type': 'Point', 'coordinates': [-1.9613048, 42.3011518]}",42.3011518,-1.9613048
1203,Restaurante Mesón Egüés,"Calle La Campa, 3 26005 Logroño (Rioja, La)","{'type': 'Point', 'coordinates': [-2.4569132, 42.4672004]}",42.4672004,-2.4569132
1204,Restaurante Moderna Tradición,"Calle Sagasta, 16. 26001 Logroño","{'type': 'Point', 'coordinates': [-2.4470392, 42.4713847]}",42.4713847,-2.4470392
1205,Restaurante Gloria,"Plaza Florencio Rodríguez, 3 33206 Gijón (Asturias)","{'type': 'Point', 'coordinates': [-5.6635978, 43.5422083]}",43.5422083,-5.6635978
1206,Restaurante Gloria Oviedo,"Calle Cervantes, 24. 33004 Oviedo (Asturias)","{'type': 'Point', 'coordinates': [-5.8564484831, 43.36372525]}",43.36372525,-5.8564484831
1207,Restaurante Tastavin Restaurante,"Calle San Juan, 25. 26001 Logroño (Rioja, La)","{'type': 'Point', 'coordinates': [-2.4444043, 42.4658032]}",42.4658032,-2.4444043
1208,Restaurante El Foralín,"Calle Asturias, 18, 33004 Oviedo, Asturias, España","{'type': 'Point', 'coordinates': [-5.8552675, 43.3632977]}",43.3632977,-5.8552675
1209,Restaurante Virrey,"Paseo de la Constitución, 27. 26580 Arnedo (La Rioja)","{'type': 'Point', 'coordinates': [-2.0899921, 42.2293683]}",42.2293683,-2.0899921
1210,Restaurante Eseteveinte,"Calle Sta. Teresa de Jesús, 20, 33004 Oviedo, Asturias","{'type': 'Point', 'coordinates': [-5.8538956, 43.3611077]}",43.3611077,-5.8538956
1211,Restaurante Llar de Viri,"33828 Candamo, Asturias, España","{'type': 'Point', 'coordinates': [-6.0553547291, 43.434499755]}",43.434499755,-6.0553547291
1212,Restaurante Baazar Gastro TZ,"Calle Cervantes, 27, 33004 Oviedo, Asturias, España","{'type': 'Point', 'coordinates': [-5.856881, 43.3636243]}",43.3636243,-5.856881
1213,Restaurante Viñao,Camino de Viñao 96,"{'type': 'Point', 'coordinates': [-5.6414928, 43.5243669]}",43.5243669,-5.6414928
1214,Restaurante Yume,"Calle La Estación, 18 33401 Avilés (Asturias)","{'type': 'Point', 'coordinates': [-5.9010777, 43.538347]}",43.538347,-5.9010777
1215,Restaurante Atempo Weekend Bistrot,"Calle Siria, 15 30600 Archena (Murcia)","{'type': 'Point', 'coordinates': [-1.2998733, 38.1190916]}",38.1190916,-1.2998733
1216,Restaurante Barrio de San Roque,"Calle Jabonerías, 30 30201 Cartagena (Murcia)","{'type': 'Point', 'coordinates': [-0.9897606, 37.6037358]}",37.6037358,-0.9897606
1217,Restaurante Casa Beltrí,"Huerto de las Bolas, 2. 30310 Cartagena (Murcia)","{'type': 'Point', 'coordinates': [-1.0080826216, 37.64898945]}",37.64898945,-1.0080826216
1218,Restaurante Casino (Gastrobar),"Plaza del Ayuntamiento, 7 30170 Mula (Murcia)","{'type': 'Point', 'coordinates': [-1.4909565, 38.0415697]}",38.0415697,-1.4909565
1219,Restaurante El Vinagrero,"Calle Bailén, 8 30360 La Unión (Murcia)","{'type': 'Point', 'coordinates': [-0.876965, 37.6192024]}",37.6192024,-0.876965
1220,Restaurante Farragua,"Calle Contracay, 3, 33201 Gijón, Asturias, España","{'type': 'Point', 'coordinates': [-5.6630579, 43.5443908]}",43.5443908,-5.6630579
1221,Restaurante La Corte de Pelayo,"Calle San Francisco, 21. 33003 Oviedo (Asturias)","{'type': 'Point', 'coordinates': [-5.8478735, 43.3618239]}",43.3618239,-5.8478735
1222,Restaurante Enso Sushi,"Calle Santa Teresa, 6 30005 Murcia","{'type': 'Point', 'coordinates': [-1.1360164, 37.9870776]}",37.9870776,-1.1360164
1223,Restaurante Kappou Makoto,"Calle Historiador Juan Torres Fontes, 20","{'type': 'Point', 'coordinates': [-1.1192994492, 37.9748356]}",37.9748356,-1.1192994492
1224,Restaurante Keki - Sergio Martínez,"Calle Fuensanta, 4 30001 Murcia","{'type': 'Point', 'coordinates': [-1.1279636, 37.9845507]}",37.9845507,-1.1279636
1225,Restaurante La Cava de Royan,"Avenida Estación de Lorca, 4 30820 Alcantarilla (Murcia)","{'type': 'Point', 'coordinates': [-1.2148057, 37.9669899]}",37.9669899,-1.2148057
1226,Restaurante La Maita,"Calle Mirador del Castillo, 18","{'type': 'Point', 'coordinates': [-3.7067237409, 42.34155125]}",42.34155125,-3.7067237409
1227,Restaurante Jota Ele,"Plaza Santa Isabel, 6 30004 Murcia","{'type': 'Point', 'coordinates': [-1.1326714, 37.9857277]}",37.9857277,-1.1326714
1228,Restaurante La Pequeña Taberna,"Plaza San Juan, 7. 30003 Murcia (Murcia)","{'type': 'Point', 'coordinates': [-1.1261130973, 37.9830463]}",37.9830463,-1.1261130973
1229,Restaurante Pura Cepa,"Plaza Cristo del Rescate, 2, 30003 Murcia, España","{'type': 'Point', 'coordinates': [-1.1257013807, 37.98358975]}",37.98358975,-1.1257013807
1230,Restaurante Salzillo,"Calle Cánovas del Castillo, 28 30003 Murcia","{'type': 'Point', 'coordinates': [-1.1250361, 37.9846613]}",37.9846613,-1.1250361
1231,Restaurante La Tropical,"Calle Santa Teresa, 66. 30710 Los Alcázares (Murcia)","{'type': 'Point', 'coordinates': [-0.8520145, 37.7366264]}",37.7366264,-0.8520145
1232,Restaurante Real Casino de Murcia,"Calle Trapería, 22 30001 Murcia","{'type': 'Point', 'coordinates': [-1.1291859, 37.9856812]}",37.9856812,-1.1291859
1233,Restaurante Tarradellas,"Calle Quevedo, 21 30530 Cieza (Murcia)","{'type': 'Point', 'coordinates': [-1.4152531, 38.2371982]}",38.2371982,-1.4152531
